{"type":"FeatureCollection","features":[{"type":"Feature","properties":{"kind":"ferry","name":"BC Ferries · Departure Bay → Horseshoe Bay","mode":"ferry"},"geometry":{"type":"LineString","coordinates":[[-123.9537888,49.1912971],[-123.2758982,49.3685581]]}},{"type":"Feature","properties":{"kind":"drive","name":"Outbound · Nanaimo corridor → Nipigon (v03)","mode":"driving","distanceMeters":3217920,"durationSeconds":151009,"waypoints":["horseshoe_bay","kamloops","golden","canmore","banff","calgary","medicine_hat","swift_current","regina","brandon","winnipeg","kenora","ignace","thunder_bay","nipigon"]},"geometry":{"type":"LineString","coordinates":[[-123.275899,49.368558],[-123.271758,49.374532],[-123.276459,49.367983],[-123.275307,49.361698],[-123.271105,49.36083],[-123.262572,49.361936],[-123.256452,49.360347],[-123.253764,49.358204],[-123.253182,49.352345],[-123.241288,49.349059],[-123.231759,49.348826],[-123.212282,49.346028],[-123.191629,49.347214],[-123.184491,49.34462],[-123.156521,49.343121],[-123.14627,49.338614],[-123.128893,49.337205],[-123.119938,49.332545],[-123.057341,49.33136],[-123.051688,49.327328],[-123.045266,49.32481],[-123.037588,49.31551],[-123.028115,49.311237],[-123.026277,49.291618],[-123.03195,49.285625],[-123.031579,49.276076],[-123.02568,49.262888],[-123.018653,49.25774],[-122.981917,49.257148],[-122.978289,49.255156],[-122.966818,49.243074],[-122.945678,49.23727],[-122.927212,49.236684],[-122.910292,49.245042],[-122.903764,49.246018],[-122.895917,49.243858],[-122.878193,49.234374],[-122.820444,49.227036],[-122.814962,49.22346],[-122.809761,49.212074],[-122.794037,49.197639],[-122.789449,49.195026],[-122.617382,49.150156],[-122.376911,49.055827],[-122.335259,49.036723],[-122.28063,49.033399],[-122.24167,49.033252],[-122.230118,49.034777],[-122.173247,49.059734],[-122.125837,49.088526],[-122.100674,49.120661],[-122.086162,49.126495],[-122.071427,49.136548],[-122.018802,49.144412],[-121.966929,49.143685],[-121.919385,49.155127],[-121.826505,49.154722],[-121.8211,49.15545],[-121.809543,49.16041],[-121.801354,49.159912],[-121.797977,49.160734],[-121.772427,49.176326],[-121.743989,49.188234],[-121.718822,49.203755],[-121.710682,49.206888],[-121.703827,49.212847],[-121.692995,49.216638],[-121.68305,49.228973],[-121.68086,49.237319],[-121.677706,49.241841],[-121.678758,49.253863],[-121.675521,49.261623],[-121.675772,49.270085],[-121.671521,49.276163],[-121.668091,49.289516],[-121.658658,49.293839],[-121.652498,49.299002],[-121.644655,49.302151],[-121.635715,49.309304],[-121.6299,49.316139],[-121.613919,49.328782],[-121.57716,49.356134],[-121.566616,49.361176],[-121.546281,49.364058],[-121.524999,49.364872],[-121.512325,49.361166],[-121.486974,49.36426],[-121.457577,49.365649],[-121.445861,49.372084],[-121.43889,49.373297],[-121.424149,49.371065],[-121.413563,49.371973],[-121.396274,49.36679],[-121.360966,49.361709],[-121.357368,49.362824],[-121.355577,49.365292],[-121.356789,49.368293],[-121.364135,49.373027],[-121.364177,49.375571],[-121.361537,49.377829],[-121.353451,49.378707],[-121.34675,49.377347],[-121.32033,49.37975],[-121.318723,49.382413],[-121.31952,49.395242],[-121.315613,49.402147],[-121.317579,49.409179],[-121.317178,49.416025],[-121.311743,49.423334],[-121.307659,49.435042],[-121.300284,49.439305],[-121.280179,49.442079],[-121.261019,49.453388],[-121.254486,49.462847],[-121.252858,49.480202],[-121.248732,49.489117],[-121.244223,49.493318],[-121.22593,49.495569],[-121.21084,49.494406],[-121.205622,49.496343],[-121.201912,49.499976],[-121.19883,49.508142],[-121.207104,49.521312],[-121.204671,49.531733],[-121.196795,49.542388],[-121.190431,49.556408],[-121.183401,49.565989],[-121.18159,49.574278],[-121.165541,49.587242],[-121.162025,49.59476],[-121.157548,49.59683],[-121.137506,49.599225],[-121.123525,49.595415],[-121.108218,49.595221],[-121.093799,49.591838],[-121.086434,49.592816],[-121.053064,49.610004],[-121.03735,49.622394],[-121.010576,49.633152],[-121.002701,49.640886],[-121.001702,49.643651],[-121.004128,49.652293],[-121.012866,49.66332],[-121.014739,49.674182],[-121.013162,49.69196],[-121.010944,49.696537],[-121.016461,49.708289],[-121.012083,49.7152],[-121.013507,49.720582],[-121.011535,49.752384],[-121.008991,49.756132],[-121.002846,49.759539],[-120.994856,49.767413],[-120.991143,49.77422],[-120.972688,49.787201],[-120.968077,49.795799],[-120.955971,49.80263],[-120.948704,49.809372],[-120.939138,49.821378],[-120.938187,49.826845],[-120.933642,49.831594],[-120.932995,49.837228],[-120.928266,49.845194],[-120.916698,49.854124],[-120.916203,49.857533],[-120.919101,49.865345],[-120.916063,49.873338],[-120.899814,49.885123],[-120.903938,49.902894],[-120.903393,49.910784],[-120.910004,49.915724],[-120.911249,49.919101],[-120.911378,49.924696],[-120.905142,49.940041],[-120.904702,49.946092],[-120.907119,49.952572],[-120.914745,49.963005],[-120.914418,49.968448],[-120.902937,49.980728],[-120.894596,49.986046],[-120.891494,49.991981],[-120.871996,50.006447],[-120.867825,50.012197],[-120.857703,50.015648],[-120.843519,50.01772],[-120.824869,50.017159],[-120.820115,50.020362],[-120.818479,50.030325],[-120.808326,50.038559],[-120.80649,50.044399],[-120.797358,50.052502],[-120.788834,50.068846],[-120.783399,50.072396],[-120.755275,50.082794],[-120.7497,50.087334],[-120.749023,50.100919],[-120.760481,50.115107],[-120.75967,50.120927],[-120.743047,50.129171],[-120.739082,50.136027],[-120.722934,50.146916],[-120.712402,50.160518],[-120.704226,50.16842],[-120.697875,50.171238],[-120.690981,50.178802],[-120.681577,50.183715],[-120.676593,50.193472],[-120.663681,50.197783],[-120.653086,50.20472],[-120.647308,50.211466],[-120.644072,50.221736],[-120.633002,50.228254],[-120.629538,50.231996],[-120.630477,50.24314],[-120.62917,50.252117],[-120.630695,50.259721],[-120.62573,50.269023],[-120.632988,50.278706],[-120.636021,50.297549],[-120.641616,50.307721],[-120.626492,50.350257],[-120.62732,50.368007],[-120.624895,50.378438],[-120.622625,50.409509],[-120.618831,50.420311],[-120.613364,50.427087],[-120.593929,50.444197],[-120.591738,50.44868],[-120.591051,50.459573],[-120.587498,50.464659],[-120.558817,50.484088],[-120.516322,50.489758],[-120.500867,50.494552],[-120.489334,50.508257],[-120.478278,50.531951],[-120.474696,50.534906],[-120.460029,50.542041],[-120.450049,50.553279],[-120.44889,50.558372],[-120.451122,50.566157],[-120.459384,50.572321],[-120.463695,50.578986],[-120.476935,50.591836],[-120.477389,50.595812],[-120.471818,50.620119],[-120.474049,50.624671],[-120.481867,50.631963],[-120.486039,50.642849],[-120.486147,50.647825],[-120.483306,50.6524],[-120.462489,50.662654],[-120.450625,50.666504],[-120.42065,50.665843],[-120.395212,50.65992],[-120.389146,50.656019],[-120.374759,50.652574],[-120.364081,50.654853],[-120.360687,50.658971],[-120.354761,50.661564],[-120.35432,50.671269],[-120.349839,50.673792],[-120.341021,50.67142],[-120.316619,50.671359],[-120.314754,50.676066],[-120.311626,50.675141],[-120.314754,50.676066],[-120.316372,50.674322],[-120.312667,50.67316],[-120.294444,50.672314],[-120.287648,50.67754],[-120.269257,50.680482],[-120.221711,50.670926],[-120.213316,50.67172],[-120.20053,50.669145],[-120.177368,50.669608],[-120.153406,50.667448],[-120.129972,50.662657],[-120.119754,50.659249],[-120.10619,50.659398],[-120.066083,50.653345],[-120.057165,50.654112],[-120.028996,50.653141],[-120.008055,50.650147],[-119.99767,50.647137],[-119.985841,50.647308],[-119.962544,50.650535],[-119.918246,50.644331],[-119.906228,50.645311],[-119.879862,50.653439],[-119.85433,50.668755],[-119.83505,50.67442],[-119.818064,50.684425],[-119.811494,50.692438],[-119.794963,50.702536],[-119.788507,50.711795],[-119.767265,50.72529],[-119.762609,50.736783],[-119.757223,50.74102],[-119.750402,50.753558],[-119.74186,50.762944],[-119.727702,50.768809],[-119.716071,50.778436],[-119.710429,50.786177],[-119.702762,50.791437],[-119.699046,50.805837],[-119.670486,50.826558],[-119.647912,50.831285],[-119.605185,50.853548],[-119.596295,50.863282],[-119.576644,50.872075],[-119.571458,50.872855],[-119.566547,50.877181],[-119.55855,50.880518],[-119.542501,50.884693],[-119.534775,50.888288],[-119.532162,50.892109],[-119.519692,50.892727],[-119.511588,50.889806],[-119.502118,50.883511],[-119.471375,50.876916],[-119.43418,50.877027],[-119.407024,50.879498],[-119.394835,50.878716],[-119.387264,50.87396],[-119.384739,50.870301],[-119.373071,50.862149],[-119.36723,50.856064],[-119.346224,50.850266],[-119.329843,50.843252],[-119.320184,50.827143],[-119.320053,50.809608],[-119.325188,50.802588],[-119.329261,50.787504],[-119.339632,50.777879],[-119.340562,50.774159],[-119.337476,50.766225],[-119.32537,50.757359],[-119.32545,50.750488],[-119.323116,50.746851],[-119.322554,50.740838],[-119.315639,50.730079],[-119.318607,50.714549],[-119.330106,50.702812],[-119.33144,50.698162],[-119.329851,50.694913],[-119.325832,50.692875],[-119.30985,50.692676],[-119.292484,50.699438],[-119.285132,50.69976],[-119.278228,50.702166],[-119.270146,50.702504],[-119.264152,50.706954],[-119.236459,50.707188],[-119.231534,50.708888],[-119.227268,50.71344],[-119.22634,50.747049],[-119.213456,50.755021],[-119.202068,50.764846],[-119.182085,50.773121],[-119.165161,50.784428],[-119.144334,50.789377],[-119.133601,50.790031],[-119.129444,50.794105],[-119.126101,50.794893],[-119.114742,50.790801],[-119.086052,50.788755],[-119.079947,50.78946],[-119.073749,50.79269],[-119.070649,50.797625],[-119.061595,50.805307],[-119.055978,50.80665],[-119.032595,50.822998],[-119.017406,50.830049],[-119.007947,50.831034],[-118.984536,50.839654],[-118.975116,50.837836],[-118.964868,50.838804],[-118.949097,50.848814],[-118.942741,50.856012],[-118.929016,50.864597],[-118.923294,50.874584],[-118.912349,50.882372],[-118.866945,50.891792],[-118.852999,50.888467],[-118.840724,50.888687],[-118.833825,50.890498],[-118.817244,50.901274],[-118.795753,50.923061],[-118.793016,50.930654],[-118.775284,50.946513],[-118.734864,50.964689],[-118.718521,50.983353],[-118.68935,50.997905],[-118.67805,51.00177],[-118.667239,51.003425],[-118.652648,51.00094],[-118.62656,50.984359],[-118.6161,50.981526],[-118.603614,50.97415],[-118.59018,50.971205],[-118.571937,50.969815],[-118.562822,50.97376],[-118.553142,50.97581],[-118.546775,50.974933],[-118.530232,50.977322],[-118.524317,50.976052],[-118.518998,50.971869],[-118.50702,50.967916],[-118.498386,50.9591],[-118.492032,50.955573],[-118.489569,50.952676],[-118.483529,50.950459],[-118.481015,50.946057],[-118.484477,50.935401],[-118.481671,50.931376],[-118.473052,50.927695],[-118.460331,50.928861],[-118.431364,50.937277],[-118.424479,50.943595],[-118.407106,50.95068],[-118.400341,50.957193],[-118.385186,50.962542],[-118.373597,50.962882],[-118.361233,50.966791],[-118.354522,50.970786],[-118.334138,50.971959],[-118.328931,50.973423],[-118.320657,50.978044],[-118.313365,50.979921],[-118.303997,50.979937],[-118.292723,50.985733],[-118.272749,50.991233],[-118.259483,50.991831],[-118.24597,50.993939],[-118.238979,50.999747],[-118.232263,51.002554],[-118.224155,51.003686],[-118.213727,51.010291],[-118.209306,51.010308],[-118.204256,51.00713],[-118.198139,51.00623],[-118.188005,51.000049],[-118.169456,50.999769],[-118.1535,50.992621],[-118.141901,50.992025],[-118.134728,50.994009],[-118.129594,50.997681],[-118.121992,51.000336],[-118.112689,51.00678],[-118.100994,51.009078],[-118.08186,51.016848],[-117.991505,51.040823],[-117.966985,51.04213],[-117.937035,51.052783],[-117.931336,51.068989],[-117.926476,51.073033],[-117.928566,51.077832],[-117.92779,51.080619],[-117.897436,51.11319],[-117.88739,51.119399],[-117.88649,51.125363],[-117.883276,51.128115],[-117.882338,51.134796],[-117.880249,51.137102],[-117.869777,51.139069],[-117.858479,51.138932],[-117.839479,51.144885],[-117.834797,51.151814],[-117.820064,51.15421],[-117.813203,51.158091],[-117.801485,51.1612],[-117.785309,51.168122],[-117.750522,51.187735],[-117.743728,51.202729],[-117.735184,51.205727],[-117.72621,51.206418],[-117.719139,51.20938],[-117.701136,51.212362],[-117.688495,51.216462],[-117.670007,51.229299],[-117.66251,51.237054],[-117.647805,51.240901],[-117.636147,51.245955],[-117.629253,51.245482],[-117.616064,51.248162],[-117.610207,51.250722],[-117.597721,51.251872],[-117.581122,51.258403],[-117.564247,51.261754],[-117.551857,51.262274],[-117.53955,51.259287],[-117.511761,51.268041],[-117.503784,51.269382],[-117.5035,51.271106],[-117.507718,51.273635],[-117.513171,51.282131],[-117.513214,51.286784],[-117.519842,51.299063],[-117.520022,51.305421],[-117.51473,51.312213],[-117.511314,51.314206],[-117.490057,51.319791],[-117.466099,51.32432],[-117.446473,51.329796],[-117.434362,51.345098],[-117.439232,51.361851],[-117.452847,51.378917],[-117.448299,51.38684],[-117.460225,51.396836],[-117.471131,51.409078],[-117.475289,51.426085],[-117.47921,51.432956],[-117.476969,51.440193],[-117.482433,51.474436],[-117.473878,51.488688],[-117.461576,51.501772],[-117.449642,51.505366],[-117.444991,51.510254],[-117.440837,51.512038],[-117.436161,51.512062],[-117.424714,51.508893],[-117.39687,51.49287],[-117.369006,51.481512],[-117.361635,51.479835],[-117.353139,51.480299],[-117.295606,51.493921],[-117.259906,51.486594],[-117.22781,51.475291],[-117.223183,51.474887],[-117.219084,51.476595],[-117.21797,51.479573],[-117.228244,51.490029],[-117.226035,51.494851],[-117.222467,51.496163],[-117.207297,51.492651],[-117.186657,51.484507],[-117.18087,51.484257],[-117.17063,51.486427],[-117.162975,51.485563],[-117.127982,51.468171],[-117.096183,51.449002],[-117.092856,51.445787],[-117.06109,51.427619],[-117.028996,51.394018],[-117.020737,51.377689],[-117.020566,51.373468],[-117.015763,51.36601],[-117.001261,51.34974],[-116.990291,51.332556],[-116.975494,51.322036],[-116.972357,51.312774],[-116.966334,51.307271],[-116.971172,51.304698],[-116.972928,51.305084],[-116.97153,51.306288],[-116.964425,51.299662],[-116.972392,51.305967],[-116.971774,51.304595],[-116.965406,51.306416],[-116.964045,51.301542],[-116.961306,51.300271],[-116.948277,51.301966],[-116.928809,51.298696],[-116.912592,51.29828],[-116.903163,51.301292],[-116.896592,51.302076],[-116.890498,51.304674],[-116.874877,51.305805],[-116.86398,51.298975],[-116.842476,51.290752],[-116.82528,51.287424],[-116.811683,51.279096],[-116.805895,51.278506],[-116.793473,51.281829],[-116.784024,51.280944],[-116.766874,51.274465],[-116.753056,51.271692],[-116.729207,51.260925],[-116.702641,51.258449],[-116.688109,51.254642],[-116.678028,51.25],[-116.665857,51.246378],[-116.641469,51.232275],[-116.619383,51.222571],[-116.609579,51.222919],[-116.596537,51.218762],[-116.583654,51.216951],[-116.57961,51.217363],[-116.575138,51.219811],[-116.573112,51.223445],[-116.58063,51.237012],[-116.579836,51.244648],[-116.586592,51.250978],[-116.590302,51.262675],[-116.598194,51.270238],[-116.596979,51.272441],[-116.582789,51.281942],[-116.582487,51.291415],[-116.579645,51.297792],[-116.580056,51.305753],[-116.574294,51.323626],[-116.570793,51.326012],[-116.558465,51.328596],[-116.55497,51.330499],[-116.532375,51.357232],[-116.520916,51.36804],[-116.513993,51.372405],[-116.511881,51.380031],[-116.503842,51.384326],[-116.494062,51.397288],[-116.480774,51.404407],[-116.446081,51.419087],[-116.430312,51.420454],[-116.413244,51.430582],[-116.393588,51.431915],[-116.384126,51.436465],[-116.360596,51.437034],[-116.353152,51.440676],[-116.339538,51.442874],[-116.329751,51.447065],[-116.308393,51.451953],[-116.281888,51.453659],[-116.269888,51.458193],[-116.263275,51.456811],[-116.248039,51.444826],[-116.237144,51.444423],[-116.225368,51.442155],[-116.202755,51.441975],[-116.197228,51.439514],[-116.191575,51.433647],[-116.175082,51.427979],[-116.169077,51.413024],[-116.155483,51.400483],[-116.137726,51.394578],[-116.108231,51.37164],[-116.100165,51.359767],[-116.08957,51.352851],[-116.074627,51.345898],[-116.056943,51.333555],[-116.051863,51.328101],[-116.028654,51.313199],[-116.023178,51.307767],[-115.99695,51.288718],[-115.990664,51.286111],[-115.977121,51.283009],[-115.94666,51.26823],[-115.893153,51.254503],[-115.882935,51.247399],[-115.858534,51.240681],[-115.843289,51.23267],[-115.827085,51.226361],[-115.797049,51.218759],[-115.751279,51.186733],[-115.729723,51.167967],[-115.719692,51.16224],[-115.70163,51.158357],[-115.686471,51.156842],[-115.681776,51.157324],[-115.644562,51.175176],[-115.609974,51.180125],[-115.57148,51.191551],[-115.550569,51.196236],[-115.538212,51.207791],[-115.531084,51.208906],[-115.518342,51.202476],[-115.506557,51.200719],[-115.498428,51.198002],[-115.484284,51.182361],[-115.472472,51.175504],[-115.466985,51.170024],[-115.454695,51.167345],[-115.443178,51.162649],[-115.431209,51.151007],[-115.411221,51.137878],[-115.405139,51.13213],[-115.387492,51.124895],[-115.365413,51.107121],[-115.363537,51.104477],[-115.36478,51.103645],[-115.357518,51.097043],[-115.35499,51.097163],[-115.357518,51.097043],[-115.369738,51.107607],[-115.367145,51.110914],[-115.368576,51.11028],[-115.387909,51.125377],[-115.403432,51.131611],[-115.409703,51.137771],[-115.43033,51.151288],[-115.442518,51.162989],[-115.453257,51.167409],[-115.466299,51.169887],[-115.471788,51.17536],[-115.484024,51.182525],[-115.499651,51.199055],[-115.517848,51.202564],[-115.530376,51.208917],[-115.537447,51.20935],[-115.537578,51.19966],[-115.539563,51.196258],[-115.554045,51.186428],[-115.568373,51.181305],[-115.570959,51.176611],[-115.569306,51.176552],[-115.565868,51.182123],[-115.554674,51.18602],[-115.539647,51.196021],[-115.537447,51.199602],[-115.537277,51.20644],[-115.53484,51.208784],[-115.52958,51.208486],[-115.517689,51.202274],[-115.499886,51.198816],[-115.484284,51.182361],[-115.472472,51.175504],[-115.466985,51.170024],[-115.454695,51.167345],[-115.444156,51.163234],[-115.431209,51.151007],[-115.411221,51.137878],[-115.405139,51.13213],[-115.388619,51.125566],[-115.381114,51.120076],[-115.34167,51.087678],[-115.317869,51.057335],[-115.283624,51.042099],[-115.270614,51.03849],[-115.237897,51.040573],[-115.215586,51.050588],[-115.19872,51.054845],[-115.193034,51.053901],[-115.188548,51.04994],[-115.182665,51.047465],[-115.162083,51.049684],[-115.143168,51.05479],[-115.135882,51.061398],[-115.118315,51.069641],[-115.092429,51.066427],[-115.08603,51.066806],[-115.057726,51.077631],[-115.053569,51.088277],[-115.049724,51.091961],[-114.959718,51.127628],[-114.887,51.140547],[-114.863514,51.145795],[-114.817016,51.150003],[-114.784144,51.159877],[-114.763669,51.161961],[-114.755024,51.159993],[-114.734605,51.147166],[-114.648831,51.112897],[-114.574094,51.090729],[-114.565212,51.090707],[-114.550214,51.093042],[-114.532186,51.087513],[-114.457869,51.086399],[-114.437955,51.08843],[-114.230734,51.088327],[-114.206678,51.082518],[-114.192497,51.080909],[-114.183209,51.07163],[-114.165992,51.06205],[-114.164419,51.052532],[-114.141487,51.04522],[-114.135423,51.041519],[-114.11695,51.0417],[-114.103785,51.045862],[-114.058196,51.044466],[-114.057926,51.048251],[-114.052498,51.048639],[-114.049778,51.05033],[-114.036185,51.047762],[-114.015947,51.047938],[-114.006089,51.045237],[-113.999894,51.045196],[-113.9815,51.052284],[-113.981332,51.064969],[-113.978523,51.066582],[-113.82274,51.066368],[-113.817513,51.064602],[-113.813496,51.060942],[-113.812356,51.049111],[-113.807338,51.041632],[-113.803663,51.039013],[-113.797592,51.037608],[-113.0927,51.037606],[-113.079635,51.035802],[-113.075736,51.03345],[-113.074591,51.030003],[-113.074485,50.911035],[-113.072224,50.907498],[-113.02311,50.865011],[-113.014757,50.863474],[-112.857577,50.863303],[-112.851097,50.861048],[-112.81495,50.835835],[-112.808824,50.834129],[-112.481115,50.833786],[-112.472033,50.832167],[-112.45275,50.818667],[-112.451,50.797698],[-112.443241,50.78645],[-112.434547,50.782898],[-112.417374,50.782427],[-112.411046,50.780597],[-112.407668,50.777562],[-112.401415,50.765006],[-112.348733,50.733183],[-112.344299,50.732253],[-112.3048,50.73145],[-112.188944,50.687799],[-112.08775,50.655517],[-111.979033,50.634279],[-111.785036,50.530539],[-111.705486,50.505055],[-111.617119,50.474839],[-111.182636,50.222905],[-111.071917,50.189667],[-110.985733,50.166983],[-110.956623,50.157959],[-110.778042,50.080938],[-110.745617,50.065833],[-110.742061,50.056693],[-110.72075,50.045159],[-110.705078,50.030468],[-110.704282,50.028697],[-110.707392,50.026238],[-110.707307,50.02242],[-110.707312,50.02346],[-110.697757,50.023455],[-110.684242,50.012806],[-110.665713,50.004935],[-110.654872,50.002906],[-110.639894,49.998104],[-110.609979,49.976871],[-110.601343,49.969133],[-110.595102,49.967108],[-110.55998,49.974567],[-110.518221,49.974709],[-110.445873,49.982519],[-110.421986,49.982707],[-110.386177,49.974756],[-110.339627,49.95558],[-110.296289,49.95734],[-110.22922,49.949997],[-110.162824,49.937317],[-110.122277,49.940456],[-110.055479,49.939075],[-110.014294,49.95095],[-109.99569,49.959172],[-109.98995,49.960359],[-109.941279,49.960391],[-109.895901,49.958971],[-109.858554,49.964369],[-109.822206,49.960934],[-109.71333,49.96101],[-109.664965,49.975095],[-109.54169,49.974992],[-109.496151,49.982293],[-109.345213,49.982008],[-109.211047,50.003816],[-109.125337,50.004307],[-109.076185,50.015889],[-109.046659,50.027215],[-109.026929,50.030585],[-108.967588,50.047061],[-108.916421,50.048092],[-108.88269,50.057213],[-108.866299,50.066545],[-108.858722,50.069156],[-108.816203,50.067131],[-108.787353,50.069906],[-108.583227,50.070223],[-108.558615,50.078018],[-108.543723,50.084765],[-108.503812,50.095131],[-108.482452,50.102007],[-108.461756,50.117488],[-108.427252,50.133982],[-108.410016,50.138505],[-108.345579,50.144103],[-108.283137,50.15722],[-108.255714,50.168959],[-108.20943,50.194722],[-108.162802,50.212549],[-108.00599,50.259996],[-107.955778,50.285012],[-107.938874,50.289906],[-107.930783,50.291159],[-107.900586,50.29167],[-107.873036,50.286458],[-107.817809,50.28729],[-107.807106,50.293873],[-107.799917,50.295297],[-107.798107,50.298068],[-107.787849,50.301426],[-107.785552,50.303432],[-107.781317,50.303933],[-107.775336,50.307011],[-107.773887,50.305312],[-107.72493,50.323142],[-107.713826,50.324687],[-107.683792,50.338866],[-107.645097,50.349902],[-107.615616,50.354537],[-107.59354,50.356373],[-107.581212,50.360421],[-107.501482,50.376738],[-107.47548,50.385867],[-107.469006,50.387041],[-107.436466,50.389832],[-107.29787,50.390147],[-107.243701,50.417493],[-107.219254,50.421371],[-107.203639,50.425436],[-107.142592,50.426283],[-107.116585,50.42452],[-107.104805,50.422715],[-107.072232,50.411394],[-107.039942,50.408998],[-107.020863,50.411941],[-106.959,50.412023],[-106.950932,50.414403],[-106.911042,50.437041],[-106.904026,50.439829],[-106.848043,50.440635],[-106.787957,50.457824],[-106.727932,50.462777],[-106.720713,50.462509],[-106.673656,50.45378],[-106.651426,50.456908],[-106.626296,50.46317],[-106.579242,50.466292],[-106.557499,50.466507],[-106.513947,50.465596],[-106.491497,50.462515],[-106.332071,50.463424],[-106.274221,50.455597],[-106.248301,50.455747],[-106.229268,50.457127],[-106.215385,50.455788],[-106.174252,50.455848],[-106.13865,50.462934],[-106.021258,50.463047],[-105.890915,50.483353],[-105.861175,50.476424],[-105.820307,50.454771],[-105.73042,50.426283],[-105.545209,50.425477],[-105.513654,50.418313],[-105.491801,50.398037],[-105.464902,50.392712],[-105.439141,50.39659],[-105.189726,50.396597],[-105.170011,50.391186],[-105.152244,50.392977],[-105.135666,50.396602],[-104.655577,50.396642],[-104.643862,50.394667],[-104.643978,50.401939],[-104.649176,50.40238],[-104.648235,50.40409],[-104.650034,50.404081],[-104.650044,50.405386],[-104.644097,50.405383],[-104.643879,50.395767],[-104.645643,50.394912],[-104.645274,50.39657],[-104.605161,50.396674],[-104.599453,50.39824],[-104.57978,50.41724],[-104.562895,50.437617],[-104.561734,50.440956],[-104.562915,50.44491],[-104.561016,50.44687],[-104.344739,50.447601],[-104.338903,50.449159],[-104.265491,50.485847],[-104.244077,50.493776],[-104.136811,50.508371],[-104.111579,50.512911],[-104.06381,50.514077],[-104.040615,50.519414],[-103.956656,50.523027],[-103.930681,50.527102],[-103.711434,50.527454],[-103.691455,50.524431],[-103.641375,50.52531],[-103.571284,50.517789],[-103.50465,50.493373],[-103.45472,50.477229],[-103.293361,50.428058],[-103.289082,50.425625],[-103.279211,50.414575],[-103.27222,50.411795],[-102.959194,50.411635],[-102.931357,50.403729],[-102.860708,50.403656],[-102.684962,50.381485],[-102.633123,50.3802],[-102.617758,50.377929],[-102.611325,50.378959],[-102.596561,50.384179],[-102.588708,50.384616],[-102.566076,50.379033],[-102.474521,50.371764],[-102.448117,50.36825],[-102.417111,50.367648],[-102.396014,50.361235],[-102.3407,50.353712],[-102.287915,50.338306],[-102.250528,50.335849],[-102.234772,50.32687],[-102.228884,50.324829],[-102.172948,50.314014],[-102.127784,50.311099],[-102.108528,50.303865],[-102.091405,50.301219],[-102.065395,50.293273],[-102.053654,50.287839],[-102.034563,50.283206],[-102.012848,50.274403],[-101.999287,50.270461],[-101.971392,50.268313],[-101.946595,50.257478],[-101.924485,50.253032],[-101.820673,50.218472],[-101.805438,50.212005],[-101.773659,50.205633],[-101.726967,50.179491],[-101.684717,50.158338],[-101.666414,50.15288],[-101.654205,50.146927],[-101.635561,50.129047],[-101.628968,50.125034],[-101.586377,50.110969],[-101.515407,50.077505],[-101.457587,50.061457],[-101.429175,50.051972],[-101.382113,50.032897],[-101.35961,50.029939],[-101.347098,50.019344],[-101.32667,50.012632],[-101.305007,50.007703],[-101.284283,49.998944],[-101.26075,49.986639],[-101.243265,49.984567],[-101.237251,49.982629],[-101.213274,49.960502],[-101.187768,49.946602],[-101.168006,49.945453],[-101.126554,49.937955],[-101.079346,49.918779],[-101.021398,49.897621],[-100.965977,49.871505],[-100.922311,49.857418],[-100.833292,49.799805],[-100.790781,49.7922],[-100.769855,49.782888],[-100.706173,49.768834],[-100.653647,49.768856],[-100.632578,49.774421],[-100.604533,49.768878],[-100.515462,49.768725],[-100.487718,49.771919],[-100.482644,49.773567],[-100.472946,49.781255],[-100.467973,49.78309],[-100.433392,49.783398],[-100.427861,49.784284],[-100.374717,49.812991],[-100.333827,49.829344],[-100.310818,49.829985],[-100.293712,49.835619],[-100.27845,49.836427],[-100.26323,49.841523],[-100.209344,49.841333],[-100.147991,49.842892],[-100.069207,49.884217],[-100.061874,49.886302],[-99.939612,49.886699],[-99.938999,49.863275],[-99.936329,49.859348],[-99.9416,49.85214],[-99.935807,49.859326],[-99.938723,49.863764],[-99.938269,49.886692],[-99.762716,49.886435],[-99.705837,49.900826],[-99.348389,49.901479],[-99.273471,49.901114],[-99.246727,49.899636],[-99.226266,49.901161],[-99.064069,49.90149],[-99.024461,49.91819],[-98.99377,49.944203],[-98.989336,49.946181],[-98.96461,49.948911],[-98.922832,49.959765],[-98.839599,49.959958],[-98.817983,49.961653],[-98.776779,49.973475],[-98.76742,49.97509],[-98.36862,49.97479],[-98.360425,49.971914],[-98.355036,49.964379],[-98.351252,49.961908],[-98.297923,49.945946],[-98.292767,49.946823],[-98.263647,49.957989],[-98.241238,49.960987],[-98.23077,49.971518],[-98.216299,49.974624],[-98.111902,49.971906],[-97.651781,49.886852],[-97.525493,49.886583],[-97.502409,49.887686],[-97.476118,49.882067],[-97.403554,49.875911],[-97.405254,49.866785],[-97.398303,49.863429],[-97.371488,49.862349],[-97.362425,49.860122],[-97.364579,49.858048],[-97.366383,49.837049],[-97.283661,49.840194],[-97.228932,49.845091],[-97.219519,49.84231],[-97.219336,49.839167],[-97.219013,49.842072],[-97.209173,49.841209],[-97.209275,49.829057],[-97.204647,49.825309],[-97.193127,49.810788],[-97.189586,49.809383],[-97.186161,49.80962],[-97.162854,49.817968],[-97.139427,49.822284],[-97.084948,49.840329],[-97.049522,49.840118],[-97.048955,49.855781],[-97.01239,49.855739],[-97.007048,49.853948],[-96.989421,49.842261],[-96.975063,49.836355],[-96.968296,49.835892],[-96.962596,49.83412],[-96.950599,49.828369],[-96.943383,49.823149],[-96.752813,49.743419],[-96.55817,49.665613],[-96.548934,49.662953],[-96.321754,49.662771],[-96.26489,49.655958],[-96.251249,49.655815],[-96.137276,49.655858],[-96.10737,49.662644],[-96.086725,49.662909],[-96.049584,49.656902],[-95.972674,49.648407],[-95.865087,49.64961],[-95.800766,49.648609],[-95.770612,49.646541],[-95.739299,49.646539],[-95.723807,49.648227],[-95.716357,49.646306],[-95.698065,49.634211],[-95.69004,49.627327],[-95.680605,49.622976],[-95.668732,49.6211],[-95.610073,49.630904],[-95.596699,49.634129],[-95.574805,49.634204],[-95.557043,49.632868],[-95.532736,49.634386],[-95.514266,49.632657],[-95.498069,49.635156],[-95.465068,49.635915],[-95.450544,49.64348],[-95.399836,49.659106],[-95.385742,49.669364],[-95.360032,49.682951],[-95.283213,49.703867],[-95.269052,49.70637],[-95.26539,49.708828],[-95.251166,49.728366],[-95.224878,49.736619],[-95.166986,49.737808],[-95.14664,49.739799],[-95.123821,49.740126],[-95.110222,49.742859],[-95.103572,49.743089],[-95.087304,49.739783],[-95.064515,49.732535],[-95.046602,49.72993],[-95.034278,49.729258],[-95.011458,49.73091],[-94.986124,49.727169],[-94.964878,49.72804],[-94.930577,49.721591],[-94.898384,49.720566],[-94.887818,49.72246],[-94.875653,49.717547],[-94.8491,49.711344],[-94.839375,49.711808],[-94.832379,49.71588],[-94.825507,49.717128],[-94.803388,49.713679],[-94.781782,49.716532],[-94.769613,49.715317],[-94.751249,49.71618],[-94.730239,49.71893],[-94.718123,49.717867],[-94.655167,49.739465],[-94.645765,49.746197],[-94.641594,49.744849],[-94.632553,49.746889],[-94.609054,49.747837],[-94.590239,49.751802],[-94.577843,49.756013],[-94.538037,49.758811],[-94.53045,49.76082],[-94.520476,49.765995],[-94.514456,49.767702],[-94.505886,49.765611],[-94.495798,49.770901],[-94.491006,49.770014],[-94.491312,49.766525],[-94.486458,49.765216],[-94.477567,49.765266],[-94.476337,49.760913],[-94.470977,49.759656],[-94.472123,49.757988],[-94.470964,49.759876],[-94.457694,49.759968],[-94.448453,49.751323],[-94.438656,49.747713],[-94.433043,49.747081],[-94.414108,49.751343],[-94.386402,49.747108],[-94.374461,49.746513],[-94.366991,49.743957],[-94.354676,49.744372],[-94.343201,49.739486],[-94.342084,49.736747],[-94.343492,49.731414],[-94.342022,49.728949],[-94.330794,49.725813],[-94.308285,49.728813],[-94.303573,49.732626],[-94.300948,49.733087],[-94.282846,49.732327],[-94.248379,49.726515],[-94.22981,49.732974],[-94.221662,49.749467],[-94.21812,49.75213],[-94.203642,49.754468],[-94.194013,49.754144],[-94.184166,49.756818],[-94.172507,49.762711],[-94.161995,49.760964],[-94.150935,49.763008],[-94.147024,49.761428],[-94.141879,49.756388],[-94.135154,49.756148],[-94.126286,49.760534],[-94.120431,49.767337],[-94.110879,49.767447],[-94.104276,49.770209],[-94.092088,49.770441],[-94.086413,49.772518],[-94.080021,49.778622],[-94.066321,49.784155],[-94.059241,49.789464],[-94.043625,49.793977],[-94.031293,49.804728],[-94.012744,49.808427],[-93.985671,49.826127],[-93.962365,49.828077],[-93.945576,49.835573],[-93.937312,49.836108],[-93.927817,49.838442],[-93.921182,49.843317],[-93.916418,49.844728],[-93.887087,49.841711],[-93.875608,49.845279],[-93.863839,49.845178],[-93.853405,49.849024],[-93.849018,49.849506],[-93.844286,49.847769],[-93.839523,49.841795],[-93.834206,49.839936],[-93.823814,49.841377],[-93.811226,49.838831],[-93.78247,49.838814],[-93.752737,49.833915],[-93.720698,49.835822],[-93.707869,49.833559],[-93.669745,49.838261],[-93.663796,49.837363],[-93.642902,49.830582],[-93.631107,49.828636],[-93.595808,49.828949],[-93.579673,49.834212],[-93.568852,49.835146],[-93.561704,49.833648],[-93.55103,49.827398],[-93.541621,49.825007],[-93.527244,49.815443],[-93.521631,49.814334],[-93.507459,49.818127],[-93.501268,49.824387],[-93.484576,49.827785],[-93.47296,49.834201],[-93.460059,49.838984],[-93.440634,49.840877],[-93.42726,49.852503],[-93.419239,49.856354],[-93.403061,49.859947],[-93.392202,49.860811],[-93.368338,49.854935],[-93.339909,49.84395],[-93.32355,49.839356],[-93.293107,49.825523],[-93.245746,49.811367],[-93.202914,49.814994],[-92.8524,49.815088],[-92.84938,49.814292],[-92.847416,49.812042],[-92.847225,49.78832],[-92.844917,49.786796],[-92.703367,49.784896],[-92.700145,49.783092],[-92.6867,49.767877],[-92.673118,49.761747],[-92.656307,49.759127],[-92.647838,49.753496],[-92.619489,49.739434],[-92.610926,49.73173],[-92.60258,49.720288],[-92.596262,49.717356],[-92.584864,49.706939],[-92.568928,49.69838],[-92.55129,49.693945],[-92.532191,49.692657],[-92.522914,49.690301],[-92.51163,49.689808],[-92.501796,49.691231],[-92.495252,49.688561],[-92.492745,49.685195],[-92.492236,49.670471],[-92.482553,49.662238],[-92.474642,49.652155],[-92.467817,49.647927],[-92.455711,49.64759],[-92.445266,49.643994],[-92.441958,49.641579],[-92.439824,49.629908],[-92.44445,49.617306],[-92.442733,49.611871],[-92.429607,49.606384],[-92.410483,49.59422],[-92.398399,49.593036],[-92.342951,49.583024],[-92.334083,49.583925],[-92.307229,49.582985],[-92.287981,49.587954],[-92.270332,49.58806],[-92.264076,49.584387],[-92.259517,49.574283],[-92.245444,49.566997],[-92.227972,49.564922],[-92.219364,49.559251],[-92.204355,49.555485],[-92.187818,49.548976],[-92.182423,49.545407],[-92.162114,49.539585],[-92.152487,49.53422],[-92.14715,49.533813],[-92.129041,49.53619],[-92.123087,49.535521],[-92.091501,49.522988],[-92.081258,49.521701],[-92.054532,49.505497],[-92.028313,49.498382],[-92.005257,49.488628],[-91.983846,49.485361],[-91.975132,49.485935],[-91.961054,49.484894],[-91.935621,49.471982],[-91.909595,49.465637],[-91.898189,49.463692],[-91.889765,49.4636],[-91.874057,49.459881],[-91.860447,49.458964],[-91.837267,49.454908],[-91.825525,49.457329],[-91.807057,49.45779],[-91.779811,49.453539],[-91.764119,49.453872],[-91.756719,49.451039],[-91.743787,49.435508],[-91.738314,49.433176],[-91.733064,49.433509],[-91.72128,49.437324],[-91.689758,49.433722],[-91.684555,49.430514],[-91.675997,49.418379],[-91.652455,49.415788],[-91.636762,49.406155],[-91.623747,49.402855],[-91.625717,49.40422],[-91.626981,49.404193],[-91.616718,49.400962],[-91.604051,49.393346],[-91.599423,49.388673],[-91.573027,49.372857],[-91.560169,49.369529],[-91.520023,49.351194],[-91.494777,49.345403],[-91.48147,49.34405],[-91.472435,49.339024],[-91.444639,49.331062],[-91.404726,49.324283],[-91.396951,49.319464],[-91.359669,49.307702],[-91.327613,49.304307],[-91.308224,49.295673],[-91.295662,49.286876],[-91.275833,49.279524],[-91.267086,49.270046],[-91.254216,49.266313],[-91.221617,49.262628],[-91.210984,49.259847],[-91.18828,49.257973],[-91.149907,49.263912],[-91.123654,49.255368],[-91.107013,49.251654],[-91.08451,49.241418],[-91.077114,49.241779],[-91.062711,49.249397],[-91.035119,49.246142],[-90.968881,49.233152],[-90.965934,49.230977],[-90.963941,49.225328],[-90.956906,49.222247],[-90.915059,49.227758],[-90.901691,49.227075],[-90.89273,49.222444],[-90.88814,49.218524],[-90.870154,49.193205],[-90.861317,49.187169],[-90.852095,49.18379],[-90.842712,49.177252],[-90.842454,49.162189],[-90.84047,49.15901],[-90.817047,49.150667],[-90.745202,49.133452],[-90.729175,49.127195],[-90.711389,49.11432],[-90.706506,49.097542],[-90.70016,49.090525],[-90.688712,49.081355],[-90.67985,49.063442],[-90.663395,49.056214],[-90.649862,49.048162],[-90.619137,49.046071],[-90.606105,49.048762],[-90.581832,49.051603],[-90.572946,49.050799],[-90.4736,49.050728],[-90.469667,49.048217],[-90.469171,49.043522],[-90.463194,49.032895],[-90.436465,49.016904],[-90.411978,49.005346],[-90.383746,48.989217],[-90.365746,48.983654],[-90.318345,48.965574],[-90.301476,48.960697],[-90.205183,48.948317],[-90.132186,48.93595],[-90.027534,48.902786],[-89.981936,48.875522],[-89.942285,48.843314],[-89.934696,48.832383],[-89.923845,48.824147],[-89.918073,48.815772],[-89.898272,48.80325],[-89.876974,48.768802],[-89.881191,48.740764],[-89.892447,48.694308],[-89.893137,48.641027],[-89.897995,48.621763],[-89.896614,48.598468],[-89.89452,48.595445],[-89.879707,48.590924],[-89.850799,48.586836],[-89.841409,48.586657],[-89.835437,48.584222],[-89.817326,48.581442],[-89.804942,48.575114],[-89.7881,48.573018],[-89.763012,48.564949],[-89.742091,48.556079],[-89.731183,48.555518],[-89.723031,48.55212],[-89.701295,48.54824],[-89.69251,48.542716],[-89.685727,48.542814],[-89.678425,48.54552],[-89.673285,48.545623],[-89.662183,48.540522],[-89.652602,48.538251],[-89.649638,48.534127],[-89.641889,48.534592],[-89.630238,48.53198],[-89.614991,48.532102],[-89.599972,48.537238],[-89.582911,48.532647],[-89.56914,48.535178],[-89.558658,48.535798],[-89.535883,48.526018],[-89.518866,48.524759],[-89.507474,48.519362],[-89.500523,48.513809],[-89.481387,48.513782],[-89.465723,48.508577],[-89.449219,48.50524],[-89.434818,48.497736],[-89.430315,48.496707],[-89.422664,48.497507],[-89.415272,48.49607],[-89.407171,48.496537],[-89.395755,48.493572],[-89.389175,48.490101],[-89.379558,48.491398],[-89.349953,48.488426],[-89.337988,48.488435],[-89.319517,48.479641],[-89.314712,48.475455],[-89.301753,48.471972],[-89.287336,48.465494],[-89.269923,48.460017],[-89.262995,48.455115],[-89.252536,48.451005],[-89.251665,48.449558],[-89.263822,48.443449],[-89.281067,48.428874],[-89.287976,48.405456],[-89.223455,48.40641],[-89.224487,48.386613],[-89.239647,48.379996],[-89.24002,48.373437],[-89.230473,48.373471],[-89.230468,48.375558],[-89.230473,48.373471],[-89.24002,48.373437],[-89.239647,48.379996],[-89.224487,48.386613],[-89.223455,48.40641],[-89.240743,48.406592],[-89.236902,48.415251],[-89.228774,48.427026],[-89.238345,48.429619],[-89.228035,48.446465],[-89.228018,48.452081],[-89.225489,48.453152],[-89.225304,48.461638],[-89.191942,48.481185],[-89.184944,48.483329],[-89.164917,48.484458],[-89.118503,48.505204],[-89.112527,48.505212],[-89.092374,48.501442],[-89.077944,48.503134],[-89.052191,48.504109],[-89.020351,48.517142],[-88.978471,48.526003],[-88.919365,48.544962],[-88.897401,48.554211],[-88.856084,48.56638],[-88.834704,48.569404],[-88.800712,48.583126],[-88.76412,48.620923],[-88.751959,48.629089],[-88.738024,48.641428],[-88.728243,48.645615],[-88.715169,48.646898],[-88.702684,48.650394],[-88.691195,48.649794],[-88.682185,48.65236],[-88.671498,48.656852],[-88.647046,48.670563],[-88.634629,48.684569],[-88.627515,48.706189],[-88.620931,48.716647],[-88.614561,48.720263],[-88.599654,48.723089],[-88.588031,48.732167],[-88.581061,48.739805],[-88.571607,48.761796],[-88.540802,48.794605],[-88.539427,48.810932],[-88.521782,48.83989],[-88.521153,48.849572],[-88.519124,48.852691],[-88.476279,48.879423],[-88.455348,48.880409],[-88.42933,48.884445],[-88.420612,48.890149],[-88.409321,48.895181],[-88.375499,48.905188],[-88.36808,48.915334],[-88.366715,48.941819],[-88.362753,48.945586],[-88.347601,48.952357],[-88.338329,48.960448],[-88.336138,48.966086],[-88.334217,48.989012],[-88.328448,48.996431],[-88.321906,49.009494],[-88.298964,49.022277],[-88.272652,49.018491],[-88.255546,49.019],[-88.254013,49.020412],[-88.251304,49.018836]]}},{"type":"Feature","properties":{"kind":"return","name":"Return · alternate ladder → Hope → Horseshoe Bay","mode":"driving","distanceMeters":3202989,"durationSeconds":149422,"waypoints":["nipigon","dryden","portage","yorkton","moose_jaw","brooks","calgary_south","revelstoke","hope","horseshoe_bay"]},"geometry":{"type":"LineString","coordinates":[[-88.251304,49.018836],[-88.254013,49.020412],[-88.255558,49.01913],[-88.274389,49.018619],[-88.298964,49.022277],[-88.322105,49.009688],[-88.334751,48.988888],[-88.33656,48.966949],[-88.339074,48.960299],[-88.348339,48.95231],[-88.363116,48.945832],[-88.367108,48.942075],[-88.36808,48.915334],[-88.375499,48.905188],[-88.409468,48.895536],[-88.420934,48.890276],[-88.429246,48.884706],[-88.45468,48.880703],[-88.476396,48.87964],[-88.519124,48.852691],[-88.521153,48.849572],[-88.521782,48.83989],[-88.539427,48.810932],[-88.540802,48.794605],[-88.571861,48.762272],[-88.581731,48.739693],[-88.593085,48.727795],[-88.600364,48.722764],[-88.614561,48.720263],[-88.620931,48.716647],[-88.627515,48.706189],[-88.634629,48.684569],[-88.643993,48.673022],[-88.648125,48.669932],[-88.671498,48.656852],[-88.682185,48.65236],[-88.691195,48.649794],[-88.702684,48.650394],[-88.715169,48.646898],[-88.728243,48.645615],[-88.738024,48.641428],[-88.751959,48.629089],[-88.76412,48.620923],[-88.801204,48.583322],[-88.834246,48.569943],[-88.856586,48.566628],[-88.897102,48.554656],[-88.918519,48.545622],[-88.976613,48.526928],[-89.021008,48.517295],[-89.05115,48.505123],[-89.092094,48.501775],[-89.113441,48.505729],[-89.120506,48.505145],[-89.165097,48.484767],[-89.184097,48.483615],[-89.190586,48.482085],[-89.221534,48.463521],[-89.237699,48.457046],[-89.250904,48.450163],[-89.262995,48.455115],[-89.269923,48.460017],[-89.287336,48.465494],[-89.301753,48.471972],[-89.314712,48.475455],[-89.319517,48.479641],[-89.337988,48.488435],[-89.349953,48.488426],[-89.379558,48.491398],[-89.389175,48.490101],[-89.395755,48.493572],[-89.407171,48.496537],[-89.432659,48.497035],[-89.449219,48.50524],[-89.465723,48.508577],[-89.481387,48.513782],[-89.500523,48.513809],[-89.507474,48.519362],[-89.518866,48.524759],[-89.535883,48.526018],[-89.559356,48.535945],[-89.582911,48.532647],[-89.599972,48.537238],[-89.614991,48.532102],[-89.630238,48.53198],[-89.641889,48.534592],[-89.649194,48.53426],[-89.652602,48.538251],[-89.662183,48.540522],[-89.672619,48.545452],[-89.676837,48.545805],[-89.685358,48.542876],[-89.69251,48.542716],[-89.701295,48.54824],[-89.723031,48.55212],[-89.731183,48.555518],[-89.742091,48.556079],[-89.763012,48.564949],[-89.7881,48.573018],[-89.804942,48.575114],[-89.818149,48.581656],[-89.835437,48.584222],[-89.841409,48.586657],[-89.850799,48.586836],[-89.879707,48.590924],[-89.893824,48.595042],[-89.896614,48.598468],[-89.897995,48.621763],[-89.893137,48.641027],[-89.892447,48.694308],[-89.881191,48.740764],[-89.876974,48.768802],[-89.898916,48.803912],[-89.917105,48.814907],[-89.923845,48.824147],[-89.934696,48.832383],[-89.942285,48.843314],[-89.981936,48.875522],[-90.027534,48.902786],[-90.123134,48.933759],[-90.205183,48.948317],[-90.301476,48.960697],[-90.318345,48.965574],[-90.365746,48.983654],[-90.383746,48.989217],[-90.411978,49.005346],[-90.436465,49.016904],[-90.463194,49.032895],[-90.469171,49.043522],[-90.469667,49.048217],[-90.4736,49.050728],[-90.572946,49.050799],[-90.581832,49.051603],[-90.606105,49.048762],[-90.619137,49.046071],[-90.649862,49.048162],[-90.663395,49.056214],[-90.67985,49.063442],[-90.688712,49.081355],[-90.70016,49.090525],[-90.706506,49.097542],[-90.711389,49.11432],[-90.729175,49.127195],[-90.745202,49.133452],[-90.817047,49.150667],[-90.84047,49.15901],[-90.842454,49.162189],[-90.842712,49.177252],[-90.852095,49.18379],[-90.861317,49.187169],[-90.871369,49.194239],[-90.88814,49.218524],[-90.900556,49.226699],[-90.915059,49.227758],[-90.956906,49.222247],[-90.963941,49.225328],[-90.965934,49.230977],[-90.968881,49.233152],[-91.035119,49.246142],[-91.062711,49.249397],[-91.077114,49.241779],[-91.08451,49.241418],[-91.107013,49.251654],[-91.123654,49.255368],[-91.149907,49.263912],[-91.18828,49.257973],[-91.210984,49.259847],[-91.221617,49.262628],[-91.254216,49.266313],[-91.267086,49.270046],[-91.275833,49.279524],[-91.295662,49.286876],[-91.308224,49.295673],[-91.327613,49.304307],[-91.359669,49.307702],[-91.396951,49.319464],[-91.404726,49.324283],[-91.444639,49.331062],[-91.472435,49.339024],[-91.48147,49.34405],[-91.494777,49.345403],[-91.520023,49.351194],[-91.560169,49.369529],[-91.573027,49.372857],[-91.599423,49.388673],[-91.604051,49.393346],[-91.616718,49.400962],[-91.636762,49.406155],[-91.652455,49.415788],[-91.675997,49.418379],[-91.684555,49.430514],[-91.689758,49.433722],[-91.72128,49.437324],[-91.733064,49.433509],[-91.738314,49.433176],[-91.743787,49.435508],[-91.756719,49.451039],[-91.764119,49.453872],[-91.779811,49.453539],[-91.807057,49.45779],[-91.825525,49.457329],[-91.837267,49.454908],[-91.860447,49.458964],[-91.874057,49.459881],[-91.889765,49.4636],[-91.898189,49.463692],[-91.909595,49.465637],[-91.935621,49.471982],[-91.961054,49.484894],[-91.975132,49.485935],[-91.983846,49.485361],[-92.005257,49.488628],[-92.028313,49.498382],[-92.054532,49.505497],[-92.081258,49.521701],[-92.091501,49.522988],[-92.123087,49.535521],[-92.129041,49.53619],[-92.14715,49.533813],[-92.152487,49.53422],[-92.162114,49.539585],[-92.182423,49.545407],[-92.187818,49.548976],[-92.204355,49.555485],[-92.219364,49.559251],[-92.227972,49.564922],[-92.245444,49.566997],[-92.259517,49.574283],[-92.264076,49.584387],[-92.270332,49.58806],[-92.287981,49.587954],[-92.307229,49.582985],[-92.334083,49.583925],[-92.342951,49.583024],[-92.398399,49.593036],[-92.410483,49.59422],[-92.429607,49.606384],[-92.442733,49.611871],[-92.44445,49.617306],[-92.439824,49.629908],[-92.441958,49.641579],[-92.445266,49.643994],[-92.455711,49.64759],[-92.467817,49.647927],[-92.474642,49.652155],[-92.482553,49.662238],[-92.492236,49.670471],[-92.492745,49.685195],[-92.495252,49.688561],[-92.501796,49.691231],[-92.51163,49.689808],[-92.522914,49.690301],[-92.532191,49.692657],[-92.55129,49.693945],[-92.568928,49.69838],[-92.584864,49.706939],[-92.596262,49.717356],[-92.60258,49.720288],[-92.610926,49.73173],[-92.619489,49.739434],[-92.647838,49.753496],[-92.656307,49.759127],[-92.673118,49.761747],[-92.6867,49.767877],[-92.700145,49.783092],[-92.703367,49.784896],[-92.844917,49.786796],[-92.847225,49.78832],[-92.847416,49.812042],[-92.84938,49.814292],[-92.8524,49.815088],[-93.202914,49.814994],[-93.245746,49.811367],[-93.293107,49.825523],[-93.32355,49.839356],[-93.339909,49.84395],[-93.368338,49.854935],[-93.390824,49.860699],[-93.401532,49.860141],[-93.416409,49.857264],[-93.4256,49.853552],[-93.440634,49.840877],[-93.460059,49.838984],[-93.47296,49.834201],[-93.484576,49.827785],[-93.501268,49.824387],[-93.507459,49.818127],[-93.521631,49.814334],[-93.527244,49.815443],[-93.541621,49.825007],[-93.55103,49.827398],[-93.561704,49.833648],[-93.568852,49.835146],[-93.579673,49.834212],[-93.595808,49.828949],[-93.631107,49.828636],[-93.642902,49.830582],[-93.663796,49.837363],[-93.669745,49.838261],[-93.707869,49.833559],[-93.720698,49.835822],[-93.752737,49.833915],[-93.78247,49.838814],[-93.811226,49.838831],[-93.823814,49.841377],[-93.834206,49.839936],[-93.839523,49.841795],[-93.844286,49.847769],[-93.849018,49.849506],[-93.853405,49.849024],[-93.863839,49.845178],[-93.875608,49.845279],[-93.887087,49.841711],[-93.903264,49.84405],[-93.917796,49.844545],[-93.927817,49.838442],[-93.937312,49.836108],[-93.945576,49.835573],[-93.962365,49.828077],[-93.985671,49.826127],[-94.012744,49.808427],[-94.031293,49.804728],[-94.043625,49.793977],[-94.059241,49.789464],[-94.066321,49.784155],[-94.080021,49.778622],[-94.086413,49.772518],[-94.092088,49.770441],[-94.104276,49.770209],[-94.110879,49.767447],[-94.120431,49.767337],[-94.126286,49.760534],[-94.135154,49.756148],[-94.141879,49.756388],[-94.147024,49.761428],[-94.150935,49.763008],[-94.161995,49.760964],[-94.172507,49.762711],[-94.184166,49.756818],[-94.194013,49.754144],[-94.203642,49.754468],[-94.21812,49.75213],[-94.221662,49.749467],[-94.22981,49.732974],[-94.249874,49.726364],[-94.260074,49.729132],[-94.275873,49.73047],[-94.284517,49.732533],[-94.310964,49.733642],[-94.316741,49.73575],[-94.319788,49.739328],[-94.323851,49.7593],[-94.332947,49.773533],[-94.337753,49.787662],[-94.340717,49.791361],[-94.345544,49.794067],[-94.352167,49.795402],[-94.369831,49.795799],[-94.385692,49.801775],[-94.39725,49.800938],[-94.415982,49.80331],[-94.428675,49.801689],[-94.463954,49.805988],[-94.505026,49.797097],[-94.519981,49.792332],[-94.552787,49.789738],[-94.570261,49.781461],[-94.57574,49.781639],[-94.585399,49.785321],[-94.592835,49.785579],[-94.608234,49.780419],[-94.627812,49.777276],[-94.634411,49.774102],[-94.638462,49.770169],[-94.639767,49.766256],[-94.639159,49.754198],[-94.650882,49.741696],[-94.669939,49.733754],[-94.687212,49.729219],[-94.718973,49.717764],[-94.730239,49.71893],[-94.751249,49.71618],[-94.769613,49.715317],[-94.781782,49.716532],[-94.803388,49.713679],[-94.825507,49.717128],[-94.832379,49.71588],[-94.839375,49.711808],[-94.850977,49.711421],[-94.875653,49.717547],[-94.887818,49.72246],[-94.898384,49.720566],[-94.930577,49.721591],[-94.964878,49.72804],[-94.986124,49.727169],[-95.011458,49.73091],[-95.034278,49.729258],[-95.046602,49.72993],[-95.064515,49.732535],[-95.087304,49.739783],[-95.104148,49.743448],[-95.124827,49.740627],[-95.150881,49.740011],[-95.1789,49.737558],[-95.224878,49.736619],[-95.251166,49.728366],[-95.26539,49.708828],[-95.269052,49.70637],[-95.283213,49.703867],[-95.37064,49.679998],[-95.377829,49.676616],[-95.397532,49.66267],[-95.404514,49.659754],[-95.454473,49.644865],[-95.536598,49.635381],[-95.693852,49.635425],[-95.701007,49.637066],[-95.715696,49.646627],[-95.722518,49.648707],[-95.793312,49.648846],[-95.834358,49.650142],[-95.972721,49.649421],[-95.992163,49.653725],[-96.013472,49.656187],[-96.0291,49.659545],[-96.077991,49.66294],[-96.103156,49.667554],[-96.112388,49.666732],[-96.143603,49.65749],[-96.151957,49.656234],[-96.222783,49.658536],[-96.247152,49.656226],[-96.259402,49.656215],[-96.321346,49.663131],[-96.54897,49.663349],[-96.554166,49.664485],[-96.751948,49.74351],[-96.940617,49.822198],[-96.949992,49.829379],[-96.964019,49.834838],[-96.963347,49.836182],[-96.962722,49.834974],[-96.976036,49.823029],[-97.028389,49.821997],[-97.180556,49.769035],[-97.187575,49.76825],[-97.289985,49.768106],[-97.30987,49.770385],[-97.314728,49.771963],[-97.329203,49.789124],[-97.322691,49.854972],[-97.326197,49.871655],[-97.324001,49.882018],[-97.324439,49.88075],[-97.361852,49.876331],[-97.394607,49.87561],[-97.47552,49.882637],[-97.502376,49.887878],[-97.526879,49.886798],[-97.65174,49.887328],[-98.081971,49.966987],[-98.105767,49.972623],[-98.211791,49.97501],[-98.220867,49.976076],[-98.230612,49.974384],[-98.265875,49.97193],[-98.301506,49.973652],[-98.318099,49.97124],[-98.324135,49.972255],[-98.330889,49.975296],[-98.333985,49.974447],[-98.467865,49.975299],[-98.468836,50.04979],[-98.47488,50.059936],[-98.56413,50.121512],[-98.568604,50.12357],[-98.57911,50.125643],[-98.588694,50.130856],[-98.595636,50.138804],[-98.599234,50.1403],[-98.640414,50.14477],[-98.744025,50.181002],[-98.791387,50.181773],[-98.895001,50.210918],[-98.945453,50.211521],[-98.949747,50.214093],[-98.955982,50.223393],[-98.962051,50.225763],[-99.866041,50.225873],[-99.86962,50.227568],[-99.866865,50.232589],[-99.86661,50.243293],[-99.871813,50.253932],[-99.875514,50.256232],[-99.886951,50.2573],[-99.893501,50.260185],[-99.901332,50.264713],[-99.903395,50.269896],[-99.933783,50.270214],[-99.97352,50.288046],[-100.011508,50.298055],[-100.026673,50.304757],[-100.04202,50.305835],[-100.102482,50.321278],[-100.133101,50.331686],[-100.171942,50.340945],[-100.184049,50.345236],[-100.192382,50.355287],[-100.197896,50.358198],[-100.233071,50.358943],[-100.275329,50.374886],[-100.375924,50.398589],[-100.389667,50.406161],[-100.395035,50.414038],[-100.401489,50.417135],[-100.47624,50.417785],[-100.544661,50.432159],[-100.572232,50.436122],[-100.589813,50.446788],[-100.627188,50.447247],[-100.661069,50.45442],[-100.67728,50.461253],[-100.688903,50.46183],[-100.711203,50.46811],[-100.772016,50.478828],[-100.891844,50.488416],[-100.911945,50.498468],[-100.939845,50.498812],[-100.945005,50.499876],[-100.948512,50.502326],[-100.961135,50.517964],[-100.967343,50.520502],[-101.154069,50.520766],[-101.160896,50.521583],[-101.168148,50.525261],[-101.197439,50.558228],[-101.222342,50.578292],[-101.257711,50.59296],[-101.269513,50.602907],[-101.272298,50.615013],[-101.275887,50.621474],[-101.276011,50.767373],[-101.278598,50.771006],[-101.287845,50.773136],[-101.298452,50.771401],[-101.410367,50.771471],[-101.43366,50.766049],[-101.480905,50.771466],[-101.497893,50.771856],[-101.512277,50.778385],[-101.720845,50.849267],[-101.754225,50.856608],[-101.917597,50.903436],[-101.983762,50.909729],[-102.020439,50.927524],[-102.055981,50.939606],[-102.068862,50.961672],[-102.081941,50.973776],[-102.137613,51.011767],[-102.163552,51.036611],[-102.176767,51.047272],[-102.239224,51.077101],[-102.37328,51.156769],[-102.399719,51.167727],[-102.436507,51.19353],[-102.441631,51.195221],[-102.450264,51.195737],[-102.450939,51.199897],[-102.449041,51.206232],[-102.444363,51.206682],[-102.444714,51.205186],[-102.444363,51.206682],[-102.449289,51.206449],[-102.451292,51.1969],[-102.452959,51.195618],[-102.504712,51.194539],[-102.5073,51.195404],[-102.516065,51.189389],[-102.545143,51.145724],[-102.698148,50.99719],[-102.707956,50.989132],[-102.737639,50.958704],[-102.742214,50.956193],[-102.794159,50.941304],[-102.816983,50.939294],[-102.841604,50.917155],[-102.847784,50.916118],[-102.90997,50.915563],[-103.01622,50.89513],[-103.071141,50.879586],[-103.08579,50.87158],[-103.108702,50.870794],[-103.27202,50.842498],[-103.284169,50.839296],[-103.304006,50.836924],[-103.374094,50.824702],[-103.381521,50.82198],[-103.415605,50.800124],[-103.42081,50.798299],[-103.651058,50.798177],[-103.690025,50.794619],[-103.743137,50.778197],[-103.768575,50.773135],[-103.80124,50.761919],[-103.81785,50.752709],[-103.820596,50.750057],[-103.82284,50.742462],[-103.858113,50.709347],[-103.89312,50.694126],[-103.997471,50.629461],[-104.125212,50.56578],[-104.251521,50.499394],[-104.257398,50.490336],[-104.339203,50.449377],[-104.346179,50.447796],[-104.565043,50.447229],[-104.562191,50.441274],[-104.563308,50.437571],[-104.581231,50.416195],[-104.599128,50.39886],[-104.604485,50.396859],[-105.135304,50.396887],[-105.152554,50.393225],[-105.169548,50.391477],[-105.173435,50.392437],[-105.17748,50.39618],[-105.181509,50.396904],[-105.439332,50.396875],[-105.464714,50.393169],[-105.491436,50.398404],[-105.506113,50.412569],[-105.521426,50.411976],[-105.521588,50.410001],[-105.523189,50.410169],[-105.523004,50.411823],[-105.506113,50.412569],[-105.514276,50.41883],[-105.545377,50.425743],[-105.723415,50.425987],[-105.732673,50.427158],[-105.820552,50.455258],[-105.860185,50.476597],[-105.89067,50.483827],[-106.024324,50.463234],[-106.140543,50.463287],[-106.17789,50.461651],[-106.331732,50.463851],[-106.43578,50.462855],[-106.452048,50.464894],[-106.460531,50.463736],[-106.491466,50.462884],[-106.512473,50.466044],[-106.570057,50.466857],[-106.628245,50.463394],[-106.651624,50.457265],[-106.672951,50.454073],[-106.741849,50.46703],[-106.790159,50.478597],[-106.802338,50.480468],[-106.843708,50.482024],[-106.847652,50.480929],[-106.867612,50.465309],[-106.882962,50.458023],[-106.900001,50.443291],[-106.952681,50.413979],[-106.95738,50.412557],[-107.019489,50.41242],[-107.04056,50.409393],[-107.073638,50.412105],[-107.110416,50.424431],[-107.137163,50.426707],[-107.190765,50.426755],[-107.203886,50.425825],[-107.219261,50.421779],[-107.243615,50.41806],[-107.298364,50.39053],[-107.43682,50.390242],[-107.472128,50.387123],[-107.502521,50.3769],[-107.580987,50.360857],[-107.595129,50.356363],[-107.613974,50.355132],[-107.645065,50.350235],[-107.68384,50.339182],[-107.710521,50.326665],[-107.725859,50.323136],[-107.805224,50.295066],[-107.817865,50.287459],[-107.872998,50.286672],[-107.900577,50.291958],[-107.929564,50.291465],[-107.939211,50.290113],[-107.960211,50.284263],[-108.007127,50.260078],[-108.166339,50.211755],[-108.21503,50.192854],[-108.257893,50.168435],[-108.284076,50.157393],[-108.345692,50.144496],[-108.409356,50.138968],[-108.427381,50.134319],[-108.462679,50.117557],[-108.482955,50.102206],[-108.544774,50.084861],[-108.55913,50.078279],[-108.582891,50.070683],[-108.787911,50.070237],[-108.816439,50.067537],[-108.860009,50.06939],[-108.864504,50.068247],[-108.886016,50.056717],[-108.916926,50.048506],[-108.968189,50.047385],[-109.028463,50.030702],[-109.048194,50.027242],[-109.076196,50.01633],[-109.122115,50.005064],[-109.212119,50.004112],[-109.345256,49.982312],[-109.496063,49.982656],[-109.542967,49.975385],[-109.664975,49.975475],[-109.709994,49.962018],[-109.717107,49.961293],[-109.822174,49.961286],[-109.858919,49.964762],[-109.897607,49.959503],[-109.988567,49.960812],[-109.996956,49.959172],[-110.012728,49.95191],[-110.054814,49.93953],[-110.122738,49.940862],[-110.161477,49.9376],[-110.229138,49.950378],[-110.296224,49.95769],[-110.340216,49.956043],[-110.385883,49.975041],[-110.421902,49.983044],[-110.445909,49.982865],[-110.518292,49.975012],[-110.560006,49.974824],[-110.590981,49.967526],[-110.598513,49.968096],[-110.638399,49.997632],[-110.654163,50.002897],[-110.666401,50.005376],[-110.687755,50.014892],[-110.720628,50.04542],[-110.742023,50.05713],[-110.744238,50.064732],[-110.746594,50.066963],[-110.956298,50.158233],[-110.986203,50.167508],[-111.071689,50.189984],[-111.164719,50.217516],[-111.193376,50.229307],[-111.618692,50.475996],[-111.784863,50.53079],[-111.889448,50.58675],[-111.896746,50.592035],[-111.897213,50.586664],[-111.899134,50.586671],[-111.900085,50.585202],[-111.900935,50.57789],[-111.901007,50.578691],[-111.900935,50.57789],[-111.897121,50.577917],[-111.897106,50.592057],[-111.904286,50.594722],[-111.98138,50.635723],[-112.087599,50.655844],[-112.190339,50.688689],[-112.304188,50.731671],[-112.31136,50.732637],[-112.341981,50.732679],[-112.349739,50.734398],[-112.39935,50.764324],[-112.402912,50.768151],[-112.407389,50.77793],[-112.410768,50.78086],[-112.416982,50.782717],[-112.434915,50.783361],[-112.443178,50.786974],[-112.450556,50.798318],[-112.452582,50.819251],[-112.468806,50.830983],[-112.475391,50.833529],[-112.808054,50.83445],[-112.815289,50.836476],[-112.852206,50.862183],[-112.859827,50.863803],[-113.005426,50.863839],[-113.006834,50.860404],[-113.022151,50.852028],[-113.028459,50.849933],[-113.066156,50.84926],[-113.085826,50.847139],[-113.10756,50.850422],[-113.132682,50.85633],[-113.151004,50.868061],[-113.163878,50.873917],[-113.171765,50.881351],[-113.200375,50.892255],[-113.373226,50.892985],[-113.382048,50.894165],[-113.400822,50.899186],[-113.443071,50.901657],[-113.473442,50.906793],[-113.587787,50.907288],[-113.625615,50.902931],[-113.647232,50.907259],[-113.724673,50.907268],[-113.746326,50.909562],[-113.772623,50.907271],[-113.90607,50.906934],[-113.915978,50.908385],[-113.922764,50.906991],[-113.936522,50.906754],[-113.970572,50.902018],[-113.974145,50.903757],[-113.975271,50.908055],[-113.975761,50.938617],[-113.979202,50.943142],[-113.985276,50.946038],[-114.022776,50.952822],[-114.026771,50.955499],[-114.025175,50.95374],[-114.026202,50.951042],[-114.033605,50.948309],[-114.055178,50.948407],[-114.065357,50.950644],[-114.062229,50.950591],[-114.060681,50.952167],[-114.060965,50.949664],[-114.067752,50.950549],[-114.13334,50.950578],[-114.138311,50.951943],[-114.14482,50.963289],[-114.164905,50.987088],[-114.166498,50.994303],[-114.165113,51.002882],[-114.167326,51.006299],[-114.171743,51.008516],[-114.186601,51.011325],[-114.21609,51.021541],[-114.226928,51.023432],[-114.232057,51.0271],[-114.23233,51.039535],[-114.227109,51.048889],[-114.22501,51.071511],[-114.229072,51.088192],[-114.231232,51.090002],[-114.255487,51.08865],[-114.437971,51.088708],[-114.45539,51.086678],[-114.532377,51.087804],[-114.550019,51.093326],[-114.567104,51.090831],[-114.573742,51.090976],[-114.648897,51.11324],[-114.733572,51.147073],[-114.754734,51.160307],[-114.761462,51.162243],[-114.78087,51.160905],[-114.818045,51.150131],[-114.863832,51.146121],[-114.887513,51.140762],[-114.958954,51.128265],[-115.049702,51.092399],[-115.053812,51.088888],[-115.056201,51.080249],[-115.058897,51.077197],[-115.086039,51.067096],[-115.092091,51.066673],[-115.118218,51.069938],[-115.136315,51.061506],[-115.143488,51.054952],[-115.162105,51.049982],[-115.182421,51.047706],[-115.188312,51.05018],[-115.192758,51.054227],[-115.199283,51.055212],[-115.216045,51.050793],[-115.238557,51.040827],[-115.270232,51.038747],[-115.281869,51.041762],[-115.318045,51.05782],[-115.340687,51.087241],[-115.382221,51.121181],[-115.3891,51.126003],[-115.403432,51.131611],[-115.409703,51.137771],[-115.43033,51.151288],[-115.443567,51.163621],[-115.453257,51.167409],[-115.466757,51.170188],[-115.471788,51.17536],[-115.484024,51.182525],[-115.496773,51.197083],[-115.500669,51.199479],[-115.51754,51.202475],[-115.529953,51.208752],[-115.535167,51.209042],[-115.539027,51.207361],[-115.550444,51.196425],[-115.571508,51.1917],[-115.610031,51.180218],[-115.636215,51.177214],[-115.645641,51.174986],[-115.681497,51.15766],[-115.687323,51.157129],[-115.710231,51.160347],[-115.720802,51.163298],[-115.79546,51.218723],[-115.826965,51.226556],[-115.843141,51.232758],[-115.858413,51.240813],[-115.882778,51.24761],[-115.893034,51.254727],[-115.948517,51.269215],[-115.976173,51.282977],[-115.995743,51.288214],[-116.040867,51.322226],[-116.052575,51.328767],[-116.057066,51.334094],[-116.07434,51.346106],[-116.08946,51.352926],[-116.099897,51.359921],[-116.108053,51.371887],[-116.137383,51.394787],[-116.155223,51.400684],[-116.169162,51.413605],[-116.175247,51.428383],[-116.19062,51.433442],[-116.19689,51.439537],[-116.203734,51.442361],[-116.225222,51.442261],[-116.237415,51.444563],[-116.248759,51.445153],[-116.263507,51.457103],[-116.270193,51.45826],[-116.282574,51.453648],[-116.308409,51.452071],[-116.329816,51.447184],[-116.339568,51.442981],[-116.35324,51.440789],[-116.360708,51.437115],[-116.384126,51.436465],[-116.393588,51.431915],[-116.413244,51.430582],[-116.428921,51.420924],[-116.445322,51.419363],[-116.480774,51.404407],[-116.494062,51.397288],[-116.503842,51.384326],[-116.511881,51.380031],[-116.513993,51.372405],[-116.520916,51.36804],[-116.532375,51.357232],[-116.55497,51.330499],[-116.558465,51.328596],[-116.570793,51.326012],[-116.574744,51.322855],[-116.580056,51.305753],[-116.579645,51.297792],[-116.582487,51.291415],[-116.582789,51.281942],[-116.596979,51.272441],[-116.598194,51.270238],[-116.590302,51.262675],[-116.586592,51.250978],[-116.579836,51.244648],[-116.58063,51.237012],[-116.573077,51.222224],[-116.575138,51.219811],[-116.581183,51.217007],[-116.595003,51.218466],[-116.609065,51.222836],[-116.619915,51.222752],[-116.641469,51.232275],[-116.665766,51.246446],[-116.677755,51.25],[-116.68901,51.25505],[-116.702628,51.258553],[-116.729163,51.261018],[-116.752769,51.271683],[-116.766762,51.274558],[-116.784768,51.281228],[-116.793481,51.28193],[-116.805929,51.278598],[-116.81066,51.27891],[-116.825166,51.287506],[-116.843088,51.2911],[-116.863827,51.299083],[-116.874809,51.305885],[-116.890513,51.304764],[-116.911882,51.29838],[-116.928788,51.29879],[-116.948439,51.302064],[-116.959589,51.30031],[-116.963046,51.300863],[-116.965009,51.30652],[-116.972339,51.312998],[-116.975494,51.322036],[-116.990291,51.332556],[-117.001261,51.34974],[-117.015763,51.36601],[-117.020566,51.373468],[-117.020737,51.377689],[-117.028996,51.394018],[-117.06109,51.427619],[-117.092856,51.445787],[-117.096183,51.449002],[-117.127683,51.468128],[-117.142373,51.475159],[-117.147877,51.479249],[-117.162618,51.48561],[-117.169909,51.486569],[-117.180864,51.484342],[-117.186379,51.484546],[-117.207297,51.492651],[-117.222467,51.496163],[-117.226035,51.494851],[-117.228244,51.490029],[-117.21797,51.479573],[-117.219084,51.476595],[-117.223183,51.474887],[-117.22781,51.475291],[-117.259906,51.486594],[-117.295606,51.493921],[-117.35316,51.480444],[-117.36213,51.480023],[-117.369016,51.481619],[-117.39687,51.49287],[-117.424714,51.508893],[-117.436161,51.512062],[-117.440293,51.512138],[-117.444991,51.510254],[-117.450237,51.505073],[-117.461576,51.501772],[-117.473878,51.488688],[-117.482433,51.474436],[-117.476969,51.440193],[-117.47921,51.432956],[-117.475289,51.426085],[-117.471131,51.409078],[-117.460225,51.396836],[-117.448299,51.38684],[-117.452847,51.378917],[-117.439232,51.361851],[-117.434362,51.345098],[-117.446473,51.329796],[-117.46618,51.324424],[-117.491801,51.319372],[-117.511314,51.314206],[-117.51473,51.312213],[-117.520022,51.305421],[-117.519842,51.299063],[-117.513489,51.286762],[-117.513459,51.282044],[-117.507846,51.273489],[-117.50389,51.271074],[-117.504424,51.26936],[-117.511855,51.268141],[-117.53955,51.259287],[-117.551857,51.262274],[-117.564247,51.261754],[-117.581122,51.258403],[-117.597721,51.251872],[-117.610207,51.250722],[-117.616064,51.248162],[-117.629253,51.245482],[-117.636147,51.245955],[-117.647805,51.240901],[-117.66251,51.237054],[-117.670007,51.229299],[-117.688495,51.216462],[-117.701136,51.212362],[-117.719139,51.20938],[-117.72621,51.206418],[-117.735184,51.205727],[-117.743728,51.202729],[-117.750522,51.187735],[-117.785309,51.168122],[-117.801485,51.1612],[-117.813203,51.158091],[-117.820064,51.15421],[-117.834797,51.151814],[-117.839479,51.144885],[-117.858479,51.138932],[-117.869777,51.139069],[-117.879942,51.137255],[-117.882338,51.134796],[-117.883276,51.128115],[-117.88649,51.125363],[-117.88739,51.119399],[-117.897436,51.11319],[-117.928203,51.080002],[-117.926476,51.073033],[-117.931336,51.068989],[-117.935772,51.053731],[-117.967656,51.041976],[-117.975635,51.042329],[-117.991505,51.040823],[-118.08186,51.016848],[-118.100994,51.009078],[-118.112689,51.00678],[-118.121992,51.000336],[-118.140906,50.992193],[-118.15259,50.992388],[-118.160984,50.995486],[-118.165115,50.99845],[-118.171895,50.999218],[-118.180531,50.995349],[-118.191742,50.993704],[-118.193361,50.998942],[-118.208393,51.007923],[-118.216036,51.009446],[-118.224155,51.003686],[-118.232263,51.002554],[-118.239406,50.999527],[-118.24555,50.994071],[-118.275221,50.99063],[-118.293257,50.985539],[-118.303997,50.979937],[-118.313365,50.979921],[-118.320657,50.978044],[-118.328931,50.973423],[-118.338637,50.971155],[-118.35458,50.970881],[-118.361333,50.966866],[-118.373597,50.962882],[-118.385186,50.962542],[-118.400341,50.957193],[-118.407106,50.95068],[-118.424054,50.943829],[-118.431958,50.937044],[-118.461051,50.9287],[-118.474598,50.927725],[-118.481671,50.931376],[-118.484532,50.935538],[-118.481015,50.946057],[-118.483529,50.950459],[-118.489569,50.952676],[-118.492032,50.955573],[-118.498386,50.9591],[-118.50702,50.967916],[-118.518998,50.971869],[-118.524784,50.976229],[-118.530232,50.977322],[-118.546775,50.974933],[-118.553142,50.97581],[-118.562822,50.97376],[-118.571937,50.969815],[-118.59018,50.971205],[-118.603614,50.97415],[-118.6161,50.981526],[-118.62656,50.984359],[-118.635355,50.989131],[-118.64572,50.997336],[-118.654102,51.001478],[-118.6679,51.003429],[-118.679939,51.001261],[-118.690268,50.997649],[-118.719232,50.982896],[-118.72584,50.973529],[-118.735415,50.96434],[-118.775367,50.946586],[-118.793223,50.930745],[-118.796003,50.923104],[-118.8181,50.900731],[-118.834022,50.890624],[-118.840772,50.888856],[-118.853869,50.888607],[-118.866945,50.891792],[-118.912349,50.882372],[-118.923294,50.874584],[-118.929016,50.864597],[-118.942741,50.856012],[-118.949097,50.848814],[-118.964868,50.838804],[-118.974762,50.837936],[-118.984735,50.839712],[-119.007947,50.831034],[-119.017406,50.830049],[-119.032595,50.822998],[-119.055978,50.80665],[-119.061595,50.805307],[-119.070649,50.797625],[-119.073749,50.79269],[-119.079947,50.78946],[-119.086052,50.788755],[-119.114742,50.790801],[-119.126101,50.794893],[-119.129444,50.794105],[-119.133601,50.790031],[-119.144334,50.789377],[-119.165161,50.784428],[-119.182085,50.773121],[-119.202068,50.764846],[-119.213456,50.755021],[-119.22634,50.747049],[-119.227408,50.713552],[-119.231501,50.709042],[-119.236881,50.707257],[-119.264394,50.706974],[-119.270388,50.702547],[-119.278398,50.702249],[-119.285132,50.699874],[-119.292841,50.699456],[-119.309798,50.692794],[-119.326026,50.693037],[-119.329614,50.694847],[-119.331252,50.697887],[-119.330106,50.702812],[-119.318607,50.714549],[-119.315639,50.730079],[-119.322554,50.740838],[-119.323116,50.746851],[-119.32545,50.750488],[-119.32537,50.757359],[-119.337476,50.766225],[-119.340562,50.774159],[-119.339632,50.777879],[-119.329261,50.787504],[-119.325188,50.802588],[-119.31988,50.809666],[-119.320095,50.827365],[-119.329694,50.8433],[-119.345234,50.850031],[-119.367352,50.856261],[-119.372936,50.862207],[-119.38439,50.87014],[-119.386964,50.873866],[-119.394802,50.878763],[-119.407024,50.879498],[-119.43418,50.877027],[-119.471375,50.876916],[-119.502118,50.883511],[-119.511588,50.889806],[-119.519692,50.892727],[-119.532162,50.892109],[-119.534775,50.888288],[-119.542501,50.884693],[-119.55855,50.880518],[-119.566547,50.877181],[-119.571458,50.872855],[-119.576644,50.872075],[-119.596295,50.863282],[-119.605185,50.853548],[-119.647912,50.831285],[-119.670486,50.826558],[-119.699051,50.805988],[-119.702913,50.791445],[-119.710452,50.786381],[-119.716071,50.778436],[-119.727702,50.768809],[-119.74186,50.762944],[-119.750402,50.753558],[-119.757835,50.740608],[-119.762811,50.736826],[-119.767427,50.725348],[-119.788761,50.711838],[-119.795727,50.701992],[-119.810925,50.693038],[-119.817832,50.684792],[-119.835146,50.674505],[-119.854428,50.668919],[-119.880202,50.653499],[-119.90669,50.64539],[-119.91818,50.644506],[-119.962379,50.650719],[-119.98584,50.64749],[-119.997628,50.647333],[-120.008,50.650348],[-120.027256,50.653198],[-120.057164,50.6543],[-120.066078,50.653514],[-120.106174,50.659616],[-120.120379,50.659543],[-120.129169,50.662681],[-120.153486,50.667629],[-120.177041,50.669761],[-120.200493,50.66932],[-120.213301,50.67194],[-120.221778,50.671069],[-120.26936,50.680604],[-120.288325,50.677424],[-120.318741,50.662721],[-120.354544,50.661684],[-120.360812,50.659094],[-120.364534,50.65478],[-120.374774,50.65269],[-120.389074,50.656128],[-120.395147,50.660034],[-120.417905,50.665591],[-120.448469,50.666762],[-120.456517,50.665508],[-120.481529,50.65385],[-120.484894,50.651168],[-120.486626,50.646345],[-120.483514,50.633988],[-120.474256,50.624504],[-120.472093,50.620115],[-120.477675,50.59589],[-120.477212,50.591751],[-120.463878,50.578809],[-120.45972,50.572198],[-120.451343,50.566013],[-120.449157,50.55835],[-120.450327,50.553309],[-120.460199,50.54218],[-120.478485,50.532121],[-120.489533,50.508481],[-120.501022,50.494737],[-120.516409,50.489948],[-120.55911,50.484125],[-120.587739,50.464844],[-120.591331,50.459592],[-120.593382,50.445451],[-120.613649,50.427223],[-120.620537,50.418112],[-120.622915,50.40962],[-120.625236,50.378534],[-120.627745,50.366632],[-120.626852,50.350288],[-120.641839,50.307752],[-120.636231,50.29747],[-120.633141,50.278698],[-120.626058,50.268992],[-120.631167,50.258597],[-120.629293,50.234206],[-120.632236,50.229176],[-120.644005,50.222457],[-120.649089,50.209498],[-120.656051,50.202855],[-120.663852,50.198124],[-120.673439,50.195439],[-120.677484,50.193067],[-120.681773,50.183992],[-120.691209,50.178966],[-120.698059,50.171371],[-120.704818,50.168277],[-120.723966,50.146291],[-120.739254,50.136192],[-120.743274,50.12923],[-120.759748,50.121157],[-120.760732,50.115041],[-120.749208,50.100711],[-120.749887,50.087375],[-120.754385,50.083434],[-120.783845,50.072389],[-120.788537,50.069461],[-120.797193,50.053104],[-120.806965,50.044318],[-120.808583,50.038656],[-120.818356,50.030904],[-120.821487,50.01889],[-120.826464,50.017112],[-120.843636,50.017822],[-120.857682,50.015731],[-120.867513,50.012474],[-120.871778,50.006879],[-120.891501,49.992239],[-120.895595,49.985392],[-120.903288,49.980805],[-120.914414,49.969379],[-120.915247,49.963063],[-120.907676,49.952751],[-120.905056,49.944835],[-120.906587,49.935991],[-120.911482,49.924692],[-120.911268,49.918048],[-120.909573,49.915144],[-120.90353,49.910774],[-120.904169,49.903407],[-120.899822,49.885425],[-120.902017,49.882704],[-120.91232,49.877014],[-120.916201,49.873372],[-120.919254,49.864866],[-120.916424,49.857794],[-120.916853,49.854168],[-120.928656,49.845278],[-120.933331,49.837241],[-120.933909,49.831743],[-120.93837,49.827206],[-120.939533,49.821164],[-120.948881,49.809518],[-120.955718,49.803068],[-120.968505,49.795709],[-120.973415,49.786787],[-120.990665,49.774922],[-120.995119,49.767432],[-121.011538,49.753159],[-121.01378,49.721115],[-121.012423,49.715128],[-121.01671,49.708713],[-121.011224,49.696573],[-121.013511,49.691999],[-121.015286,49.674432],[-121.01314,49.662905],[-121.005163,49.653618],[-121.002175,49.643481],[-121.00916,49.634632],[-121.019181,49.629287],[-121.037023,49.622961],[-121.053852,49.609654],[-121.088072,49.592511],[-121.096737,49.592234],[-121.108846,49.595487],[-121.124187,49.595652],[-121.13675,49.599352],[-121.157682,49.596967],[-121.162229,49.594839],[-121.165677,49.587312],[-121.182014,49.573942],[-121.183464,49.566157],[-121.190311,49.556957],[-121.196988,49.542372],[-121.204619,49.532186],[-121.207124,49.520871],[-121.198988,49.508155],[-121.202038,49.500069],[-121.205719,49.496506],[-121.21077,49.494582],[-121.226454,49.495685],[-121.244277,49.493494],[-121.248901,49.489278],[-121.253186,49.47983],[-121.254721,49.462995],[-121.261006,49.453724],[-121.280696,49.442066],[-121.300524,49.439358],[-121.307895,49.435171],[-121.312018,49.42306],[-121.317416,49.415899],[-121.317697,49.409089],[-121.315749,49.402303],[-121.319765,49.395056],[-121.318868,49.382606],[-121.32033,49.379878],[-121.323743,49.378812],[-121.338641,49.379082],[-121.346468,49.377521],[-121.355795,49.379587],[-121.362858,49.377788],[-121.36516,49.375566],[-121.365041,49.372852],[-121.357288,49.368466],[-121.355755,49.366174],[-121.356809,49.363359],[-121.361028,49.361792],[-121.396266,49.366901],[-121.413531,49.372178],[-121.424729,49.371254],[-121.436272,49.373482],[-121.44527,49.372474],[-121.457981,49.366016],[-121.477568,49.365026],[-121.488396,49.367278],[-121.501958,49.367282],[-121.522379,49.364817],[-121.546302,49.364309],[-121.566874,49.361302],[-121.578829,49.355539],[-121.608111,49.333731],[-121.630299,49.316104],[-121.635933,49.309394],[-121.645382,49.301909],[-121.652298,49.299352],[-121.658568,49.294097],[-121.668342,49.289625],[-121.671982,49.276044],[-121.67612,49.270718],[-121.676248,49.26082],[-121.681189,49.25384],[-121.678497,49.240991],[-121.693155,49.21692],[-121.703905,49.213239],[-121.710559,49.207405],[-121.719627,49.203868],[-121.742224,49.189591],[-121.772608,49.176481],[-121.799136,49.160371],[-121.809514,49.160536],[-121.819942,49.155919],[-121.826443,49.154817],[-121.919421,49.155254],[-121.966942,49.143827],[-122.018824,49.144589],[-122.070784,49.136833],[-122.086227,49.126652],[-122.100778,49.120976],[-122.126238,49.088843],[-122.173237,49.060181],[-122.226307,49.036266],[-122.238696,49.03381],[-122.276618,49.033521],[-122.334177,49.036819],[-122.377205,49.056282],[-122.614719,49.149635],[-122.790052,49.195747],[-122.809591,49.212141],[-122.814791,49.22351],[-122.820359,49.227166],[-122.877991,49.234504],[-122.895969,49.244266],[-122.903338,49.24621],[-122.910075,49.24535],[-122.927383,49.236854],[-122.945532,49.237442],[-122.966614,49.24321],[-122.978261,49.25545],[-122.982047,49.257395],[-123.005582,49.258087],[-123.00391,49.259068],[-123.007712,49.258081],[-123.019859,49.258806],[-123.02519,49.262569],[-123.031416,49.276378],[-123.031738,49.285821],[-123.026114,49.291773],[-123.028017,49.311289],[-123.037744,49.3158],[-123.045158,49.324871],[-123.05161,49.32739],[-123.057472,49.331613],[-123.119919,49.332621],[-123.129118,49.337371],[-123.146221,49.33871],[-123.156256,49.343181],[-123.184465,49.344706],[-123.191612,49.347301],[-123.21371,49.346206],[-123.237347,49.349059],[-123.252513,49.352029],[-123.254141,49.353965],[-123.254005,49.358884],[-123.259511,49.361483],[-123.274612,49.361468],[-123.275899,49.368558]]}},{"type":"Feature","properties":{"kind":"ferry-return","name":"BC Ferries · Horseshoe Bay → Departure Bay","mode":"ferry"},"geometry":{"type":"LineString","coordinates":[[-123.2758982,49.3685581],[-123.9537888,49.1912971]]}}]}