{"type":"FeatureCollection","features":[{"type":"Feature","properties":{"kind":"ferry","name":"BC Ferries · Departure Bay → Horseshoe Bay","mode":"ferry"},"geometry":{"type":"LineString","coordinates":[[-123.9537888,49.1912971],[-123.2758982,49.3685581]]}},{"type":"Feature","properties":{"kind":"drive","name":"Outbound · Nanaimo corridor → Nipigon (21-day relaxed)","mode":"driving","distanceMeters":3217920,"durationSeconds":151009,"waypoints":["horseshoe_bay","kamloops","golden","canmore","banff","calgary","medicine_hat","swift_current","regina","brandon","winnipeg","kenora","ignace","thunder_bay","nipigon"]},"geometry":{"type":"LineString","coordinates":[[-123.275899,49.368558],[-123.271758,49.374532],[-123.276459,49.367983],[-123.275307,49.361698],[-123.271105,49.36083],[-123.262572,49.361936],[-123.256452,49.360347],[-123.253764,49.358204],[-123.253182,49.352345],[-123.241288,49.349059],[-123.231759,49.348826],[-123.212282,49.346028],[-123.191629,49.347214],[-123.184491,49.34462],[-123.156521,49.343121],[-123.14627,49.338614],[-123.128893,49.337205],[-123.119938,49.332545],[-123.057341,49.33136],[-123.051688,49.327328],[-123.045266,49.32481],[-123.037588,49.31551],[-123.028115,49.311237],[-123.026277,49.291618],[-123.03195,49.285625],[-123.031579,49.276076],[-123.02568,49.262888],[-123.018653,49.25774],[-122.981917,49.257148],[-122.978289,49.255156],[-122.966818,49.243074],[-122.945678,49.23727],[-122.927212,49.236684],[-122.910292,49.245042],[-122.903764,49.246018],[-122.895917,49.243858],[-122.878193,49.234374],[-122.820444,49.227036],[-122.814962,49.22346],[-122.809761,49.212074],[-122.794037,49.197639],[-122.789449,49.195026],[-122.617382,49.150156],[-122.376911,49.055827],[-122.335259,49.036723],[-122.28063,49.033399],[-122.24167,49.033252],[-122.230118,49.034777],[-122.173247,49.059734],[-122.125837,49.088526],[-122.100674,49.120661],[-122.086162,49.126495],[-122.071427,49.136548],[-122.018802,49.144412],[-121.966929,49.143685],[-121.919385,49.155127],[-121.826505,49.154722],[-121.8211,49.15545],[-121.809543,49.16041],[-121.801354,49.159912],[-121.797977,49.160734],[-121.772427,49.176326],[-121.743989,49.188234],[-121.718822,49.203755],[-121.710682,49.206888],[-121.703827,49.212847],[-121.692995,49.216638],[-121.68305,49.228973],[-121.68086,49.237319],[-121.677706,49.241841],[-121.678758,49.253863],[-121.675521,49.261623],[-121.675772,49.270085],[-121.671521,49.276163],[-121.668091,49.289516],[-121.658658,49.293839],[-121.652498,49.299002],[-121.644655,49.302151],[-121.635715,49.309304],[-121.6299,49.316139],[-121.613919,49.328782],[-121.57716,49.356134],[-121.566616,49.361176],[-121.546281,49.364058],[-121.524999,49.364872],[-121.512325,49.361166],[-121.486974,49.36426],[-121.457577,49.365649],[-121.445861,49.372084],[-121.43889,49.373297],[-121.424149,49.371065],[-121.413563,49.371973],[-121.396274,49.36679],[-121.360966,49.361709],[-121.357368,49.362824],[-121.355577,49.365292],[-121.356789,49.368293],[-121.364135,49.373027],[-121.364177,49.375571],[-121.361537,49.377829],[-121.353451,49.378707],[-121.34675,49.377347],[-121.32033,49.37975],[-121.318723,49.382413],[-121.31952,49.395242],[-121.315613,49.402147],[-121.317579,49.409179],[-121.317178,49.416025],[-121.311743,49.423334],[-121.307659,49.435042],[-121.300284,49.439305],[-121.280179,49.442079],[-121.261019,49.453388],[-121.254486,49.462847],[-121.252858,49.480202],[-121.248732,49.489117],[-121.244223,49.493318],[-121.22593,49.495569],[-121.21084,49.494406],[-121.205622,49.496343],[-121.201912,49.499976],[-121.19883,49.508142],[-121.207104,49.521312],[-121.204671,49.531733],[-121.196795,49.542388],[-121.190431,49.556408],[-121.183401,49.565989],[-121.18159,49.574278],[-121.165541,49.587242],[-121.162025,49.59476],[-121.157548,49.59683],[-121.137506,49.599225],[-121.123525,49.595415],[-121.108218,49.595221],[-121.093799,49.591838],[-121.086434,49.592816],[-121.053064,49.610004],[-121.03735,49.622394],[-121.010576,49.633152],[-121.002701,49.640886],[-121.001702,49.643651],[-121.004128,49.652293],[-121.012866,49.66332],[-121.014739,49.674182],[-121.013162,49.69196],[-121.010944,49.696537],[-121.016461,49.708289],[-121.012083,49.7152],[-121.013507,49.720582],[-121.011535,49.752384],[-121.008991,49.756132],[-121.002846,49.759539],[-120.994856,49.767413],[-120.991143,49.77422],[-120.972688,49.787201],[-120.968077,49.795799],[-120.955971,49.80263],[-120.948704,49.809372],[-120.939138,49.821378],[-120.938187,49.826845],[-120.933642,49.831594],[-120.932995,49.837228],[-120.928266,49.845194],[-120.916698,49.854124],[-120.916203,49.857533],[-120.919101,49.865345],[-120.916063,49.873338],[-120.899814,49.885123],[-120.903938,49.902894],[-120.903393,49.910784],[-120.910004,49.915724],[-120.911249,49.919101],[-120.911378,49.924696],[-120.905142,49.940041],[-120.904702,49.946092],[-120.907119,49.952572],[-120.914745,49.963005],[-120.914418,49.968448],[-120.902937,49.980728],[-120.894596,49.986046],[-120.891494,49.991981],[-120.871996,50.006447],[-120.867825,50.012197],[-120.857703,50.015648],[-120.843519,50.01772],[-120.824869,50.017159],[-120.820115,50.020362],[-120.818479,50.030325],[-120.808326,50.038559],[-120.80649,50.044399],[-120.797358,50.052502],[-120.788834,50.068846],[-120.783399,50.072396],[-120.755275,50.082794],[-120.7497,50.087334],[-120.749023,50.100919],[-120.760481,50.115107],[-120.75967,50.120927],[-120.743047,50.129171],[-120.739082,50.136027],[-120.722934,50.146916],[-120.712402,50.160518],[-120.704226,50.16842],[-120.697875,50.171238],[-120.690981,50.178802],[-120.681577,50.183715],[-120.676593,50.193472],[-120.663681,50.197783],[-120.653086,50.20472],[-120.647308,50.211466],[-120.644072,50.221736],[-120.633002,50.228254],[-120.629538,50.231996],[-120.630477,50.24314],[-120.62917,50.252117],[-120.630695,50.259721],[-120.62573,50.269023],[-120.632988,50.278706],[-120.636021,50.297549],[-120.641616,50.307721],[-120.626492,50.350257],[-120.62732,50.368007],[-120.624895,50.378438],[-120.622625,50.409509],[-120.618831,50.420311],[-120.613364,50.427087],[-120.593929,50.444197],[-120.591738,50.44868],[-120.591051,50.459573],[-120.587498,50.464659],[-120.558817,50.484088],[-120.516322,50.489758],[-120.500867,50.494552],[-120.489334,50.508257],[-120.478278,50.531951],[-120.474696,50.534906],[-120.460029,50.542041],[-120.450049,50.553279],[-120.44889,50.558372],[-120.451122,50.566157],[-120.459384,50.572321],[-120.463695,50.578986],[-120.476935,50.591836],[-120.477389,50.595812],[-120.471818,50.620119],[-120.474049,50.624671],[-120.481867,50.631963],[-120.486039,50.642849],[-120.486147,50.647825],[-120.483306,50.6524],[-120.462489,50.662654],[-120.450625,50.666504],[-120.42065,50.665843],[-120.395212,50.65992],[-120.389146,50.656019],[-120.374759,50.652574],[-120.364081,50.654853],[-120.360687,50.658971],[-120.354761,50.661564],[-120.35432,50.671269],[-120.349839,50.673792],[-120.341021,50.67142],[-120.316619,50.671359],[-120.314754,50.676066],[-120.311626,50.675141],[-120.314754,50.676066],[-120.316372,50.674322],[-120.312667,50.67316],[-120.294444,50.672314],[-120.287648,50.67754],[-120.269257,50.680482],[-120.221711,50.670926],[-120.213316,50.67172],[-120.20053,50.669145],[-120.177368,50.669608],[-120.153406,50.667448],[-120.129972,50.662657],[-120.119754,50.659249],[-120.10619,50.659398],[-120.066083,50.653345],[-120.057165,50.654112],[-120.028996,50.653141],[-120.008055,50.650147],[-119.99767,50.647137],[-119.985841,50.647308],[-119.962544,50.650535],[-119.918246,50.644331],[-119.906228,50.645311],[-119.879862,50.653439],[-119.85433,50.668755],[-119.83505,50.67442],[-119.818064,50.684425],[-119.811494,50.692438],[-119.794963,50.702536],[-119.788507,50.711795],[-119.767265,50.72529],[-119.762609,50.736783],[-119.757223,50.74102],[-119.750402,50.753558],[-119.74186,50.762944],[-119.727702,50.768809],[-119.716071,50.778436],[-119.710429,50.786177],[-119.702762,50.791437],[-119.699046,50.805837],[-119.670486,50.826558],[-119.647912,50.831285],[-119.605185,50.853548],[-119.596295,50.863282],[-119.576644,50.872075],[-119.571458,50.872855],[-119.566547,50.877181],[-119.55855,50.880518],[-119.542501,50.884693],[-119.534775,50.888288],[-119.532162,50.892109],[-119.519692,50.892727],[-119.511588,50.889806],[-119.502118,50.883511],[-119.471375,50.876916],[-119.43418,50.877027],[-119.407024,50.879498],[-119.394835,50.878716],[-119.387264,50.87396],[-119.384739,50.870301],[-119.373071,50.862149],[-119.36723,50.856064],[-119.346224,50.850266],[-119.329843,50.843252],[-119.320184,50.827143],[-119.320053,50.809608],[-119.325188,50.802588],[-119.329261,50.787504],[-119.339632,50.777879],[-119.340562,50.774159],[-119.337476,50.766225],[-119.32537,50.757359],[-119.32545,50.750488],[-119.323116,50.746851],[-119.322554,50.740838],[-119.315639,50.730079],[-119.318607,50.714549],[-119.330106,50.702812],[-119.33144,50.698162],[-119.329851,50.694913],[-119.325832,50.692875],[-119.30985,50.692676],[-119.292484,50.699438],[-119.285132,50.69976],[-119.278228,50.702166],[-119.270146,50.702504],[-119.264152,50.706954],[-119.236459,50.707188],[-119.231534,50.708888],[-119.227268,50.71344],[-119.22634,50.747049],[-119.213456,50.755021],[-119.202068,50.764846],[-119.182085,50.773121],[-119.165161,50.784428],[-119.144334,50.789377],[-119.133601,50.790031],[-119.129444,50.794105],[-119.126101,50.794893],[-119.114742,50.790801],[-119.086052,50.788755],[-119.079947,50.78946],[-119.073749,50.79269],[-119.070649,50.797625],[-119.061595,50.805307],[-119.055978,50.80665],[-119.032595,50.822998],[-119.017406,50.830049],[-119.007947,50.831034],[-118.984536,50.839654],[-118.975116,50.837836],[-118.964868,50.838804],[-118.949097,50.848814],[-118.942741,50.856012],[-118.929016,50.864597],[-118.923294,50.874584],[-118.912349,50.882372],[-118.866945,50.891792],[-118.852999,50.888467],[-118.840724,50.888687],[-118.833825,50.890498],[-118.817244,50.901274],[-118.795753,50.923061],[-118.793016,50.930654],[-118.775284,50.946513],[-118.734864,50.964689],[-118.718521,50.983353],[-118.68935,50.997905],[-118.67805,51.00177],[-118.667239,51.003425],[-118.652648,51.00094],[-118.62656,50.984359],[-118.6161,50.981526],[-118.603614,50.97415],[-118.59018,50.971205],[-118.571937,50.969815],[-118.562822,50.97376],[-118.553142,50.97581],[-118.546775,50.974933],[-118.530232,50.977322],[-118.524317,50.976052],[-118.518998,50.971869],[-118.50702,50.967916],[-118.498386,50.9591],[-118.492032,50.955573],[-118.489569,50.952676],[-118.483529,50.950459],[-118.481015,50.946057],[-118.484477,50.935401],[-118.481671,50.931376],[-118.473052,50.927695],[-118.460331,50.928861],[-118.431364,50.937277],[-118.424479,50.943595],[-118.407106,50.95068],[-118.400341,50.957193],[-118.385186,50.962542],[-118.373597,50.962882],[-118.361233,50.966791],[-118.354522,50.970786],[-118.334138,50.971959],[-118.328931,50.973423],[-118.320657,50.978044],[-118.313365,50.979921],[-118.303997,50.979937],[-118.292723,50.985733],[-118.272749,50.991233],[-118.259483,50.991831],[-118.24597,50.993939],[-118.238979,50.999747],[-118.232263,51.002554],[-118.224155,51.003686],[-118.213727,51.010291],[-118.209306,51.010308],[-118.204256,51.00713],[-118.198139,51.00623],[-118.188005,51.000049],[-118.169456,50.999769],[-118.1535,50.992621],[-118.141901,50.992025],[-118.134728,50.994009],[-118.129594,50.997681],[-118.121992,51.000336],[-118.112689,51.00678],[-118.100994,51.009078],[-118.08186,51.016848],[-117.991505,51.040823],[-117.966985,51.04213],[-117.937035,51.052783],[-117.931336,51.068989],[-117.926476,51.073033],[-117.928566,51.077832],[-117.92779,51.080619],[-117.897436,51.11319],[-117.88739,51.119399],[-117.88649,51.125363],[-117.883276,51.128115],[-117.882338,51.134796],[-117.880249,51.137102],[-117.869777,51.139069],[-117.858479,51.138932],[-117.839479,51.144885],[-117.834797,51.151814],[-117.820064,51.15421],[-117.813203,51.158091],[-117.801485,51.1612],[-117.785309,51.168122],[-117.750522,51.187735],[-117.743728,51.202729],[-117.735184,51.205727],[-117.72621,51.206418],[-117.719139,51.20938],[-117.701136,51.212362],[-117.688495,51.216462],[-117.670007,51.229299],[-117.66251,51.237054],[-117.647805,51.240901],[-117.636147,51.245955],[-117.629253,51.245482],[-117.616064,51.248162],[-117.610207,51.250722],[-117.597721,51.251872],[-117.581122,51.258403],[-117.564247,51.261754],[-117.551857,51.262274],[-117.53955,51.259287],[-117.511761,51.268041],[-117.503784,51.269382],[-117.5035,51.271106],[-117.507718,51.273635],[-117.513171,51.282131],[-117.513214,51.286784],[-117.519842,51.299063],[-117.520022,51.305421],[-117.51473,51.312213],[-117.511314,51.314206],[-117.490057,51.319791],[-117.466099,51.32432],[-117.446473,51.329796],[-117.434362,51.345098],[-117.439232,51.361851],[-117.452847,51.378917],[-117.448299,51.38684],[-117.460225,51.396836],[-117.471131,51.409078],[-117.475289,51.426085],[-117.47921,51.432956],[-117.476969,51.440193],[-117.482433,51.474436],[-117.473878,51.488688],[-117.461576,51.501772],[-117.449642,51.505366],[-117.444991,51.510254],[-117.440837,51.512038],[-117.436161,51.512062],[-117.424714,51.508893],[-117.39687,51.49287],[-117.369006,51.481512],[-117.361635,51.479835],[-117.353139,51.480299],[-117.295606,51.493921],[-117.259906,51.486594],[-117.22781,51.475291],[-117.223183,51.474887],[-117.219084,51.476595],[-117.21797,51.479573],[-117.228244,51.490029],[-117.226035,51.494851],[-117.222467,51.496163],[-117.207297,51.492651],[-117.186657,51.484507],[-117.18087,51.484257],[-117.17063,51.486427],[-117.162975,51.485563],[-117.127982,51.468171],[-117.096183,51.449002],[-117.092856,51.445787],[-117.06109,51.427619],[-117.028996,51.394018],[-117.020737,51.377689],[-117.020566,51.373468],[-117.015763,51.36601],[-117.001261,51.34974],[-116.990291,51.332556],[-116.975494,51.322036],[-116.972357,51.312774],[-116.966334,51.307271],[-116.971172,51.304698],[-116.972928,51.305084],[-116.97153,51.306288],[-116.964425,51.299662],[-116.972392,51.305967],[-116.971774,51.304595],[-116.965406,51.306416],[-116.964045,51.301542],[-116.961306,51.300271],[-116.948277,51.301966],[-116.928809,51.298696],[-116.912592,51.29828],[-116.903163,51.301292],[-116.896592,51.302076],[-116.890498,51.304674],[-116.874877,51.305805],[-116.86398,51.298975],[-116.842476,51.290752],[-116.82528,51.287424],[-116.811683,51.279096],[-116.805895,51.278506],[-116.793473,51.281829],[-116.784024,51.280944],[-116.766874,51.274465],[-116.753056,51.271692],[-116.729207,51.260925],[-116.702641,51.258449],[-116.688109,51.254642],[-116.678028,51.25],[-116.665857,51.246378],[-116.641469,51.232275],[-116.619383,51.222571],[-116.609579,51.222919],[-116.596537,51.218762],[-116.583654,51.216951],[-116.57961,51.217363],[-116.575138,51.219811],[-116.573112,51.223445],[-116.58063,51.237012],[-116.579836,51.244648],[-116.586592,51.250978],[-116.590302,51.262675],[-116.598194,51.270238],[-116.596979,51.272441],[-116.582789,51.281942],[-116.582487,51.291415],[-116.579645,51.297792],[-116.580056,51.305753],[-116.574294,51.323626],[-116.570793,51.326012],[-116.558465,51.328596],[-116.55497,51.330499],[-116.532375,51.357232],[-116.520916,51.36804],[-116.513993,51.372405],[-116.511881,51.380031],[-116.503842,51.384326],[-116.494062,51.397288],[-116.480774,51.404407],[-116.446081,51.419087],[-116.430312,51.420454],[-116.413244,51.430582],[-116.393588,51.431915],[-116.384126,51.436465],[-116.360596,51.437034],[-116.353152,51.440676],[-116.339538,51.442874],[-116.329751,51.447065],[-116.308393,51.451953],[-116.281888,51.453659],[-116.269888,51.458193],[-116.263275,51.456811],[-116.248039,51.444826],[-116.237144,51.444423],[-116.225368,51.442155],[-116.202755,51.441975],[-116.197228,51.439514],[-116.191575,51.433647],[-116.175082,51.427979],[-116.169077,51.413024],[-116.155483,51.400483],[-116.137726,51.394578],[-116.108231,51.37164],[-116.100165,51.359767],[-116.08957,51.352851],[-116.074627,51.345898],[-116.056943,51.333555],[-116.051863,51.328101],[-116.028654,51.313199],[-116.023178,51.307767],[-115.99695,51.288718],[-115.990664,51.286111],[-115.977121,51.283009],[-115.94666,51.26823],[-115.893153,51.254503],[-115.882935,51.247399],[-115.858534,51.240681],[-115.843289,51.23267],[-115.827085,51.226361],[-115.797049,51.218759],[-115.751279,51.186733],[-115.729723,51.167967],[-115.719692,51.16224],[-115.70163,51.158357],[-115.686471,51.156842],[-115.681776,51.157324],[-115.644562,51.175176],[-115.609974,51.180125],[-115.57148,51.191551],[-115.550569,51.196236],[-115.538212,51.207791],[-115.531084,51.208906],[-115.518342,51.202476],[-115.506557,51.200719],[-115.498428,51.198002],[-115.484284,51.182361],[-115.472472,51.175504],[-115.466985,51.170024],[-115.454695,51.167345],[-115.443178,51.162649],[-115.431209,51.151007],[-115.411221,51.137878],[-115.405139,51.13213],[-115.387492,51.124895],[-115.365413,51.107121],[-115.363537,51.104477],[-115.36478,51.103645],[-115.357518,51.097043],[-115.35499,51.097163],[-115.357518,51.097043],[-115.369738,51.107607],[-115.367145,51.110914],[-115.368576,51.11028],[-115.387909,51.125377],[-115.403432,51.131611],[-115.409703,51.137771],[-115.43033,51.151288],[-115.442518,51.162989],[-115.453257,51.167409],[-115.466299,51.169887],[-115.471788,51.17536],[-115.484024,51.182525],[-115.499651,51.199055],[-115.517848,51.202564],[-115.530376,51.208917],[-115.537447,51.20935],[-115.537578,51.19966],[-115.539563,51.196258],[-115.554045,51.186428],[-115.568373,51.181305],[-115.570959,51.176611],[-115.569306,51.176552],[-115.565868,51.182123],[-115.554674,51.18602],[-115.539647,51.196021],[-115.537447,51.199602],[-115.537277,51.20644],[-115.53484,51.208784],[-115.52958,51.208486],[-115.517689,51.202274],[-115.499886,51.198816],[-115.484284,51.182361],[-115.472472,51.175504],[-115.466985,51.170024],[-115.454695,51.167345],[-115.444156,51.163234],[-115.431209,51.151007],[-115.411221,51.137878],[-115.405139,51.13213],[-115.388619,51.125566],[-115.381114,51.120076],[-115.34167,51.087678],[-115.317869,51.057335],[-115.283624,51.042099],[-115.270614,51.03849],[-115.237897,51.040573],[-115.215586,51.050588],[-115.19872,51.054845],[-115.193034,51.053901],[-115.188548,51.04994],[-115.182665,51.047465],[-115.162083,51.049684],[-115.143168,51.05479],[-115.135882,51.061398],[-115.118315,51.069641],[-115.092429,51.066427],[-115.08603,51.066806],[-115.057726,51.077631],[-115.053569,51.088277],[-115.049724,51.091961],[-114.959718,51.127628],[-114.887,51.140547],[-114.863514,51.145795],[-114.817016,51.150003],[-114.784144,51.159877],[-114.763669,51.161961],[-114.755024,51.159993],[-114.734605,51.147166],[-114.648831,51.112897],[-114.574094,51.090729],[-114.565212,51.090707],[-114.550214,51.093042],[-114.532186,51.087513],[-114.457869,51.086399],[-114.437955,51.08843],[-114.230734,51.088327],[-114.206678,51.082518],[-114.192497,51.080909],[-114.183209,51.07163],[-114.165992,51.06205],[-114.164419,51.052532],[-114.141487,51.04522],[-114.135423,51.041519],[-114.11695,51.0417],[-114.103785,51.045862],[-114.058196,51.044466],[-114.057926,51.048251],[-114.052498,51.048639],[-114.049778,51.05033],[-114.036185,51.047762],[-114.015947,51.047938],[-114.006089,51.045237],[-113.999894,51.045196],[-113.9815,51.052284],[-113.981332,51.064969],[-113.978523,51.066582],[-113.82274,51.066368],[-113.817513,51.064602],[-113.813496,51.060942],[-113.812356,51.049111],[-113.807338,51.041632],[-113.803663,51.039013],[-113.797592,51.037608],[-113.0927,51.037606],[-113.079635,51.035802],[-113.075736,51.03345],[-113.074591,51.030003],[-113.074485,50.911035],[-113.072224,50.907498],[-113.02311,50.865011],[-113.014757,50.863474],[-112.857577,50.863303],[-112.851097,50.861048],[-112.81495,50.835835],[-112.808824,50.834129],[-112.481115,50.833786],[-112.472033,50.832167],[-112.45275,50.818667],[-112.451,50.797698],[-112.443241,50.78645],[-112.434547,50.782898],[-112.417374,50.782427],[-112.411046,50.780597],[-112.407668,50.777562],[-112.401415,50.765006],[-112.348733,50.733183],[-112.344299,50.732253],[-112.3048,50.73145],[-112.188944,50.687799],[-112.08775,50.655517],[-111.979033,50.634279],[-111.785036,50.530539],[-111.705486,50.505055],[-111.617119,50.474839],[-111.182636,50.222905],[-111.071917,50.189667],[-110.985733,50.166983],[-110.956623,50.157959],[-110.778042,50.080938],[-110.745617,50.065833],[-110.742061,50.056693],[-110.72075,50.045159],[-110.705078,50.030468],[-110.704282,50.028697],[-110.707392,50.026238],[-110.707307,50.02242],[-110.707312,50.02346],[-110.697757,50.023455],[-110.684242,50.012806],[-110.665713,50.004935],[-110.654872,50.002906],[-110.639894,49.998104],[-110.609979,49.976871],[-110.601343,49.969133],[-110.595102,49.967108],[-110.55998,49.974567],[-110.518221,49.974709],[-110.445873,49.982519],[-110.421986,49.982707],[-110.386177,49.974756],[-110.339627,49.95558],[-110.296289,49.95734],[-110.22922,49.949997],[-110.162824,49.937317],[-110.122277,49.940456],[-110.055479,49.939075],[-110.014294,49.95095],[-109.99569,49.959172],[-109.98995,49.960359],[-109.941279,49.960391],[-109.895901,49.958971],[-109.858554,49.964369],[-109.822206,49.960934],[-109.71333,49.96101],[-109.664965,49.975095],[-109.54169,49.974992],[-109.496151,49.982293],[-109.345213,49.982008],[-109.211047,50.003816],[-109.125337,50.004307],[-109.076185,50.015889],[-109.046659,50.027215],[-109.026929,50.030585],[-108.967588,50.047061],[-108.916421,50.048092],[-108.88269,50.057213],[-108.866299,50.066545],[-108.858722,50.069156],[-108.816203,50.067131],[-108.787353,50.069906],[-108.583227,50.070223],[-108.558615,50.078018],[-108.543723,50.084765],[-108.503812,50.095131],[-108.482452,50.102007],[-108.461756,50.117488],[-108.427252,50.133982],[-108.410016,50.138505],[-108.345579,50.144103],[-108.283137,50.15722],[-108.255714,50.168959],[-108.20943,50.194722],[-108.162802,50.212549],[-108.00599,50.259996],[-107.955778,50.285012],[-107.938874,50.289906],[-107.930783,50.291159],[-107.900586,50.29167],[-107.873036,50.286458],[-107.817809,50.28729],[-107.807106,50.293873],[-107.799917,50.295297],[-107.798107,50.298068],[-107.787849,50.301426],[-107.785552,50.303432],[-107.781317,50.303933],[-107.775336,50.307011],[-107.773887,50.305312],[-107.72493,50.323142],[-107.713826,50.324687],[-107.683792,50.338866],[-107.645097,50.349902],[-107.615616,50.354537],[-107.59354,50.356373],[-107.581212,50.360421],[-107.501482,50.376738],[-107.47548,50.385867],[-107.469006,50.387041],[-107.436466,50.389832],[-107.29787,50.390147],[-107.243701,50.417493],[-107.219254,50.421371],[-107.203639,50.425436],[-107.142592,50.426283],[-107.116585,50.42452],[-107.104805,50.422715],[-107.072232,50.411394],[-107.039942,50.408998],[-107.020863,50.411941],[-106.959,50.412023],[-106.950932,50.414403],[-106.911042,50.437041],[-106.904026,50.439829],[-106.848043,50.440635],[-106.787957,50.457824],[-106.727932,50.462777],[-106.720713,50.462509],[-106.673656,50.45378],[-106.651426,50.456908],[-106.626296,50.46317],[-106.579242,50.466292],[-106.557499,50.466507],[-106.513947,50.465596],[-106.491497,50.462515],[-106.332071,50.463424],[-106.274221,50.455597],[-106.248301,50.455747],[-106.229268,50.457127],[-106.215385,50.455788],[-106.174252,50.455848],[-106.13865,50.462934],[-106.021258,50.463047],[-105.890915,50.483353],[-105.861175,50.476424],[-105.820307,50.454771],[-105.73042,50.426283],[-105.545209,50.425477],[-105.513654,50.418313],[-105.491801,50.398037],[-105.464902,50.392712],[-105.439141,50.39659],[-105.189726,50.396597],[-105.170011,50.391186],[-105.152244,50.392977],[-105.135666,50.396602],[-104.655577,50.396642],[-104.643862,50.394667],[-104.643978,50.401939],[-104.649176,50.40238],[-104.648235,50.40409],[-104.650034,50.404081],[-104.650044,50.405386],[-104.644097,50.405383],[-104.643879,50.395767],[-104.645643,50.394912],[-104.645274,50.39657],[-104.605161,50.396674],[-104.599453,50.39824],[-104.57978,50.41724],[-104.562895,50.437617],[-104.561734,50.440956],[-104.562915,50.44491],[-104.561016,50.44687],[-104.344739,50.447601],[-104.338903,50.449159],[-104.265491,50.485847],[-104.244077,50.493776],[-104.136811,50.508371],[-104.111579,50.512911],[-104.06381,50.514077],[-104.040615,50.519414],[-103.956656,50.523027],[-103.930681,50.527102],[-103.711434,50.527454],[-103.691455,50.524431],[-103.641375,50.52531],[-103.571284,50.517789],[-103.50465,50.493373],[-103.45472,50.477229],[-103.293361,50.428058],[-103.289082,50.425625],[-103.279211,50.414575],[-103.27222,50.411795],[-102.959194,50.411635],[-102.931357,50.403729],[-102.860708,50.403656],[-102.684962,50.381485],[-102.633123,50.3802],[-102.617758,50.377929],[-102.611325,50.378959],[-102.596561,50.384179],[-102.588708,50.384616],[-102.566076,50.379033],[-102.474521,50.371764],[-102.448117,50.36825],[-102.417111,50.367648],[-102.396014,50.361235],[-102.3407,50.353712],[-102.287915,50.338306],[-102.250528,50.335849],[-102.234772,50.32687],[-102.228884,50.324829],[-102.172948,50.314014],[-102.127784,50.311099],[-102.108528,50.303865],[-102.091405,50.301219],[-102.065395,50.293273],[-102.053654,50.287839],[-102.034563,50.283206],[-102.012848,50.274403],[-101.999287,50.270461],[-101.971392,50.268313],[-101.946595,50.257478],[-101.924485,50.253032],[-101.820673,50.218472],[-101.805438,50.212005],[-101.773659,50.205633],[-101.726967,50.179491],[-101.684717,50.158338],[-101.666414,50.15288],[-101.654205,50.146927],[-101.635561,50.129047],[-101.628968,50.125034],[-101.586377,50.110969],[-101.515407,50.077505],[-101.457587,50.061457],[-101.429175,50.051972],[-101.382113,50.032897],[-101.35961,50.029939],[-101.347098,50.019344],[-101.32667,50.012632],[-101.305007,50.007703],[-101.284283,49.998944],[-101.26075,49.986639],[-101.243265,49.984567],[-101.237251,49.982629],[-101.213274,49.960502],[-101.187768,49.946602],[-101.168006,49.945453],[-101.126554,49.937955],[-101.079346,49.918779],[-101.021398,49.897621],[-100.965977,49.871505],[-100.922311,49.857418],[-100.833292,49.799805],[-100.790781,49.7922],[-100.769855,49.782888],[-100.706173,49.768834],[-100.653647,49.768856],[-100.632578,49.774421],[-100.604533,49.768878],[-100.515462,49.768725],[-100.487718,49.771919],[-100.482644,49.773567],[-100.472946,49.781255],[-100.467973,49.78309],[-100.433392,49.783398],[-100.427861,49.784284],[-100.374717,49.812991],[-100.333827,49.829344],[-100.310818,49.829985],[-100.293712,49.835619],[-100.27845,49.836427],[-100.26323,49.841523],[-100.209344,49.841333],[-100.147991,49.842892],[-100.069207,49.884217],[-100.061874,49.886302],[-99.939612,49.886699],[-99.938999,49.863275],[-99.936329,49.859348],[-99.9416,49.85214],[-99.935807,49.859326],[-99.938723,49.863764],[-99.938269,49.886692],[-99.762716,49.886435],[-99.705837,49.900826],[-99.348389,49.901479],[-99.273471,49.901114],[-99.246727,49.899636],[-99.226266,49.901161],[-99.064069,49.90149],[-99.024461,49.91819],[-98.99377,49.944203],[-98.989336,49.946181],[-98.96461,49.948911],[-98.922832,49.959765],[-98.839599,49.959958],[-98.817983,49.961653],[-98.776779,49.973475],[-98.76742,49.97509],[-98.36862,49.97479],[-98.360425,49.971914],[-98.355036,49.964379],[-98.351252,49.961908],[-98.297923,49.945946],[-98.292767,49.946823],[-98.263647,49.957989],[-98.241238,49.960987],[-98.23077,49.971518],[-98.216299,49.974624],[-98.111902,49.971906],[-97.651781,49.886852],[-97.525493,49.886583],[-97.502409,49.887686],[-97.476118,49.882067],[-97.403554,49.875911],[-97.405254,49.866785],[-97.398303,49.863429],[-97.371488,49.862349],[-97.362425,49.860122],[-97.364579,49.858048],[-97.366383,49.837049],[-97.283661,49.840194],[-97.228932,49.845091],[-97.219519,49.84231],[-97.219336,49.839167],[-97.219013,49.842072],[-97.209173,49.841209],[-97.209275,49.829057],[-97.204647,49.825309],[-97.193127,49.810788],[-97.189586,49.809383],[-97.186161,49.80962],[-97.162854,49.817968],[-97.139427,49.822284],[-97.084948,49.840329],[-97.049522,49.840118],[-97.048955,49.855781],[-97.01239,49.855739],[-97.007048,49.853948],[-96.989421,49.842261],[-96.975063,49.836355],[-96.968296,49.835892],[-96.962596,49.83412],[-96.950599,49.828369],[-96.943383,49.823149],[-96.752813,49.743419],[-96.55817,49.665613],[-96.548934,49.662953],[-96.321754,49.662771],[-96.26489,49.655958],[-96.251249,49.655815],[-96.137276,49.655858],[-96.10737,49.662644],[-96.086725,49.662909],[-96.049584,49.656902],[-95.972674,49.648407],[-95.865087,49.64961],[-95.800766,49.648609],[-95.770612,49.646541],[-95.739299,49.646539],[-95.723807,49.648227],[-95.716357,49.646306],[-95.698065,49.634211],[-95.69004,49.627327],[-95.680605,49.622976],[-95.668732,49.6211],[-95.610073,49.630904],[-95.596699,49.634129],[-95.574805,49.634204],[-95.557043,49.632868],[-95.532736,49.634386],[-95.514266,49.632657],[-95.498069,49.635156],[-95.465068,49.635915],[-95.450544,49.64348],[-95.399836,49.659106],[-95.385742,49.669364],[-95.360032,49.682951],[-95.283213,49.703867],[-95.269052,49.70637],[-95.26539,49.708828],[-95.251166,49.728366],[-95.224878,49.736619],[-95.166986,49.737808],[-95.14664,49.739799],[-95.123821,49.740126],[-95.110222,49.742859],[-95.103572,49.743089],[-95.087304,49.739783],[-95.064515,49.732535],[-95.046602,49.72993],[-95.034278,49.729258],[-95.011458,49.73091],[-94.986124,49.727169],[-94.964878,49.72804],[-94.930577,49.721591],[-94.898384,49.720566],[-94.887818,49.72246],[-94.875653,49.717547],[-94.8491,49.711344],[-94.839375,49.711808],[-94.832379,49.71588],[-94.825507,49.717128],[-94.803388,49.713679],[-94.781782,49.716532],[-94.769613,49.715317],[-94.751249,49.71618],[-94.730239,49.71893],[-94.718123,49.717867],[-94.655167,49.739465],[-94.645765,49.746197],[-94.641594,49.744849],[-94.632553,49.746889],[-94.609054,49.747837],[-94.590239,49.751802],[-94.577843,49.756013],[-94.538037,49.758811],[-94.53045,49.76082],[-94.520476,49.765995],[-94.514456,49.767702],[-94.505886,49.765611],[-94.495798,49.770901],[-94.491006,49.770014],[-94.491312,49.766525],[-94.486458,49.765216],[-94.477567,49.765266],[-94.476337,49.760913],[-94.470977,49.759656],[-94.472123,49.757988],[-94.470964,49.759876],[-94.457694,49.759968],[-94.448453,49.751323],[-94.438656,49.747713],[-94.433043,49.747081],[-94.414108,49.751343],[-94.386402,49.747108],[-94.374461,49.746513],[-94.366991,49.743957],[-94.354676,49.744372],[-94.343201,49.739486],[-94.342084,49.736747],[-94.343492,49.731414],[-94.342022,49.728949],[-94.330794,49.725813],[-94.308285,49.728813],[-94.303573,49.732626],[-94.300948,49.733087],[-94.282846,49.732327],[-94.248379,49.726515],[-94.22981,49.732974],[-94.221662,49.749467],[-94.21812,49.75213],[-94.203642,49.754468],[-94.194013,49.754144],[-94.184166,49.756818],[-94.172507,49.762711],[-94.161995,49.760964],[-94.150935,49.763008],[-94.147024,49.761428],[-94.141879,49.756388],[-94.135154,49.756148],[-94.126286,49.760534],[-94.120431,49.767337],[-94.110879,49.767447],[-94.104276,49.770209],[-94.092088,49.770441],[-94.086413,49.772518],[-94.080021,49.778622],[-94.066321,49.784155],[-94.059241,49.789464],[-94.043625,49.793977],[-94.031293,49.804728],[-94.012744,49.808427],[-93.985671,49.826127],[-93.962365,49.828077],[-93.945576,49.835573],[-93.937312,49.836108],[-93.927817,49.838442],[-93.921182,49.843317],[-93.916418,49.844728],[-93.887087,49.841711],[-93.875608,49.845279],[-93.863839,49.845178],[-93.853405,49.849024],[-93.849018,49.849506],[-93.844286,49.847769],[-93.839523,49.841795],[-93.834206,49.839936],[-93.823814,49.841377],[-93.811226,49.838831],[-93.78247,49.838814],[-93.752737,49.833915],[-93.720698,49.835822],[-93.707869,49.833559],[-93.669745,49.838261],[-93.663796,49.837363],[-93.642902,49.830582],[-93.631107,49.828636],[-93.595808,49.828949],[-93.579673,49.834212],[-93.568852,49.835146],[-93.561704,49.833648],[-93.55103,49.827398],[-93.541621,49.825007],[-93.527244,49.815443],[-93.521631,49.814334],[-93.507459,49.818127],[-93.501268,49.824387],[-93.484576,49.827785],[-93.47296,49.834201],[-93.460059,49.838984],[-93.440634,49.840877],[-93.42726,49.852503],[-93.419239,49.856354],[-93.403061,49.859947],[-93.392202,49.860811],[-93.368338,49.854935],[-93.339909,49.84395],[-93.32355,49.839356],[-93.293107,49.825523],[-93.245746,49.811367],[-93.202914,49.814994],[-92.8524,49.815088],[-92.84938,49.814292],[-92.847416,49.812042],[-92.847225,49.78832],[-92.844917,49.786796],[-92.703367,49.784896],[-92.700145,49.783092],[-92.6867,49.767877],[-92.673118,49.761747],[-92.656307,49.759127],[-92.647838,49.753496],[-92.619489,49.739434],[-92.610926,49.73173],[-92.60258,49.720288],[-92.596262,49.717356],[-92.584864,49.706939],[-92.568928,49.69838],[-92.55129,49.693945],[-92.532191,49.692657],[-92.522914,49.690301],[-92.51163,49.689808],[-92.501796,49.691231],[-92.495252,49.688561],[-92.492745,49.685195],[-92.492236,49.670471],[-92.482553,49.662238],[-92.474642,49.652155],[-92.467817,49.647927],[-92.455711,49.64759],[-92.445266,49.643994],[-92.441958,49.641579],[-92.439824,49.629908],[-92.44445,49.617306],[-92.442733,49.611871],[-92.429607,49.606384],[-92.410483,49.59422],[-92.398399,49.593036],[-92.342951,49.583024],[-92.334083,49.583925],[-92.307229,49.582985],[-92.287981,49.587954],[-92.270332,49.58806],[-92.264076,49.584387],[-92.259517,49.574283],[-92.245444,49.566997],[-92.227972,49.564922],[-92.219364,49.559251],[-92.204355,49.555485],[-92.187818,49.548976],[-92.182423,49.545407],[-92.162114,49.539585],[-92.152487,49.53422],[-92.14715,49.533813],[-92.129041,49.53619],[-92.123087,49.535521],[-92.091501,49.522988],[-92.081258,49.521701],[-92.054532,49.505497],[-92.028313,49.498382],[-92.005257,49.488628],[-91.983846,49.485361],[-91.975132,49.485935],[-91.961054,49.484894],[-91.935621,49.471982],[-91.909595,49.465637],[-91.898189,49.463692],[-91.889765,49.4636],[-91.874057,49.459881],[-91.860447,49.458964],[-91.837267,49.454908],[-91.825525,49.457329],[-91.807057,49.45779],[-91.779811,49.453539],[-91.764119,49.453872],[-91.756719,49.451039],[-91.743787,49.435508],[-91.738314,49.433176],[-91.733064,49.433509],[-91.72128,49.437324],[-91.689758,49.433722],[-91.684555,49.430514],[-91.675997,49.418379],[-91.652455,49.415788],[-91.636762,49.406155],[-91.623747,49.402855],[-91.625717,49.40422],[-91.626981,49.404193],[-91.616718,49.400962],[-91.604051,49.393346],[-91.599423,49.388673],[-91.573027,49.372857],[-91.560169,49.369529],[-91.520023,49.351194],[-91.494777,49.345403],[-91.48147,49.34405],[-91.472435,49.339024],[-91.444639,49.331062],[-91.404726,49.324283],[-91.396951,49.319464],[-91.359669,49.307702],[-91.327613,49.304307],[-91.308224,49.295673],[-91.295662,49.286876],[-91.275833,49.279524],[-91.267086,49.270046],[-91.254216,49.266313],[-91.221617,49.262628],[-91.210984,49.259847],[-91.18828,49.257973],[-91.149907,49.263912],[-91.123654,49.255368],[-91.107013,49.251654],[-91.08451,49.241418],[-91.077114,49.241779],[-91.062711,49.249397],[-91.035119,49.246142],[-90.968881,49.233152],[-90.965934,49.230977],[-90.963941,49.225328],[-90.956906,49.222247],[-90.915059,49.227758],[-90.901691,49.227075],[-90.89273,49.222444],[-90.88814,49.218524],[-90.870154,49.193205],[-90.861317,49.187169],[-90.852095,49.18379],[-90.842712,49.177252],[-90.842454,49.162189],[-90.84047,49.15901],[-90.817047,49.150667],[-90.745202,49.133452],[-90.729175,49.127195],[-90.711389,49.11432],[-90.706506,49.097542],[-90.70016,49.090525],[-90.688712,49.081355],[-90.67985,49.063442],[-90.663395,49.056214],[-90.649862,49.048162],[-90.619137,49.046071],[-90.606105,49.048762],[-90.581832,49.051603],[-90.572946,49.050799],[-90.4736,49.050728],[-90.469667,49.048217],[-90.469171,49.043522],[-90.463194,49.032895],[-90.436465,49.016904],[-90.411978,49.005346],[-90.383746,48.989217],[-90.365746,48.983654],[-90.318345,48.965574],[-90.301476,48.960697],[-90.205183,48.948317],[-90.132186,48.93595],[-90.027534,48.902786],[-89.981936,48.875522],[-89.942285,48.843314],[-89.934696,48.832383],[-89.923845,48.824147],[-89.918073,48.815772],[-89.898272,48.80325],[-89.876974,48.768802],[-89.881191,48.740764],[-89.892447,48.694308],[-89.893137,48.641027],[-89.897995,48.621763],[-89.896614,48.598468],[-89.89452,48.595445],[-89.879707,48.590924],[-89.850799,48.586836],[-89.841409,48.586657],[-89.835437,48.584222],[-89.817326,48.581442],[-89.804942,48.575114],[-89.7881,48.573018],[-89.763012,48.564949],[-89.742091,48.556079],[-89.731183,48.555518],[-89.723031,48.55212],[-89.701295,48.54824],[-89.69251,48.542716],[-89.685727,48.542814],[-89.678425,48.54552],[-89.673285,48.545623],[-89.662183,48.540522],[-89.652602,48.538251],[-89.649638,48.534127],[-89.641889,48.534592],[-89.630238,48.53198],[-89.614991,48.532102],[-89.599972,48.537238],[-89.582911,48.532647],[-89.56914,48.535178],[-89.558658,48.535798],[-89.535883,48.526018],[-89.518866,48.524759],[-89.507474,48.519362],[-89.500523,48.513809],[-89.481387,48.513782],[-89.465723,48.508577],[-89.449219,48.50524],[-89.434818,48.497736],[-89.430315,48.496707],[-89.422664,48.497507],[-89.415272,48.49607],[-89.407171,48.496537],[-89.395755,48.493572],[-89.389175,48.490101],[-89.379558,48.491398],[-89.349953,48.488426],[-89.337988,48.488435],[-89.319517,48.479641],[-89.314712,48.475455],[-89.301753,48.471972],[-89.287336,48.465494],[-89.269923,48.460017],[-89.262995,48.455115],[-89.252536,48.451005],[-89.251665,48.449558],[-89.263822,48.443449],[-89.281067,48.428874],[-89.287976,48.405456],[-89.223455,48.40641],[-89.224487,48.386613],[-89.239647,48.379996],[-89.24002,48.373437],[-89.230473,48.373471],[-89.230468,48.375558],[-89.230473,48.373471],[-89.24002,48.373437],[-89.239647,48.379996],[-89.224487,48.386613],[-89.223455,48.40641],[-89.240743,48.406592],[-89.236902,48.415251],[-89.228774,48.427026],[-89.238345,48.429619],[-89.228035,48.446465],[-89.228018,48.452081],[-89.225489,48.453152],[-89.225304,48.461638],[-89.191942,48.481185],[-89.184944,48.483329],[-89.164917,48.484458],[-89.118503,48.505204],[-89.112527,48.505212],[-89.092374,48.501442],[-89.077944,48.503134],[-89.052191,48.504109],[-89.020351,48.517142],[-88.978471,48.526003],[-88.919365,48.544962],[-88.897401,48.554211],[-88.856084,48.56638],[-88.834704,48.569404],[-88.800712,48.583126],[-88.76412,48.620923],[-88.751959,48.629089],[-88.738024,48.641428],[-88.728243,48.645615],[-88.715169,48.646898],[-88.702684,48.650394],[-88.691195,48.649794],[-88.682185,48.65236],[-88.671498,48.656852],[-88.647046,48.670563],[-88.634629,48.684569],[-88.627515,48.706189],[-88.620931,48.716647],[-88.614561,48.720263],[-88.599654,48.723089],[-88.588031,48.732167],[-88.581061,48.739805],[-88.571607,48.761796],[-88.540802,48.794605],[-88.539427,48.810932],[-88.521782,48.83989],[-88.521153,48.849572],[-88.519124,48.852691],[-88.476279,48.879423],[-88.455348,48.880409],[-88.42933,48.884445],[-88.420612,48.890149],[-88.409321,48.895181],[-88.375499,48.905188],[-88.36808,48.915334],[-88.366715,48.941819],[-88.362753,48.945586],[-88.347601,48.952357],[-88.338329,48.960448],[-88.336138,48.966086],[-88.334217,48.989012],[-88.328448,48.996431],[-88.321906,49.009494],[-88.298964,49.022277],[-88.272652,49.018491],[-88.255546,49.019],[-88.254013,49.020412],[-88.251304,49.018836]]}},{"type":"Feature","properties":{"kind":"return","name":"Return · Nipigon → Horseshoe Bay","mode":"driving","distanceMeters":3167752,"durationSeconds":147876,"waypoints":["nipigon","thunder_bay","ignace","kenora","winnipeg","brandon","regina","medicine_hat","calgary","canmore","kamloops","horseshoe_bay"]},"geometry":{"type":"LineString","coordinates":[[-88.251304,49.018836],[-88.254013,49.020412],[-88.255558,49.01913],[-88.274389,49.018619],[-88.298964,49.022277],[-88.322105,49.009688],[-88.334751,48.988888],[-88.33656,48.966949],[-88.339074,48.960299],[-88.348339,48.95231],[-88.363116,48.945832],[-88.367108,48.942075],[-88.36808,48.915334],[-88.375499,48.905188],[-88.409468,48.895536],[-88.420934,48.890276],[-88.429246,48.884706],[-88.45468,48.880703],[-88.476396,48.87964],[-88.519124,48.852691],[-88.521153,48.849572],[-88.521782,48.83989],[-88.539427,48.810932],[-88.540802,48.794605],[-88.571861,48.762272],[-88.581731,48.739693],[-88.593085,48.727795],[-88.600364,48.722764],[-88.614561,48.720263],[-88.620931,48.716647],[-88.627515,48.706189],[-88.634629,48.684569],[-88.647046,48.670563],[-88.671498,48.656852],[-88.682185,48.65236],[-88.691195,48.649794],[-88.702684,48.650394],[-88.715169,48.646898],[-88.728243,48.645615],[-88.738024,48.641428],[-88.751959,48.629089],[-88.76412,48.620923],[-88.801204,48.583322],[-88.834742,48.569766],[-88.856586,48.566628],[-88.897102,48.554656],[-88.918519,48.545622],[-88.976613,48.526928],[-89.021008,48.517295],[-89.049982,48.505399],[-89.092094,48.501775],[-89.113441,48.505729],[-89.11887,48.505536],[-89.165097,48.484767],[-89.18522,48.483491],[-89.191386,48.481712],[-89.225541,48.461864],[-89.225489,48.453152],[-89.228018,48.452081],[-89.228035,48.446465],[-89.238345,48.429619],[-89.238431,48.42077],[-89.245597,48.410665],[-89.24551,48.406696],[-89.223455,48.40641],[-89.224331,48.386963],[-89.239387,48.380357],[-89.24002,48.373437],[-89.230473,48.373471],[-89.230468,48.375558],[-89.230473,48.373471],[-89.24002,48.373437],[-89.239647,48.379996],[-89.224735,48.386275],[-89.223383,48.394191],[-89.223455,48.40641],[-89.240743,48.406592],[-89.236902,48.415251],[-89.228774,48.427026],[-89.238374,48.4292],[-89.23313,48.438057],[-89.245847,48.441054],[-89.251756,48.450662],[-89.262995,48.455115],[-89.269453,48.459793],[-89.287336,48.465494],[-89.301753,48.471972],[-89.314712,48.475455],[-89.319517,48.479641],[-89.337344,48.488269],[-89.349953,48.488426],[-89.379558,48.491398],[-89.389175,48.490101],[-89.395755,48.493572],[-89.407171,48.496537],[-89.432659,48.497035],[-89.449219,48.50524],[-89.465723,48.508577],[-89.481387,48.513782],[-89.500523,48.513809],[-89.507474,48.519362],[-89.518866,48.524759],[-89.535883,48.526018],[-89.559356,48.535945],[-89.582911,48.532647],[-89.599972,48.537238],[-89.614991,48.532102],[-89.630238,48.53198],[-89.641889,48.534592],[-89.649194,48.53426],[-89.652602,48.538251],[-89.662183,48.540522],[-89.673285,48.545623],[-89.678425,48.54552],[-89.685727,48.542814],[-89.69251,48.542716],[-89.701295,48.54824],[-89.723031,48.55212],[-89.731183,48.555518],[-89.742091,48.556079],[-89.763012,48.564949],[-89.7881,48.573018],[-89.804942,48.575114],[-89.817326,48.581442],[-89.835437,48.584222],[-89.841409,48.586657],[-89.850799,48.586836],[-89.879707,48.590924],[-89.89452,48.595445],[-89.896614,48.598468],[-89.897995,48.621763],[-89.893137,48.641027],[-89.892447,48.694308],[-89.881191,48.740764],[-89.876974,48.768802],[-89.898272,48.80325],[-89.918073,48.815772],[-89.923845,48.824147],[-89.934696,48.832383],[-89.942285,48.843314],[-89.981936,48.875522],[-90.027534,48.902786],[-90.132186,48.93595],[-90.205183,48.948317],[-90.301476,48.960697],[-90.318345,48.965574],[-90.365746,48.983654],[-90.383746,48.989217],[-90.411978,49.005346],[-90.436465,49.016904],[-90.463194,49.032895],[-90.469171,49.043522],[-90.469667,49.048217],[-90.4736,49.050728],[-90.572946,49.050799],[-90.581832,49.051603],[-90.606105,49.048762],[-90.619137,49.046071],[-90.649862,49.048162],[-90.663395,49.056214],[-90.67985,49.063442],[-90.688712,49.081355],[-90.70016,49.090525],[-90.706506,49.097542],[-90.711389,49.11432],[-90.729175,49.127195],[-90.745202,49.133452],[-90.817047,49.150667],[-90.84047,49.15901],[-90.842454,49.162189],[-90.842712,49.177252],[-90.852095,49.18379],[-90.861317,49.187169],[-90.870154,49.193205],[-90.88814,49.218524],[-90.89273,49.222444],[-90.901691,49.227075],[-90.915059,49.227758],[-90.956906,49.222247],[-90.963941,49.225328],[-90.965934,49.230977],[-90.968881,49.233152],[-91.035119,49.246142],[-91.062711,49.249397],[-91.077114,49.241779],[-91.08451,49.241418],[-91.107013,49.251654],[-91.123654,49.255368],[-91.149907,49.263912],[-91.18828,49.257973],[-91.210984,49.259847],[-91.221617,49.262628],[-91.254216,49.266313],[-91.267086,49.270046],[-91.275833,49.279524],[-91.295662,49.286876],[-91.308224,49.295673],[-91.327613,49.304307],[-91.359669,49.307702],[-91.396951,49.319464],[-91.404726,49.324283],[-91.444639,49.331062],[-91.472435,49.339024],[-91.48147,49.34405],[-91.494777,49.345403],[-91.520023,49.351194],[-91.560169,49.369529],[-91.573027,49.372857],[-91.599423,49.388673],[-91.604051,49.393346],[-91.616718,49.400962],[-91.625717,49.40422],[-91.626981,49.404193],[-91.623747,49.402855],[-91.636762,49.406155],[-91.652455,49.415788],[-91.675997,49.418379],[-91.684555,49.430514],[-91.689758,49.433722],[-91.72128,49.437324],[-91.733064,49.433509],[-91.738314,49.433176],[-91.743787,49.435508],[-91.756719,49.451039],[-91.764119,49.453872],[-91.779811,49.453539],[-91.807057,49.45779],[-91.825525,49.457329],[-91.837267,49.454908],[-91.860447,49.458964],[-91.874057,49.459881],[-91.889765,49.4636],[-91.898189,49.463692],[-91.909595,49.465637],[-91.935621,49.471982],[-91.961054,49.484894],[-91.975132,49.485935],[-91.983846,49.485361],[-92.005257,49.488628],[-92.028313,49.498382],[-92.054532,49.505497],[-92.081258,49.521701],[-92.091501,49.522988],[-92.123087,49.535521],[-92.129041,49.53619],[-92.14715,49.533813],[-92.152487,49.53422],[-92.162114,49.539585],[-92.182423,49.545407],[-92.187818,49.548976],[-92.204355,49.555485],[-92.219364,49.559251],[-92.227972,49.564922],[-92.245444,49.566997],[-92.259517,49.574283],[-92.264076,49.584387],[-92.270332,49.58806],[-92.287981,49.587954],[-92.308181,49.58292],[-92.333034,49.583917],[-92.345593,49.583317],[-92.398399,49.593036],[-92.410483,49.59422],[-92.429607,49.606384],[-92.441371,49.610872],[-92.44455,49.616534],[-92.43989,49.629261],[-92.441958,49.641579],[-92.445266,49.643994],[-92.455711,49.64759],[-92.467817,49.647927],[-92.474642,49.652155],[-92.482553,49.662238],[-92.492236,49.670471],[-92.492745,49.685195],[-92.495252,49.688561],[-92.501796,49.691231],[-92.51163,49.689808],[-92.522914,49.690301],[-92.532191,49.692657],[-92.55129,49.693945],[-92.568928,49.69838],[-92.584864,49.706939],[-92.596262,49.717356],[-92.60258,49.720288],[-92.610926,49.73173],[-92.619489,49.739434],[-92.647838,49.753496],[-92.656307,49.759127],[-92.673118,49.761747],[-92.6867,49.767877],[-92.700145,49.783092],[-92.703367,49.784896],[-92.844917,49.786796],[-92.847225,49.78832],[-92.847416,49.812042],[-92.84938,49.814292],[-92.8524,49.815088],[-93.202914,49.814994],[-93.245746,49.811367],[-93.293107,49.825523],[-93.32355,49.839356],[-93.339909,49.84395],[-93.368338,49.854935],[-93.392202,49.860811],[-93.403061,49.859947],[-93.419239,49.856354],[-93.42726,49.852503],[-93.440634,49.840877],[-93.460059,49.838984],[-93.47296,49.834201],[-93.484576,49.827785],[-93.501268,49.824387],[-93.507459,49.818127],[-93.521631,49.814334],[-93.527244,49.815443],[-93.541621,49.825007],[-93.55103,49.827398],[-93.561704,49.833648],[-93.568852,49.835146],[-93.579673,49.834212],[-93.595808,49.828949],[-93.631107,49.828636],[-93.642902,49.830582],[-93.663796,49.837363],[-93.669745,49.838261],[-93.707869,49.833559],[-93.720698,49.835822],[-93.752737,49.833915],[-93.78247,49.838814],[-93.811226,49.838831],[-93.823814,49.841377],[-93.834206,49.839936],[-93.839523,49.841795],[-93.844286,49.847769],[-93.849018,49.849506],[-93.853405,49.849024],[-93.863839,49.845178],[-93.875608,49.845279],[-93.887087,49.841711],[-93.903264,49.84405],[-93.917796,49.844545],[-93.927817,49.838442],[-93.937312,49.836108],[-93.945576,49.835573],[-93.962365,49.828077],[-93.985671,49.826127],[-94.012744,49.808427],[-94.031293,49.804728],[-94.043625,49.793977],[-94.059241,49.789464],[-94.066321,49.784155],[-94.080021,49.778622],[-94.086413,49.772518],[-94.092088,49.770441],[-94.104276,49.770209],[-94.110879,49.767447],[-94.120431,49.767337],[-94.126286,49.760534],[-94.135154,49.756148],[-94.141879,49.756388],[-94.147024,49.761428],[-94.150935,49.763008],[-94.161995,49.760964],[-94.172507,49.762711],[-94.184166,49.756818],[-94.194013,49.754144],[-94.203642,49.754468],[-94.21812,49.75213],[-94.221662,49.749467],[-94.22981,49.732974],[-94.249874,49.726364],[-94.259336,49.729014],[-94.275873,49.73047],[-94.282846,49.732327],[-94.304047,49.733219],[-94.304859,49.730921],[-94.308285,49.728813],[-94.331434,49.725887],[-94.342022,49.728949],[-94.343492,49.731414],[-94.342084,49.736747],[-94.343201,49.739486],[-94.354676,49.744372],[-94.366991,49.743957],[-94.374461,49.746513],[-94.386402,49.747108],[-94.414108,49.751343],[-94.423066,49.750055],[-94.431064,49.747276],[-94.437467,49.747421],[-94.448961,49.751614],[-94.457245,49.759812],[-94.470964,49.759876],[-94.472123,49.757988],[-94.470964,49.759876],[-94.476337,49.760913],[-94.477567,49.765266],[-94.48484,49.765252],[-94.48496,49.766542],[-94.490072,49.767702],[-94.490841,49.770056],[-94.495324,49.770911],[-94.50609,49.765562],[-94.513431,49.767742],[-94.518994,49.766534],[-94.53045,49.76082],[-94.538037,49.758811],[-94.577843,49.756013],[-94.590239,49.751802],[-94.609054,49.747837],[-94.632553,49.746889],[-94.641594,49.744849],[-94.645765,49.746197],[-94.655167,49.739465],[-94.718123,49.717867],[-94.730239,49.71893],[-94.751249,49.71618],[-94.769613,49.715317],[-94.781782,49.716532],[-94.803388,49.713679],[-94.825507,49.717128],[-94.832379,49.71588],[-94.837249,49.712568],[-94.841428,49.711566],[-94.852327,49.711625],[-94.875653,49.717547],[-94.887818,49.72246],[-94.898384,49.720566],[-94.930577,49.721591],[-94.964878,49.72804],[-94.986124,49.727169],[-95.011458,49.73091],[-95.034278,49.729258],[-95.047879,49.730082],[-95.064515,49.732535],[-95.084053,49.738886],[-95.102814,49.743367],[-95.109782,49.743273],[-95.124827,49.740627],[-95.150881,49.740011],[-95.1789,49.737558],[-95.224878,49.736619],[-95.251166,49.728366],[-95.26539,49.708828],[-95.269052,49.70637],[-95.283213,49.703867],[-95.37064,49.679998],[-95.377829,49.676616],[-95.397532,49.66267],[-95.454473,49.644865],[-95.537743,49.635333],[-95.693852,49.635425],[-95.701007,49.637066],[-95.715696,49.646627],[-95.722518,49.648707],[-95.793312,49.648846],[-95.834358,49.650142],[-95.972721,49.649421],[-95.992163,49.653725],[-96.013472,49.656187],[-96.0291,49.659545],[-96.077991,49.66294],[-96.103156,49.667554],[-96.112388,49.666732],[-96.143603,49.65749],[-96.151957,49.656234],[-96.222783,49.658536],[-96.247152,49.656226],[-96.259402,49.656215],[-96.321346,49.663131],[-96.549756,49.66342],[-96.751948,49.74351],[-96.940617,49.822198],[-96.951467,49.830101],[-96.966287,49.83567],[-96.974762,49.836424],[-96.986063,49.840996],[-97.010429,49.85548],[-97.049658,49.856054],[-97.050164,49.840459],[-97.085004,49.840506],[-97.139325,49.822877],[-97.153937,49.81917],[-97.163176,49.818068],[-97.187525,49.810134],[-97.193099,49.811661],[-97.209129,49.829243],[-97.208591,49.841785],[-97.219387,49.842072],[-97.219336,49.839167],[-97.218975,49.842302],[-97.229821,49.845242],[-97.283661,49.840194],[-97.366383,49.837049],[-97.364579,49.858048],[-97.362425,49.860122],[-97.371488,49.862349],[-97.398303,49.863429],[-97.404894,49.866961],[-97.402795,49.875975],[-97.47552,49.882637],[-97.502376,49.887878],[-97.526879,49.886798],[-97.65174,49.887328],[-98.081971,49.966987],[-98.103024,49.972395],[-98.222805,49.975948],[-98.230264,49.973391],[-98.240462,49.96154],[-98.263701,49.958247],[-98.293534,49.946836],[-98.297807,49.94618],[-98.351181,49.96215],[-98.355251,49.964861],[-98.360958,49.972478],[-98.369849,49.975015],[-98.766646,49.975432],[-98.776036,49.974005],[-98.818749,49.961942],[-98.839277,49.960317],[-98.922358,49.96016],[-98.961655,49.950071],[-98.987832,49.94711],[-98.996014,49.943151],[-99.024656,49.919233],[-99.059059,49.903957],[-99.068539,49.901937],[-99.121942,49.901912],[-99.146733,49.903367],[-99.179563,49.901459],[-99.517107,49.901659],[-99.545481,49.903643],[-99.568099,49.901538],[-99.70685,49.901223],[-99.761639,49.886999],[-99.939126,49.886921],[-99.939015,49.863414],[-99.936329,49.859348],[-99.9416,49.85214],[-99.935773,49.859704],[-99.938723,49.863764],[-99.938948,49.886922],[-100.063358,49.886693],[-100.068517,49.885069],[-100.148718,49.843056],[-100.262886,49.84221],[-100.27826,49.837139],[-100.293628,49.836096],[-100.310916,49.830505],[-100.334059,49.829675],[-100.375279,49.813218],[-100.427771,49.784996],[-100.4351,49.783844],[-100.469321,49.783328],[-100.474982,49.781043],[-100.484129,49.773998],[-100.490939,49.771877],[-100.533744,49.769612],[-100.601872,49.769183],[-100.631398,49.774768],[-100.636827,49.774269],[-100.65279,49.76934],[-100.706992,49.769326],[-100.765409,49.782496],[-100.790463,49.792576],[-100.833613,49.800455],[-100.920725,49.856776],[-100.965665,49.871869],[-101.02311,49.89882],[-101.04363,49.905603],[-101.127913,49.939037],[-101.167973,49.946],[-101.182315,49.946334],[-101.18829,49.9476],[-101.213301,49.961279],[-101.233167,49.980652],[-101.238905,49.983983],[-101.260179,49.987183],[-101.279176,49.997197],[-101.304959,50.008355],[-101.325151,50.012781],[-101.344549,50.018862],[-101.35914,50.030277],[-101.383108,50.033998],[-101.428749,50.05245],[-101.457283,50.061823],[-101.516085,50.078196],[-101.542775,50.090282],[-101.575262,50.107928],[-101.63006,50.126013],[-101.653496,50.147133],[-101.665963,50.153293],[-101.685576,50.159232],[-101.72671,50.179848],[-101.773166,50.205866],[-101.79722,50.211195],[-101.924228,50.253402],[-101.945514,50.257573],[-101.971091,50.268656],[-101.99666,50.270776],[-102.08898,50.300945],[-102.113206,50.30566],[-102.126552,50.311347],[-102.17303,50.314471],[-102.228824,50.32522],[-102.251094,50.336427],[-102.288309,50.338818],[-102.340228,50.353959],[-102.395739,50.361611],[-102.416832,50.367935],[-102.445113,50.368387],[-102.478957,50.372582],[-102.566872,50.379533],[-102.59036,50.385191],[-102.59551,50.384781],[-102.611052,50.37937],[-102.61806,50.378251],[-102.633783,50.380482],[-102.684345,50.381803],[-102.859289,50.403918],[-102.931329,50.40409],[-102.959516,50.411995],[-103.272478,50.412219],[-103.279044,50.415049],[-103.288515,50.425762],[-103.293433,50.428535],[-103.453639,50.47729],[-103.506087,50.494329],[-103.569167,50.517765],[-103.64168,50.525716],[-103.69068,50.524787],[-103.712354,50.527841],[-103.93155,50.527447],[-103.955626,50.523518],[-104.040496,50.519812],[-104.063033,50.514482],[-104.111598,50.513288],[-104.134327,50.509064],[-104.251079,50.493046],[-104.343655,50.448021],[-104.565043,50.447229],[-104.562191,50.441274],[-104.563308,50.437571],[-104.581231,50.416195],[-104.599128,50.39886],[-104.60515,50.396838],[-104.639261,50.397185],[-104.643483,50.398355],[-104.6441,50.402032],[-104.649176,50.40238],[-104.648235,50.40409],[-104.650034,50.404081],[-104.650044,50.405386],[-104.644097,50.405383],[-104.644437,50.399018],[-104.6486,50.396966],[-105.135304,50.396887],[-105.152554,50.393225],[-105.169548,50.391477],[-105.173435,50.392437],[-105.17748,50.39618],[-105.181509,50.396904],[-105.439332,50.396875],[-105.464714,50.393169],[-105.492077,50.398737],[-105.513412,50.418535],[-105.545377,50.425743],[-105.723415,50.425987],[-105.732673,50.427158],[-105.820552,50.455258],[-105.860185,50.476597],[-105.89067,50.483827],[-106.024324,50.463234],[-106.140543,50.463287],[-106.17789,50.461651],[-106.331732,50.463851],[-106.43578,50.462855],[-106.452048,50.464894],[-106.460531,50.463736],[-106.491466,50.462884],[-106.512473,50.466044],[-106.570057,50.466857],[-106.628245,50.463394],[-106.651624,50.457265],[-106.672951,50.454073],[-106.741849,50.46703],[-106.790159,50.478597],[-106.802338,50.480468],[-106.843708,50.482024],[-106.847652,50.480929],[-106.867612,50.465309],[-106.882962,50.458023],[-106.900001,50.443291],[-106.952681,50.413979],[-106.95738,50.412557],[-107.019489,50.41242],[-107.04056,50.409393],[-107.073638,50.412105],[-107.110416,50.424431],[-107.137163,50.426707],[-107.190765,50.426755],[-107.203886,50.425825],[-107.219261,50.421779],[-107.243615,50.41806],[-107.298364,50.39053],[-107.43682,50.390242],[-107.472128,50.387123],[-107.502521,50.3769],[-107.580987,50.360857],[-107.595129,50.356363],[-107.613974,50.355132],[-107.645065,50.350235],[-107.68384,50.339182],[-107.710521,50.326665],[-107.725859,50.323136],[-107.805224,50.295066],[-107.817865,50.287459],[-107.872998,50.286672],[-107.900577,50.291958],[-107.929564,50.291465],[-107.939211,50.290113],[-107.960211,50.284263],[-108.007127,50.260078],[-108.166339,50.211755],[-108.21503,50.192854],[-108.257893,50.168435],[-108.284076,50.157393],[-108.345692,50.144496],[-108.409356,50.138968],[-108.427381,50.134319],[-108.462679,50.117557],[-108.482955,50.102206],[-108.544774,50.084861],[-108.55913,50.078279],[-108.581608,50.070902],[-108.787911,50.070237],[-108.816439,50.067537],[-108.860009,50.06939],[-108.864504,50.068247],[-108.886016,50.056717],[-108.916926,50.048506],[-108.968189,50.047385],[-109.028463,50.030702],[-109.048194,50.027242],[-109.076196,50.01633],[-109.122115,50.005064],[-109.212119,50.004112],[-109.345256,49.982312],[-109.498633,49.982508],[-109.542967,49.975385],[-109.665922,49.975403],[-109.714586,49.961383],[-109.822174,49.961286],[-109.858919,49.964762],[-109.897607,49.959503],[-109.989915,49.960726],[-109.996956,49.959172],[-110.012728,49.95191],[-110.054814,49.93953],[-110.122738,49.940862],[-110.161477,49.9376],[-110.229138,49.950378],[-110.296224,49.95769],[-110.340216,49.956043],[-110.385883,49.975041],[-110.421902,49.983044],[-110.445909,49.982865],[-110.518292,49.975012],[-110.560006,49.974824],[-110.590981,49.967526],[-110.597866,49.967889],[-110.639552,49.998218],[-110.65505,50.003132],[-110.665586,50.005091],[-110.684058,50.012917],[-110.689133,50.015868],[-110.698431,50.024571],[-110.707306,50.024371],[-110.707307,50.02242],[-110.707412,50.027297],[-110.705283,50.02954],[-110.707257,50.033002],[-110.720955,50.04565],[-110.741365,50.056548],[-110.744238,50.064732],[-110.747529,50.067431],[-110.956298,50.158233],[-110.986203,50.167508],[-111.071689,50.189984],[-111.164719,50.217516],[-111.193376,50.229307],[-111.617302,50.4753],[-111.703963,50.504923],[-111.784863,50.53079],[-111.979956,50.635118],[-112.087599,50.655844],[-112.190339,50.688689],[-112.304188,50.731671],[-112.31136,50.732637],[-112.341981,50.732679],[-112.350321,50.734658],[-112.39935,50.764324],[-112.402912,50.768151],[-112.407389,50.77793],[-112.410768,50.78086],[-112.416982,50.782717],[-112.434915,50.783361],[-112.443178,50.786974],[-112.450556,50.798318],[-112.452401,50.81898],[-112.472395,50.832687],[-112.481335,50.834129],[-112.808054,50.83445],[-112.815289,50.836476],[-112.851143,50.861533],[-112.857707,50.863686],[-113.01467,50.863835],[-113.022319,50.865099],[-113.070997,50.906896],[-113.073943,50.91093],[-113.074223,51.031005],[-113.07687,51.034863],[-113.081501,51.036594],[-113.092815,51.037919],[-113.797374,51.037919],[-113.802747,51.039041],[-113.806878,51.041646],[-113.811968,51.049405],[-113.813141,51.061114],[-113.816927,51.064636],[-113.822658,51.066639],[-113.974881,51.067113],[-113.980771,51.068318],[-113.982032,51.052552],[-113.999987,51.045415],[-114.007048,51.045723],[-114.016672,51.049119],[-114.024982,51.04753],[-114.035722,51.047957],[-114.050687,51.051174],[-114.054673,51.049173],[-114.073591,51.049641],[-114.073902,51.044909],[-114.06805,51.044731],[-114.067823,51.047584],[-114.08976,51.048184],[-114.092742,51.046991],[-114.102171,51.047343],[-114.117323,51.041893],[-114.135728,51.041736],[-114.1401,51.0448],[-114.163755,51.052588],[-114.166208,51.06273],[-114.184469,51.073159],[-114.188944,51.079031],[-114.188125,51.081332],[-114.188587,51.08032],[-114.205474,51.082408],[-114.229539,51.088345],[-114.437971,51.088708],[-114.456519,51.086684],[-114.532377,51.087804],[-114.550019,51.093326],[-114.567104,51.090831],[-114.578159,51.091706],[-114.648897,51.11324],[-114.733572,51.147073],[-114.754734,51.160307],[-114.763364,51.162324],[-114.778108,51.161346],[-114.78823,51.15929],[-114.816758,51.150353],[-114.863832,51.146121],[-114.887513,51.140762],[-114.958954,51.128265],[-115.049702,51.092399],[-115.053812,51.088888],[-115.056201,51.080249],[-115.058897,51.077197],[-115.086039,51.067096],[-115.092091,51.066673],[-115.118218,51.069938],[-115.136315,51.061506],[-115.143488,51.054952],[-115.162105,51.049982],[-115.182421,51.047706],[-115.188312,51.05018],[-115.192758,51.054227],[-115.199283,51.055212],[-115.216045,51.050793],[-115.238557,51.040827],[-115.269606,51.038686],[-115.281869,51.041762],[-115.318045,51.05782],[-115.339629,51.086062],[-115.349065,51.094753],[-115.347836,51.096104],[-115.343112,51.090467],[-115.347872,51.088376],[-115.357518,51.097043],[-115.35499,51.097163],[-115.357518,51.097043],[-115.369738,51.107607],[-115.367145,51.110914],[-115.368576,51.11028],[-115.387909,51.125377],[-115.403432,51.131611],[-115.409703,51.137771],[-115.43033,51.151288],[-115.443567,51.163621],[-115.453257,51.167409],[-115.466757,51.170188],[-115.471788,51.17536],[-115.484024,51.182525],[-115.499155,51.198793],[-115.517848,51.202564],[-115.529218,51.208475],[-115.534406,51.209155],[-115.539027,51.207361],[-115.549012,51.197032],[-115.600198,51.183831],[-115.610031,51.180218],[-115.636215,51.177214],[-115.645641,51.174986],[-115.682236,51.157462],[-115.700758,51.158495],[-115.718638,51.162189],[-115.79546,51.218723],[-115.826965,51.226556],[-115.843141,51.232758],[-115.858413,51.240813],[-115.882778,51.24761],[-115.893034,51.254727],[-115.946478,51.268494],[-115.976173,51.282977],[-115.995743,51.288214],[-116.037031,51.319493],[-116.052575,51.328767],[-116.057066,51.334094],[-116.07434,51.346106],[-116.08946,51.352926],[-116.099897,51.359921],[-116.108053,51.371887],[-116.137383,51.394787],[-116.155223,51.400684],[-116.169162,51.413605],[-116.175247,51.428383],[-116.19062,51.433442],[-116.19689,51.439537],[-116.203734,51.442361],[-116.225222,51.442261],[-116.237415,51.444563],[-116.248759,51.445153],[-116.264286,51.457499],[-116.26834,51.458359],[-116.282574,51.453648],[-116.309738,51.451823],[-116.330595,51.446984],[-116.339568,51.442981],[-116.35324,51.440789],[-116.360708,51.437115],[-116.384126,51.436465],[-116.393588,51.431915],[-116.413244,51.430582],[-116.428921,51.420924],[-116.445322,51.419363],[-116.480774,51.404407],[-116.494062,51.397288],[-116.503842,51.384326],[-116.511881,51.380031],[-116.513993,51.372405],[-116.520916,51.36804],[-116.532375,51.357232],[-116.55497,51.330499],[-116.558465,51.328596],[-116.570793,51.326012],[-116.574744,51.322855],[-116.580056,51.305753],[-116.579645,51.297792],[-116.582487,51.291415],[-116.582789,51.281942],[-116.596979,51.272441],[-116.598194,51.270238],[-116.590302,51.262675],[-116.586592,51.250978],[-116.579729,51.244443],[-116.58063,51.237012],[-116.573272,51.223857],[-116.5735,51.221243],[-116.579195,51.217511],[-116.583141,51.216926],[-116.596537,51.218762],[-116.609579,51.222919],[-116.61851,51.222354],[-116.641469,51.232275],[-116.665766,51.246446],[-116.677755,51.25],[-116.688039,51.25474],[-116.702628,51.258553],[-116.729163,51.261018],[-116.752769,51.271683],[-116.766762,51.274558],[-116.784768,51.281228],[-116.793481,51.28193],[-116.805929,51.278598],[-116.81066,51.27891],[-116.825166,51.287506],[-116.843088,51.2911],[-116.863827,51.299083],[-116.874809,51.305885],[-116.890513,51.304764],[-116.911882,51.29838],[-116.928788,51.29879],[-116.948439,51.302064],[-116.959589,51.30031],[-116.963046,51.300863],[-116.965009,51.30652],[-116.972339,51.312998],[-116.975494,51.322036],[-116.990291,51.332556],[-117.001261,51.34974],[-117.015763,51.36601],[-117.020566,51.373468],[-117.020737,51.377689],[-117.028996,51.394018],[-117.06109,51.427619],[-117.092856,51.445787],[-117.096183,51.449002],[-117.127683,51.468128],[-117.142373,51.475159],[-117.147877,51.479249],[-117.162618,51.48561],[-117.169909,51.486569],[-117.180864,51.484342],[-117.186379,51.484546],[-117.207297,51.492651],[-117.222467,51.496163],[-117.226035,51.494851],[-117.228244,51.490029],[-117.21797,51.479573],[-117.219084,51.476595],[-117.223183,51.474887],[-117.22781,51.475291],[-117.259906,51.486594],[-117.295606,51.493921],[-117.35316,51.480444],[-117.36213,51.480023],[-117.369016,51.481619],[-117.39687,51.49287],[-117.424714,51.508893],[-117.439766,51.512202],[-117.444562,51.510554],[-117.450237,51.505073],[-117.461223,51.502087],[-117.473878,51.488688],[-117.482433,51.474436],[-117.476969,51.440193],[-117.47921,51.432956],[-117.475289,51.426085],[-117.471131,51.409078],[-117.460225,51.396836],[-117.448299,51.38684],[-117.452847,51.378917],[-117.439232,51.361851],[-117.434362,51.345098],[-117.446473,51.329796],[-117.46618,51.324424],[-117.491801,51.319372],[-117.511314,51.314206],[-117.51473,51.312213],[-117.520022,51.305421],[-117.519842,51.299063],[-117.513489,51.286762],[-117.513459,51.282044],[-117.507846,51.273489],[-117.50389,51.271074],[-117.504424,51.26936],[-117.511855,51.268141],[-117.53955,51.259287],[-117.551857,51.262274],[-117.564247,51.261754],[-117.581122,51.258403],[-117.597721,51.251872],[-117.610207,51.250722],[-117.616064,51.248162],[-117.629253,51.245482],[-117.636147,51.245955],[-117.647805,51.240901],[-117.66251,51.237054],[-117.670007,51.229299],[-117.688495,51.216462],[-117.701136,51.212362],[-117.719139,51.20938],[-117.72621,51.206418],[-117.735184,51.205727],[-117.743728,51.202729],[-117.750522,51.187735],[-117.785309,51.168122],[-117.801485,51.1612],[-117.813203,51.158091],[-117.820064,51.15421],[-117.834797,51.151814],[-117.839479,51.144885],[-117.858479,51.138932],[-117.869777,51.139069],[-117.880249,51.137102],[-117.882338,51.134796],[-117.883276,51.128115],[-117.88649,51.125363],[-117.88739,51.119399],[-117.897436,51.11319],[-117.92779,51.080619],[-117.928566,51.077832],[-117.926476,51.073033],[-117.931336,51.068989],[-117.937035,51.052783],[-117.966985,51.04213],[-117.991505,51.040823],[-118.08186,51.016848],[-118.100994,51.009078],[-118.112689,51.00678],[-118.121992,51.000336],[-118.139144,50.992558],[-118.149248,50.991868],[-118.158924,50.994623],[-118.168509,50.999604],[-118.188732,51.000251],[-118.198139,51.00623],[-118.204256,51.00713],[-118.209231,51.010428],[-118.213305,51.010497],[-118.224155,51.003686],[-118.232263,51.002554],[-118.238979,50.999747],[-118.24597,50.993939],[-118.259483,50.991831],[-118.272749,50.991233],[-118.292723,50.985733],[-118.303997,50.979937],[-118.313365,50.979921],[-118.320657,50.978044],[-118.332214,50.97248],[-118.338637,50.971155],[-118.35458,50.970881],[-118.361333,50.966866],[-118.373597,50.962882],[-118.385186,50.962542],[-118.400341,50.957193],[-118.407106,50.95068],[-118.424479,50.943595],[-118.431364,50.937277],[-118.460331,50.928861],[-118.473531,50.927681],[-118.481671,50.931376],[-118.484477,50.935401],[-118.481015,50.946057],[-118.483529,50.950459],[-118.489569,50.952676],[-118.492032,50.955573],[-118.498386,50.9591],[-118.50702,50.967916],[-118.518998,50.971869],[-118.524784,50.976229],[-118.530232,50.977322],[-118.546775,50.974933],[-118.553142,50.97581],[-118.562822,50.97376],[-118.571937,50.969815],[-118.59018,50.971205],[-118.603614,50.97415],[-118.6161,50.981526],[-118.62656,50.984359],[-118.653717,51.001347],[-118.667239,51.003425],[-118.67805,51.00177],[-118.690268,50.997649],[-118.719232,50.982896],[-118.72584,50.973529],[-118.735415,50.96434],[-118.775367,50.946586],[-118.793223,50.930745],[-118.796003,50.923104],[-118.8181,50.900731],[-118.834022,50.890624],[-118.840772,50.888856],[-118.853869,50.888607],[-118.866945,50.891792],[-118.912349,50.882372],[-118.923294,50.874584],[-118.929016,50.864597],[-118.942741,50.856012],[-118.949097,50.848814],[-118.964868,50.838804],[-118.974762,50.837936],[-118.984735,50.839712],[-119.007947,50.831034],[-119.017406,50.830049],[-119.032595,50.822998],[-119.055978,50.80665],[-119.061595,50.805307],[-119.070649,50.797625],[-119.073749,50.79269],[-119.079947,50.78946],[-119.086052,50.788755],[-119.114742,50.790801],[-119.126101,50.794893],[-119.129444,50.794105],[-119.133601,50.790031],[-119.144334,50.789377],[-119.165161,50.784428],[-119.182085,50.773121],[-119.202068,50.764846],[-119.213456,50.755021],[-119.22634,50.747049],[-119.227408,50.713552],[-119.231501,50.709042],[-119.236881,50.707257],[-119.264394,50.706974],[-119.270388,50.702547],[-119.278398,50.702249],[-119.285132,50.699874],[-119.292841,50.699456],[-119.309798,50.692794],[-119.326026,50.693037],[-119.329614,50.694847],[-119.331252,50.697887],[-119.330106,50.702812],[-119.318607,50.714549],[-119.315639,50.730079],[-119.322554,50.740838],[-119.323116,50.746851],[-119.32545,50.750488],[-119.32537,50.757359],[-119.337476,50.766225],[-119.340562,50.774159],[-119.339632,50.777879],[-119.329261,50.787504],[-119.325188,50.802588],[-119.31988,50.809666],[-119.320095,50.827365],[-119.329694,50.8433],[-119.345234,50.850031],[-119.367352,50.856261],[-119.372936,50.862207],[-119.38439,50.87014],[-119.386964,50.873866],[-119.394802,50.878763],[-119.407024,50.879498],[-119.43418,50.877027],[-119.471375,50.876916],[-119.502118,50.883511],[-119.511588,50.889806],[-119.519692,50.892727],[-119.532162,50.892109],[-119.534775,50.888288],[-119.542501,50.884693],[-119.55855,50.880518],[-119.566547,50.877181],[-119.571458,50.872855],[-119.576644,50.872075],[-119.596295,50.863282],[-119.605185,50.853548],[-119.647912,50.831285],[-119.670486,50.826558],[-119.699051,50.805988],[-119.702913,50.791445],[-119.710452,50.786381],[-119.716071,50.778436],[-119.727702,50.768809],[-119.74186,50.762944],[-119.750402,50.753558],[-119.757835,50.740608],[-119.762811,50.736826],[-119.767427,50.725348],[-119.788761,50.711838],[-119.795727,50.701992],[-119.810925,50.693038],[-119.817832,50.684792],[-119.835146,50.674505],[-119.854428,50.668919],[-119.880202,50.653499],[-119.90669,50.64539],[-119.91818,50.644506],[-119.962379,50.650719],[-119.98584,50.64749],[-119.997628,50.647333],[-120.008,50.650348],[-120.027256,50.653198],[-120.057164,50.6543],[-120.066078,50.653514],[-120.106174,50.659616],[-120.120379,50.659543],[-120.129169,50.662681],[-120.153486,50.667629],[-120.177041,50.669761],[-120.200493,50.66932],[-120.213301,50.67194],[-120.221778,50.671069],[-120.26936,50.680604],[-120.286797,50.677889],[-120.297623,50.67317],[-120.312667,50.67316],[-120.316372,50.674322],[-120.314939,50.676033],[-120.301986,50.673893],[-120.304827,50.669985],[-120.316473,50.663475],[-120.324135,50.661901],[-120.354923,50.661615],[-120.360812,50.659094],[-120.364534,50.65478],[-120.374774,50.65269],[-120.389074,50.656128],[-120.395147,50.660034],[-120.417905,50.665591],[-120.447442,50.666754],[-120.457263,50.665241],[-120.481529,50.65385],[-120.484894,50.651168],[-120.486626,50.646345],[-120.483514,50.633988],[-120.474256,50.624504],[-120.472093,50.620115],[-120.477675,50.59589],[-120.477212,50.591751],[-120.463878,50.578809],[-120.45972,50.572198],[-120.451343,50.566013],[-120.449157,50.55835],[-120.450327,50.553309],[-120.460199,50.54218],[-120.478485,50.532121],[-120.489533,50.508481],[-120.501022,50.494737],[-120.516409,50.489948],[-120.55911,50.484125],[-120.587739,50.464844],[-120.591331,50.459592],[-120.593382,50.445451],[-120.613649,50.427223],[-120.620537,50.418112],[-120.622915,50.40962],[-120.625236,50.378534],[-120.627745,50.366632],[-120.626852,50.350288],[-120.641839,50.307752],[-120.636231,50.29747],[-120.633141,50.278698],[-120.626058,50.268992],[-120.631167,50.258597],[-120.629545,50.251541],[-120.630308,50.231388],[-120.633393,50.228345],[-120.644005,50.222457],[-120.648083,50.211039],[-120.654093,50.204455],[-120.663852,50.198124],[-120.67684,50.193637],[-120.681773,50.183992],[-120.691209,50.178966],[-120.698059,50.171371],[-120.704818,50.168277],[-120.723966,50.146291],[-120.739254,50.136192],[-120.743274,50.12923],[-120.759748,50.121157],[-120.760732,50.115041],[-120.749208,50.100711],[-120.749887,50.087375],[-120.754385,50.083434],[-120.783845,50.072389],[-120.788537,50.069461],[-120.797193,50.053104],[-120.806965,50.044318],[-120.808583,50.038656],[-120.818356,50.030904],[-120.821487,50.01889],[-120.826464,50.017112],[-120.843636,50.017822],[-120.857682,50.015731],[-120.867513,50.012474],[-120.871778,50.006879],[-120.891501,49.992239],[-120.894966,49.986021],[-120.903288,49.980805],[-120.914639,49.968993],[-120.914987,49.962398],[-120.907676,49.952751],[-120.905158,49.946021],[-120.905953,49.93803],[-120.911482,49.924692],[-120.911387,49.91903],[-120.910118,49.915678],[-120.90353,49.910774],[-120.904169,49.903407],[-120.900043,49.884877],[-120.916201,49.873372],[-120.919254,49.864866],[-120.916424,49.857794],[-120.916853,49.854168],[-120.928656,49.845278],[-120.933331,49.837241],[-120.933909,49.831743],[-120.93837,49.827206],[-120.939533,49.821164],[-120.948881,49.809518],[-120.955718,49.803068],[-120.968505,49.795709],[-120.972475,49.787726],[-120.990665,49.774922],[-120.995119,49.767432],[-121.003057,49.759647],[-121.009455,49.756],[-121.011862,49.752168],[-121.01379,49.720557],[-121.012423,49.715128],[-121.016733,49.708159],[-121.011224,49.696573],[-121.013511,49.691999],[-121.015286,49.674432],[-121.012958,49.66253],[-121.004987,49.653217],[-121.002198,49.644006],[-121.003052,49.641077],[-121.010748,49.633535],[-121.019181,49.629287],[-121.037023,49.622961],[-121.053852,49.609654],[-121.08661,49.592906],[-121.094939,49.59202],[-121.108846,49.595487],[-121.124187,49.595652],[-121.13675,49.599352],[-121.157682,49.596967],[-121.162229,49.594839],[-121.165677,49.587312],[-121.182014,49.573942],[-121.183464,49.566157],[-121.190311,49.556957],[-121.196988,49.542372],[-121.204619,49.532186],[-121.207124,49.520871],[-121.198988,49.508155],[-121.202038,49.500069],[-121.205719,49.496506],[-121.21077,49.494582],[-121.226454,49.495685],[-121.244277,49.493494],[-121.248901,49.489278],[-121.253186,49.47983],[-121.254721,49.462995],[-121.261006,49.453724],[-121.280696,49.442066],[-121.300524,49.439358],[-121.307895,49.435171],[-121.312018,49.42306],[-121.317416,49.415899],[-121.317697,49.409089],[-121.315749,49.402303],[-121.319765,49.395056],[-121.318886,49.38215],[-121.320798,49.379609],[-121.338641,49.379082],[-121.346468,49.377521],[-121.355795,49.379587],[-121.362858,49.377788],[-121.36516,49.375566],[-121.365041,49.372852],[-121.357288,49.368466],[-121.355755,49.366174],[-121.356809,49.363359],[-121.361028,49.361792],[-121.396266,49.366901],[-121.413531,49.372178],[-121.424729,49.371254],[-121.436272,49.373482],[-121.44527,49.372474],[-121.457981,49.366016],[-121.487159,49.364754],[-121.51336,49.361523],[-121.523872,49.365038],[-121.546302,49.364309],[-121.566874,49.361302],[-121.578829,49.355539],[-121.608111,49.333731],[-121.630299,49.316104],[-121.635933,49.309394],[-121.645382,49.301909],[-121.652298,49.299352],[-121.658568,49.294097],[-121.668342,49.289625],[-121.671982,49.276044],[-121.67612,49.270718],[-121.676248,49.26082],[-121.681189,49.25384],[-121.678497,49.240991],[-121.693155,49.21692],[-121.703905,49.213239],[-121.710559,49.207405],[-121.719627,49.203868],[-121.742224,49.189591],[-121.772608,49.176481],[-121.798092,49.160816],[-121.801355,49.160001],[-121.809514,49.160536],[-121.819942,49.155919],[-121.826443,49.154817],[-121.919421,49.155254],[-121.966942,49.143827],[-122.018824,49.144589],[-122.071492,49.136658],[-122.086227,49.126652],[-122.100778,49.120976],[-122.126238,49.088843],[-122.172277,49.060706],[-122.226307,49.036266],[-122.242707,49.033631],[-122.276618,49.033521],[-122.336588,49.037401],[-122.377205,49.056282],[-122.614719,49.149635],[-122.790052,49.195747],[-122.809591,49.212141],[-122.814791,49.22351],[-122.820984,49.22735],[-122.877991,49.234504],[-122.895969,49.244266],[-122.903338,49.24621],[-122.910075,49.24535],[-122.927383,49.236854],[-122.945532,49.237442],[-122.966614,49.24321],[-122.978261,49.25545],[-122.982047,49.257395],[-123.005582,49.258087],[-123.00391,49.259068],[-123.007712,49.258081],[-123.01961,49.25872],[-123.02519,49.262569],[-123.031416,49.276378],[-123.031738,49.285821],[-123.02613,49.291611],[-123.027872,49.310967],[-123.038149,49.3161],[-123.045388,49.325043],[-123.059882,49.332118],[-123.120402,49.332701],[-123.129118,49.337371],[-123.146221,49.33871],[-123.156256,49.343181],[-123.184465,49.344706],[-123.191612,49.347301],[-123.21371,49.346206],[-123.230641,49.348883],[-123.241789,49.349252],[-123.253081,49.3524],[-123.253638,49.358224],[-123.256274,49.360383],[-123.262924,49.362041],[-123.274612,49.361468],[-123.275899,49.368558]]}},{"type":"Feature","properties":{"kind":"ferry-return","name":"BC Ferries · Horseshoe Bay → Departure Bay","mode":"ferry"},"geometry":{"type":"LineString","coordinates":[[-123.2758982,49.3685581],[-123.9537888,49.1912971]]}}]}