{"type":"FeatureCollection","features":[{"type":"Feature","properties":{"kind":"ferry","name":"BC Ferries · Departure Bay → Horseshoe Bay","mode":"ferry"},"geometry":{"type":"LineString","coordinates":[[-123.9537888,49.1912971],[-123.2758982,49.3685581]]}},{"type":"Feature","properties":{"kind":"drive","name":"Outbound · Nanaimo → Nipigon (min prairie)","mode":"driving","distanceMeters":3194355,"durationSeconds":149538,"waypoints":["horseshoe_bay","kamloops","golden","canmore","banff","medicine_hat","brandon","kenora","ignace","thunder_bay","nipigon"]},"geometry":{"type":"LineString","coordinates":[[-123.275899,49.368558],[-123.271758,49.374532],[-123.276459,49.367983],[-123.275307,49.361698],[-123.271105,49.36083],[-123.262572,49.361936],[-123.256452,49.360347],[-123.253764,49.358204],[-123.253182,49.352345],[-123.241288,49.349059],[-123.231759,49.348826],[-123.212282,49.346028],[-123.191629,49.347214],[-123.184491,49.34462],[-123.156521,49.343121],[-123.14627,49.338614],[-123.128893,49.337205],[-123.119938,49.332545],[-123.057341,49.33136],[-123.051688,49.327328],[-123.045266,49.32481],[-123.037588,49.31551],[-123.028115,49.311237],[-123.026277,49.291618],[-123.03195,49.285625],[-123.031579,49.276076],[-123.02568,49.262888],[-123.018653,49.25774],[-122.981917,49.257148],[-122.978289,49.255156],[-122.966818,49.243074],[-122.945678,49.23727],[-122.927212,49.236684],[-122.910292,49.245042],[-122.903764,49.246018],[-122.895917,49.243858],[-122.878193,49.234374],[-122.820444,49.227036],[-122.814962,49.22346],[-122.809761,49.212074],[-122.794037,49.197639],[-122.789449,49.195026],[-122.617382,49.150156],[-122.376911,49.055827],[-122.335259,49.036723],[-122.28063,49.033399],[-122.24167,49.033252],[-122.230118,49.034777],[-122.173247,49.059734],[-122.125837,49.088526],[-122.100674,49.120661],[-122.086162,49.126495],[-122.071427,49.136548],[-122.018802,49.144412],[-121.966929,49.143685],[-121.919385,49.155127],[-121.826505,49.154722],[-121.8211,49.15545],[-121.809543,49.16041],[-121.801354,49.159912],[-121.797977,49.160734],[-121.772427,49.176326],[-121.743989,49.188234],[-121.718822,49.203755],[-121.710682,49.206888],[-121.703827,49.212847],[-121.692995,49.216638],[-121.68305,49.228973],[-121.68086,49.237319],[-121.677706,49.241841],[-121.678758,49.253863],[-121.675521,49.261623],[-121.675772,49.270085],[-121.671521,49.276163],[-121.668091,49.289516],[-121.658658,49.293839],[-121.652498,49.299002],[-121.644655,49.302151],[-121.635715,49.309304],[-121.6299,49.316139],[-121.613919,49.328782],[-121.57716,49.356134],[-121.566616,49.361176],[-121.546281,49.364058],[-121.524999,49.364872],[-121.512325,49.361166],[-121.486974,49.36426],[-121.457577,49.365649],[-121.445861,49.372084],[-121.43889,49.373297],[-121.424149,49.371065],[-121.413563,49.371973],[-121.396274,49.36679],[-121.38554,49.36576],[-121.373572,49.362747],[-121.360966,49.361709],[-121.357368,49.362824],[-121.355577,49.365292],[-121.356789,49.368293],[-121.364135,49.373027],[-121.364177,49.375571],[-121.361537,49.377829],[-121.353451,49.378707],[-121.34675,49.377347],[-121.32033,49.37975],[-121.318723,49.382413],[-121.31952,49.395242],[-121.315613,49.402147],[-121.317579,49.409179],[-121.317178,49.416025],[-121.311743,49.423334],[-121.307659,49.435042],[-121.300284,49.439305],[-121.280179,49.442079],[-121.261019,49.453388],[-121.254486,49.462847],[-121.252858,49.480202],[-121.248732,49.489117],[-121.244223,49.493318],[-121.22593,49.495569],[-121.21084,49.494406],[-121.205622,49.496343],[-121.201912,49.499976],[-121.19883,49.508142],[-121.207104,49.521312],[-121.204671,49.531733],[-121.196795,49.542388],[-121.190431,49.556408],[-121.183401,49.565989],[-121.18159,49.574278],[-121.165541,49.587242],[-121.162025,49.59476],[-121.157548,49.59683],[-121.137506,49.599225],[-121.123525,49.595415],[-121.108218,49.595221],[-121.093799,49.591838],[-121.086434,49.592816],[-121.053064,49.610004],[-121.03735,49.622394],[-121.010576,49.633152],[-121.002701,49.640886],[-121.001702,49.643651],[-121.004128,49.652293],[-121.012866,49.66332],[-121.014739,49.674182],[-121.013162,49.69196],[-121.010944,49.696537],[-121.016461,49.708289],[-121.012083,49.7152],[-121.013507,49.720582],[-121.011535,49.752384],[-121.008991,49.756132],[-121.002846,49.759539],[-120.994856,49.767413],[-120.991143,49.77422],[-120.972688,49.787201],[-120.968077,49.795799],[-120.955971,49.80263],[-120.948704,49.809372],[-120.939138,49.821378],[-120.938187,49.826845],[-120.933642,49.831594],[-120.932995,49.837228],[-120.928266,49.845194],[-120.916698,49.854124],[-120.916203,49.857533],[-120.919101,49.865345],[-120.916063,49.873338],[-120.899814,49.885123],[-120.904083,49.903937],[-120.903253,49.910381],[-120.910004,49.915724],[-120.911249,49.919101],[-120.911378,49.924696],[-120.905142,49.940041],[-120.904702,49.946092],[-120.907119,49.952572],[-120.914745,49.963005],[-120.914418,49.968448],[-120.902937,49.980728],[-120.894596,49.986046],[-120.891494,49.991981],[-120.871996,50.006447],[-120.867825,50.012197],[-120.857703,50.015648],[-120.843519,50.01772],[-120.824226,50.017298],[-120.820279,50.019993],[-120.818247,50.030676],[-120.808326,50.038559],[-120.80649,50.044399],[-120.797358,50.052502],[-120.788834,50.068846],[-120.783399,50.072396],[-120.755275,50.082794],[-120.7497,50.087334],[-120.749023,50.100919],[-120.760481,50.115107],[-120.75967,50.120927],[-120.743047,50.129171],[-120.739082,50.136027],[-120.722934,50.146916],[-120.712402,50.160518],[-120.704226,50.16842],[-120.697875,50.171238],[-120.690981,50.178802],[-120.681577,50.183715],[-120.676593,50.193472],[-120.663681,50.197783],[-120.653086,50.20472],[-120.647308,50.211466],[-120.644072,50.221736],[-120.633002,50.228254],[-120.629752,50.231603],[-120.62917,50.252117],[-120.630695,50.259721],[-120.62573,50.269023],[-120.632988,50.278706],[-120.636021,50.297549],[-120.641616,50.307721],[-120.626492,50.350257],[-120.627439,50.366626],[-120.621416,50.414857],[-120.613364,50.427087],[-120.593929,50.444197],[-120.591738,50.44868],[-120.591051,50.459573],[-120.587498,50.464659],[-120.558817,50.484088],[-120.516322,50.489758],[-120.500867,50.494552],[-120.489334,50.508257],[-120.478278,50.531951],[-120.474696,50.534906],[-120.460029,50.542041],[-120.450049,50.553279],[-120.44889,50.558372],[-120.451122,50.566157],[-120.459384,50.572321],[-120.463695,50.578986],[-120.476935,50.591836],[-120.477389,50.595812],[-120.471818,50.620119],[-120.474049,50.624671],[-120.481867,50.631963],[-120.486039,50.642849],[-120.486147,50.647825],[-120.483306,50.6524],[-120.462489,50.662654],[-120.450625,50.666504],[-120.42065,50.665843],[-120.395212,50.65992],[-120.389146,50.656019],[-120.375804,50.652527],[-120.364562,50.654637],[-120.360687,50.658971],[-120.355305,50.661211],[-120.34792,50.662202],[-120.319884,50.662348],[-120.303755,50.669776],[-120.298487,50.680342],[-120.301033,50.684203],[-120.321515,50.693624],[-120.324394,50.682667],[-120.31817,50.681902],[-120.318912,50.680571],[-120.316944,50.67927],[-120.318912,50.680571],[-120.31817,50.681902],[-120.324394,50.682667],[-120.32158,50.693344],[-120.299481,50.682599],[-120.299029,50.678495],[-120.30389,50.672382],[-120.303074,50.673273],[-120.293256,50.672464],[-120.290488,50.674633],[-120.291424,50.675678],[-120.287648,50.67754],[-120.268238,50.680421],[-120.221711,50.670926],[-120.213316,50.67172],[-120.20053,50.669145],[-120.177368,50.669608],[-120.153406,50.667448],[-120.129972,50.662657],[-120.119754,50.659249],[-120.10619,50.659398],[-120.066083,50.653345],[-120.057165,50.654112],[-120.028996,50.653141],[-120.008055,50.650147],[-119.99767,50.647137],[-119.985841,50.647308],[-119.962544,50.650535],[-119.918246,50.644331],[-119.906228,50.645311],[-119.879862,50.653439],[-119.85433,50.668755],[-119.83505,50.67442],[-119.818064,50.684425],[-119.811494,50.692438],[-119.794963,50.702536],[-119.788507,50.711795],[-119.767265,50.72529],[-119.762609,50.736783],[-119.757223,50.74102],[-119.750402,50.753558],[-119.74186,50.762944],[-119.727702,50.768809],[-119.716071,50.778436],[-119.710429,50.786177],[-119.702762,50.791437],[-119.699046,50.805837],[-119.670486,50.826558],[-119.647912,50.831285],[-119.605185,50.853548],[-119.596295,50.863282],[-119.576644,50.872075],[-119.571458,50.872855],[-119.566547,50.877181],[-119.55855,50.880518],[-119.542501,50.884693],[-119.534775,50.888288],[-119.532162,50.892109],[-119.519692,50.892727],[-119.511588,50.889806],[-119.502118,50.883511],[-119.471375,50.876916],[-119.43418,50.877027],[-119.407024,50.879498],[-119.394802,50.878763],[-119.387264,50.87396],[-119.384739,50.870301],[-119.373071,50.862149],[-119.36723,50.856064],[-119.346224,50.850266],[-119.329843,50.843252],[-119.320184,50.827143],[-119.320053,50.809608],[-119.325346,50.802609],[-119.329324,50.787658],[-119.339391,50.778259],[-119.340553,50.773952],[-119.337476,50.766225],[-119.32537,50.757359],[-119.32545,50.750488],[-119.323116,50.746851],[-119.322554,50.740838],[-119.315639,50.730079],[-119.318607,50.714549],[-119.330106,50.702812],[-119.33144,50.698162],[-119.329851,50.694913],[-119.325832,50.692875],[-119.310033,50.692643],[-119.292484,50.699438],[-119.285132,50.69976],[-119.278228,50.702166],[-119.270146,50.702504],[-119.264152,50.706954],[-119.236459,50.707188],[-119.231534,50.708888],[-119.227268,50.71344],[-119.22634,50.747049],[-119.213456,50.755021],[-119.202068,50.764846],[-119.182085,50.773121],[-119.165161,50.784428],[-119.144334,50.789377],[-119.133601,50.790031],[-119.129444,50.794105],[-119.126101,50.794893],[-119.114742,50.790801],[-119.086052,50.788755],[-119.079947,50.78946],[-119.073749,50.79269],[-119.070649,50.797625],[-119.061595,50.805307],[-119.055978,50.80665],[-119.032595,50.822998],[-119.017406,50.830049],[-119.007947,50.831034],[-118.984536,50.839654],[-118.975116,50.837836],[-118.964868,50.838804],[-118.949097,50.848814],[-118.942741,50.856012],[-118.929016,50.864597],[-118.923294,50.874584],[-118.912349,50.882372],[-118.866945,50.891792],[-118.852999,50.888467],[-118.840724,50.888687],[-118.833825,50.890498],[-118.817244,50.901274],[-118.795753,50.923061],[-118.793016,50.930654],[-118.775686,50.94621],[-118.734864,50.964689],[-118.718521,50.983353],[-118.68935,50.997905],[-118.676299,51.002188],[-118.665388,51.003315],[-118.652648,51.00094],[-118.62656,50.984359],[-118.6161,50.981526],[-118.603614,50.97415],[-118.59018,50.971205],[-118.571937,50.969815],[-118.562822,50.97376],[-118.553142,50.97581],[-118.546775,50.974933],[-118.530232,50.977322],[-118.524784,50.976229],[-118.518998,50.971869],[-118.50702,50.967916],[-118.498386,50.9591],[-118.492032,50.955573],[-118.489569,50.952676],[-118.483229,50.950157],[-118.481052,50.94564],[-118.484603,50.935856],[-118.481671,50.931376],[-118.474598,50.927725],[-118.461051,50.9287],[-118.430898,50.937482],[-118.424479,50.943595],[-118.407106,50.95068],[-118.400341,50.957193],[-118.385727,50.962364],[-118.373597,50.962882],[-118.361233,50.966791],[-118.354522,50.970786],[-118.334138,50.971959],[-118.328931,50.973423],[-118.320657,50.978044],[-118.313365,50.979921],[-118.303997,50.979937],[-118.292723,50.985733],[-118.272749,50.991233],[-118.259483,50.991831],[-118.24597,50.993939],[-118.238979,50.999747],[-118.232263,51.002554],[-118.224155,51.003686],[-118.213727,51.010291],[-118.209306,51.010308],[-118.204256,51.00713],[-118.198139,51.00623],[-118.188005,51.000049],[-118.169456,50.999769],[-118.1535,50.992621],[-118.141901,50.992025],[-118.134728,50.994009],[-118.129594,50.997681],[-118.121992,51.000336],[-118.112689,51.00678],[-118.100994,51.009078],[-118.08186,51.016848],[-117.991505,51.040823],[-117.966985,51.04213],[-117.937035,51.052783],[-117.931336,51.068989],[-117.926476,51.073033],[-117.928566,51.077832],[-117.92779,51.080619],[-117.897436,51.11319],[-117.88739,51.119399],[-117.88649,51.125363],[-117.883276,51.128115],[-117.882338,51.134796],[-117.880249,51.137102],[-117.869777,51.139069],[-117.858479,51.138932],[-117.839479,51.144885],[-117.834797,51.151814],[-117.820064,51.15421],[-117.813203,51.158091],[-117.801485,51.1612],[-117.785309,51.168122],[-117.750522,51.187735],[-117.743728,51.202729],[-117.735184,51.205727],[-117.72621,51.206418],[-117.719139,51.20938],[-117.701136,51.212362],[-117.688495,51.216462],[-117.670007,51.229299],[-117.66251,51.237054],[-117.647805,51.240901],[-117.636147,51.245955],[-117.629253,51.245482],[-117.616064,51.248162],[-117.610207,51.250722],[-117.597721,51.251872],[-117.581122,51.258403],[-117.564247,51.261754],[-117.551857,51.262274],[-117.53955,51.259287],[-117.511761,51.268041],[-117.503784,51.269382],[-117.5035,51.271106],[-117.507718,51.273635],[-117.513171,51.282131],[-117.513214,51.286784],[-117.519842,51.299063],[-117.520022,51.305421],[-117.51473,51.312213],[-117.511314,51.314206],[-117.490057,51.319791],[-117.466099,51.32432],[-117.446473,51.329796],[-117.434362,51.345098],[-117.439232,51.361851],[-117.452847,51.378917],[-117.448299,51.38684],[-117.460225,51.396836],[-117.471131,51.409078],[-117.475289,51.426085],[-117.47921,51.432956],[-117.476969,51.440193],[-117.482433,51.474436],[-117.473878,51.488688],[-117.461576,51.501772],[-117.450237,51.505073],[-117.444991,51.510254],[-117.440293,51.512138],[-117.436161,51.512062],[-117.424714,51.508893],[-117.39687,51.49287],[-117.369006,51.481512],[-117.361635,51.479835],[-117.353139,51.480299],[-117.295606,51.493921],[-117.259906,51.486594],[-117.22781,51.475291],[-117.223183,51.474887],[-117.219084,51.476595],[-117.21797,51.479573],[-117.228244,51.490029],[-117.226035,51.494851],[-117.222467,51.496163],[-117.207297,51.492651],[-117.186657,51.484507],[-117.18087,51.484257],[-117.168946,51.486447],[-117.160828,51.484723],[-117.127982,51.468171],[-117.096183,51.449002],[-117.092856,51.445787],[-117.06109,51.427619],[-117.028695,51.393616],[-117.020737,51.377689],[-117.020566,51.373468],[-117.015763,51.36601],[-117.001261,51.34974],[-116.990291,51.332556],[-116.975494,51.322036],[-116.972357,51.312774],[-116.966334,51.307271],[-116.971172,51.304698],[-116.972928,51.305084],[-116.97153,51.306288],[-116.964074,51.299353],[-116.963051,51.296151],[-116.953542,51.296172],[-116.947076,51.297814],[-116.946844,51.29675],[-116.948618,51.297699],[-116.953542,51.296172],[-116.963051,51.296151],[-116.964074,51.299353],[-116.97153,51.306288],[-116.972072,51.304599],[-116.965277,51.306343],[-116.964045,51.301542],[-116.961306,51.300271],[-116.948277,51.301966],[-116.928809,51.298696],[-116.912592,51.29828],[-116.903163,51.301292],[-116.896592,51.302076],[-116.890498,51.304674],[-116.874877,51.305805],[-116.86398,51.298975],[-116.842476,51.290752],[-116.82528,51.287424],[-116.811683,51.279096],[-116.805895,51.278506],[-116.793473,51.281829],[-116.784024,51.280944],[-116.766874,51.274465],[-116.753056,51.271692],[-116.729207,51.260925],[-116.702641,51.258449],[-116.688109,51.254642],[-116.678028,51.25],[-116.665857,51.246378],[-116.641469,51.232275],[-116.619383,51.222571],[-116.609579,51.222919],[-116.596046,51.218653],[-116.5816,51.216958],[-116.574265,51.220424],[-116.573112,51.223445],[-116.58063,51.237012],[-116.579617,51.244202],[-116.586592,51.250978],[-116.590731,51.263166],[-116.597673,51.268659],[-116.598114,51.270765],[-116.582789,51.281942],[-116.582487,51.291415],[-116.579645,51.297792],[-116.580056,51.305753],[-116.574294,51.323626],[-116.570793,51.326012],[-116.558465,51.328596],[-116.55497,51.330499],[-116.532375,51.357232],[-116.520916,51.36804],[-116.513993,51.372405],[-116.511881,51.380031],[-116.503842,51.384326],[-116.493402,51.397699],[-116.480774,51.404407],[-116.445322,51.419363],[-116.428921,51.420924],[-116.413244,51.430582],[-116.393588,51.431915],[-116.384126,51.436465],[-116.360596,51.437034],[-116.353152,51.440676],[-116.339538,51.442874],[-116.330618,51.446853],[-116.309698,51.451699],[-116.28259,51.453544],[-116.271834,51.457804],[-116.267338,51.458186],[-116.258805,51.453968],[-116.248806,51.445043],[-116.237144,51.444423],[-116.225368,51.442155],[-116.203544,51.442205],[-116.197228,51.439514],[-116.191575,51.433647],[-116.17547,51.428253],[-116.169077,51.413024],[-116.155483,51.400483],[-116.137726,51.394578],[-116.108231,51.37164],[-116.100165,51.359767],[-116.08957,51.352851],[-116.074627,51.345898],[-116.056943,51.333555],[-116.051863,51.328101],[-116.028654,51.313199],[-116.023178,51.307767],[-115.99695,51.288718],[-115.990664,51.286111],[-115.977121,51.283009],[-115.94666,51.26823],[-115.893153,51.254503],[-115.882935,51.247399],[-115.858534,51.240681],[-115.843289,51.23267],[-115.827085,51.226361],[-115.797049,51.218759],[-115.751279,51.186733],[-115.729723,51.167967],[-115.719692,51.16224],[-115.70163,51.158357],[-115.68395,51.156924],[-115.647441,51.174111],[-115.636988,51.176966],[-115.611206,51.179877],[-115.584495,51.187297],[-115.57821,51.18028],[-115.574269,51.17846],[-115.566097,51.178258],[-115.560736,51.182201],[-115.546724,51.184981],[-115.539744,51.187898],[-115.540383,51.18898],[-115.546293,51.187668],[-115.54961,51.184671],[-115.553643,51.183245],[-115.560736,51.182201],[-115.566097,51.178258],[-115.570804,51.178419],[-115.570959,51.176611],[-115.569306,51.176552],[-115.565868,51.182123],[-115.554674,51.18602],[-115.540076,51.195643],[-115.537517,51.199303],[-115.536915,51.207095],[-115.53484,51.208784],[-115.53032,51.208714],[-115.518342,51.202476],[-115.499002,51.198352],[-115.484284,51.182361],[-115.472472,51.175504],[-115.466985,51.170024],[-115.454695,51.167345],[-115.444156,51.163234],[-115.431209,51.151007],[-115.411221,51.137878],[-115.405139,51.13213],[-115.387492,51.124895],[-115.34167,51.087678],[-115.317439,51.057048],[-115.283624,51.042099],[-115.271773,51.038686],[-115.238373,51.040466],[-115.215586,51.050588],[-115.19872,51.054845],[-115.193034,51.053901],[-115.188548,51.04994],[-115.182665,51.047465],[-115.162083,51.049684],[-115.143168,51.05479],[-115.135882,51.061398],[-115.118315,51.069641],[-115.092429,51.066427],[-115.08603,51.066806],[-115.057726,51.077631],[-115.053569,51.088277],[-115.049724,51.091961],[-114.959718,51.127628],[-114.887,51.140547],[-114.863514,51.145795],[-114.817016,51.150003],[-114.781205,51.160532],[-114.761911,51.161919],[-114.755024,51.159993],[-114.734605,51.147166],[-114.648831,51.112897],[-114.575309,51.090889],[-114.56676,51.090569],[-114.550214,51.093042],[-114.532186,51.087513],[-114.457869,51.086399],[-114.437955,51.08843],[-114.255023,51.08848],[-114.235698,51.087547],[-114.229847,51.083453],[-114.225658,51.072734],[-114.227784,51.048615],[-114.233085,51.038545],[-114.232786,51.02702],[-114.227101,51.022806],[-114.215898,51.020717],[-114.18441,51.009958],[-114.171485,51.007766],[-114.166763,51.005034],[-114.165716,51.001461],[-114.168054,50.99332],[-114.166538,50.986998],[-114.146422,50.962913],[-114.141615,50.953421],[-114.14126,50.926371],[-114.131928,50.918131],[-114.130402,50.904664],[-114.128351,50.900365],[-114.12328,50.896235],[-114.116321,50.89384],[-114.073314,50.892422],[-114.020563,50.892631],[-113.933867,50.906598],[-113.915531,50.905796],[-113.891358,50.907116],[-113.772623,50.907271],[-113.746326,50.909562],[-113.724673,50.907268],[-113.647232,50.907259],[-113.625615,50.902931],[-113.587787,50.907288],[-113.475353,50.90687],[-113.462811,50.905678],[-113.443071,50.901657],[-113.400822,50.899186],[-113.382048,50.894165],[-113.373226,50.892985],[-113.198262,50.891855],[-113.171364,50.881138],[-113.163878,50.873917],[-113.151004,50.868061],[-113.132682,50.85633],[-113.10756,50.850422],[-113.08625,50.847172],[-113.065924,50.849271],[-113.028725,50.849879],[-113.02235,50.851932],[-113.006834,50.860404],[-113.005414,50.863491],[-112.859087,50.863425],[-112.851097,50.861048],[-112.8164,50.836704],[-112.808824,50.834129],[-112.481115,50.833786],[-112.472033,50.832167],[-112.45275,50.818667],[-112.451,50.797698],[-112.443241,50.78645],[-112.434547,50.782898],[-112.417374,50.782427],[-112.411046,50.780597],[-112.407668,50.777562],[-112.401415,50.765006],[-112.348733,50.733183],[-112.344299,50.732253],[-112.3048,50.73145],[-112.188944,50.687799],[-112.08775,50.655517],[-111.979033,50.634279],[-111.785036,50.530539],[-111.705486,50.505055],[-111.617119,50.474839],[-111.182636,50.222905],[-111.071917,50.189667],[-110.985733,50.166983],[-110.956623,50.157959],[-110.778042,50.080938],[-110.746517,50.066533],[-110.742061,50.056693],[-110.720907,50.045269],[-110.707422,50.032931],[-110.711869,50.032473],[-110.712108,50.0339],[-110.717004,50.036758],[-110.722805,50.036674],[-110.721988,50.038107],[-110.722805,50.036674],[-110.717004,50.036758],[-110.712108,50.0339],[-110.711869,50.032473],[-110.707422,50.032931],[-110.687311,50.014366],[-110.665713,50.004935],[-110.654256,50.002741],[-110.639397,49.997854],[-110.609979,49.976871],[-110.601343,49.969133],[-110.595102,49.967108],[-110.55998,49.974567],[-110.518221,49.974709],[-110.445873,49.982519],[-110.421986,49.982707],[-110.386177,49.974756],[-110.339627,49.95558],[-110.296289,49.95734],[-110.22922,49.949997],[-110.162824,49.937317],[-110.122277,49.940456],[-110.055479,49.939075],[-110.014294,49.95095],[-109.99569,49.959172],[-109.98995,49.960359],[-109.941279,49.960391],[-109.895901,49.958971],[-109.858554,49.964369],[-109.822206,49.960934],[-109.71333,49.96101],[-109.664965,49.975095],[-109.54169,49.974992],[-109.496151,49.982293],[-109.345213,49.982008],[-109.211047,50.003816],[-109.125337,50.004307],[-109.076185,50.015889],[-109.046659,50.027215],[-109.026929,50.030585],[-108.967588,50.047061],[-108.916421,50.048092],[-108.88269,50.057213],[-108.866299,50.066545],[-108.858722,50.069156],[-108.816203,50.067131],[-108.787353,50.069906],[-108.583227,50.070223],[-108.558615,50.078018],[-108.543723,50.084765],[-108.503812,50.095131],[-108.482452,50.102007],[-108.461756,50.117488],[-108.427252,50.133982],[-108.410016,50.138505],[-108.345579,50.144103],[-108.283137,50.15722],[-108.255714,50.168959],[-108.20943,50.194722],[-108.162802,50.212549],[-108.00599,50.259996],[-107.955778,50.285012],[-107.938874,50.289906],[-107.930783,50.291159],[-107.900586,50.29167],[-107.873036,50.286458],[-107.817809,50.28729],[-107.805098,50.29491],[-107.725667,50.322905],[-107.712618,50.325115],[-107.683792,50.338866],[-107.645097,50.349902],[-107.615616,50.354537],[-107.59354,50.356373],[-107.581212,50.360421],[-107.501482,50.376738],[-107.47548,50.385867],[-107.469006,50.387041],[-107.436466,50.389832],[-107.29787,50.390147],[-107.243701,50.417493],[-107.219254,50.421371],[-107.203639,50.425436],[-107.142592,50.426283],[-107.116585,50.42452],[-107.104805,50.422715],[-107.072232,50.411394],[-107.039942,50.408998],[-107.020863,50.411941],[-106.959,50.412023],[-106.950932,50.414403],[-106.911042,50.437041],[-106.904026,50.439829],[-106.848043,50.440635],[-106.787957,50.457824],[-106.727932,50.462777],[-106.720713,50.462509],[-106.673656,50.45378],[-106.651426,50.456908],[-106.626296,50.46317],[-106.579242,50.466292],[-106.557499,50.466507],[-106.513947,50.465596],[-106.491497,50.462515],[-106.332071,50.463424],[-106.274221,50.455597],[-106.248301,50.455747],[-106.229268,50.457127],[-106.215385,50.455788],[-106.174252,50.455848],[-106.13865,50.462934],[-106.021258,50.463047],[-105.890915,50.483353],[-105.861175,50.476424],[-105.820307,50.454771],[-105.73042,50.426283],[-105.545209,50.425477],[-105.513654,50.418313],[-105.491801,50.398037],[-105.464902,50.392712],[-105.439141,50.39659],[-105.189726,50.396597],[-105.170011,50.391186],[-105.152244,50.392977],[-105.135666,50.396602],[-104.605161,50.396674],[-104.598742,50.398786],[-104.57978,50.41724],[-104.562203,50.438581],[-104.562915,50.44491],[-104.561016,50.44687],[-104.343741,50.447738],[-104.338903,50.449159],[-104.265491,50.485847],[-104.244077,50.493776],[-104.136811,50.508371],[-104.111579,50.512911],[-104.06381,50.514077],[-104.040615,50.519414],[-103.956656,50.523027],[-103.933031,50.526997],[-103.711434,50.527454],[-103.691455,50.524431],[-103.641375,50.52531],[-103.568619,50.517234],[-103.502933,50.492814],[-103.293361,50.428058],[-103.289082,50.425625],[-103.279211,50.414575],[-103.27222,50.411795],[-102.960332,50.411696],[-102.954054,50.41082],[-102.931357,50.403729],[-102.860708,50.403656],[-102.684962,50.381485],[-102.633123,50.3802],[-102.617758,50.377929],[-102.611325,50.378959],[-102.596561,50.384179],[-102.590682,50.384794],[-102.566076,50.379033],[-102.474521,50.371764],[-102.448117,50.36825],[-102.417111,50.367648],[-102.396014,50.361235],[-102.3407,50.353712],[-102.287915,50.338306],[-102.250528,50.335849],[-102.234772,50.32687],[-102.228884,50.324829],[-102.172948,50.314014],[-102.127784,50.311099],[-102.108528,50.303865],[-102.091405,50.301219],[-102.065395,50.293273],[-102.053654,50.287839],[-102.034563,50.283206],[-102.012848,50.274403],[-101.999287,50.270461],[-101.971392,50.268313],[-101.946595,50.257478],[-101.924485,50.253032],[-101.820673,50.218472],[-101.805438,50.212005],[-101.773659,50.205633],[-101.726967,50.179491],[-101.684717,50.158338],[-101.666414,50.15288],[-101.654205,50.146927],[-101.630432,50.125681],[-101.586377,50.110969],[-101.515407,50.077505],[-101.457587,50.061457],[-101.429175,50.051972],[-101.382113,50.032897],[-101.35961,50.029939],[-101.345539,50.018584],[-101.324333,50.011932],[-101.305007,50.007703],[-101.284283,49.998944],[-101.26075,49.986639],[-101.243265,49.984567],[-101.237251,49.982629],[-101.213274,49.960502],[-101.189074,49.947126],[-101.183477,49.945739],[-101.168006,49.945453],[-101.126554,49.937955],[-101.079346,49.918779],[-101.021398,49.897621],[-100.965977,49.871505],[-100.921628,49.857084],[-100.834597,49.800357],[-100.790781,49.7922],[-100.769855,49.782888],[-100.706173,49.768834],[-100.653647,49.768856],[-100.637385,49.77377],[-100.630918,49.774434],[-100.604533,49.768878],[-100.515462,49.768725],[-100.485924,49.772293],[-100.472174,49.781708],[-100.467099,49.783247],[-100.433392,49.783398],[-100.427861,49.784284],[-100.374717,49.812991],[-100.333827,49.829344],[-100.310818,49.829985],[-100.293712,49.835619],[-100.27845,49.836427],[-100.26323,49.841523],[-100.209344,49.841333],[-100.147991,49.842892],[-100.069207,49.884217],[-100.061874,49.886302],[-99.978435,49.886479],[-99.940249,49.887137],[-99.939604,49.888325],[-99.939123,49.886792],[-99.762716,49.886435],[-99.755508,49.887516],[-99.711589,49.89999],[-99.703735,49.900902],[-99.348389,49.901479],[-99.273471,49.901114],[-99.246727,49.899636],[-99.226266,49.901161],[-99.064069,49.90149],[-99.024461,49.91819],[-98.99377,49.944203],[-98.989336,49.946181],[-98.96461,49.948911],[-98.922832,49.959765],[-98.839599,49.959958],[-98.817983,49.961653],[-98.776779,49.973475],[-98.76742,49.97509],[-98.36862,49.97479],[-98.360425,49.971914],[-98.355036,49.964379],[-98.351252,49.961908],[-98.297923,49.945946],[-98.292767,49.946823],[-98.263647,49.957989],[-98.241238,49.960987],[-98.237689,49.96324],[-98.231016,49.971374],[-98.21897,49.974449],[-98.115456,49.972335],[-97.651781,49.886852],[-97.525493,49.886583],[-97.501563,49.887632],[-97.476118,49.882067],[-97.403554,49.875911],[-97.405254,49.866785],[-97.396453,49.863032],[-97.372475,49.862439],[-97.360638,49.860008],[-97.328289,49.863163],[-97.324251,49.861073],[-97.322864,49.855178],[-97.329481,49.789506],[-97.31724,49.773591],[-97.3098,49.770243],[-97.287054,49.76782],[-97.181817,49.768659],[-97.028822,49.821745],[-96.977457,49.822558],[-96.97326,49.824284],[-96.965805,49.831394],[-96.960388,49.832595],[-96.951725,49.829002],[-96.943383,49.823149],[-96.752813,49.743419],[-96.550397,49.663092],[-96.321754,49.662771],[-96.26221,49.655818],[-96.137276,49.655858],[-96.10737,49.662644],[-96.086725,49.662909],[-96.049584,49.656902],[-95.972674,49.648407],[-95.865087,49.64961],[-95.800766,49.648609],[-95.770612,49.646541],[-95.739299,49.646539],[-95.723807,49.648227],[-95.716357,49.646306],[-95.698065,49.634211],[-95.69004,49.627327],[-95.680605,49.622976],[-95.668732,49.6211],[-95.610073,49.630904],[-95.596699,49.634129],[-95.574805,49.634204],[-95.557043,49.632868],[-95.532736,49.634386],[-95.514266,49.632657],[-95.498069,49.635156],[-95.465068,49.635915],[-95.450544,49.64348],[-95.399836,49.659106],[-95.385742,49.669364],[-95.360032,49.682951],[-95.283213,49.703867],[-95.269052,49.70637],[-95.26539,49.708828],[-95.251166,49.728366],[-95.224878,49.736619],[-95.166986,49.737808],[-95.14664,49.739799],[-95.123821,49.740126],[-95.110222,49.742859],[-95.103572,49.743089],[-95.087304,49.739783],[-95.064515,49.732535],[-95.046602,49.72993],[-95.034278,49.729258],[-95.011458,49.73091],[-94.986124,49.727169],[-94.964878,49.72804],[-94.930577,49.721591],[-94.898384,49.720566],[-94.887818,49.72246],[-94.875653,49.717547],[-94.8491,49.711344],[-94.839375,49.711808],[-94.832379,49.71588],[-94.825507,49.717128],[-94.803388,49.713679],[-94.781782,49.716532],[-94.769613,49.715317],[-94.751249,49.71618],[-94.730239,49.71893],[-94.718123,49.717867],[-94.655167,49.739465],[-94.645765,49.746197],[-94.641594,49.744849],[-94.632553,49.746889],[-94.609054,49.747837],[-94.590239,49.751802],[-94.577843,49.756013],[-94.538037,49.758811],[-94.53045,49.76082],[-94.520476,49.765995],[-94.514456,49.767702],[-94.505886,49.765611],[-94.495798,49.770901],[-94.491006,49.770014],[-94.491631,49.766705],[-94.489369,49.765978],[-94.490396,49.764608],[-94.488479,49.760944],[-94.487539,49.760093],[-94.481692,49.760114],[-94.481471,49.754364],[-94.479368,49.753455],[-94.471801,49.757575],[-94.470964,49.759876],[-94.458824,49.760152],[-94.455579,49.758889],[-94.448961,49.751614],[-94.436268,49.747229],[-94.430415,49.747392],[-94.423066,49.750055],[-94.414108,49.751343],[-94.386402,49.747108],[-94.374461,49.746513],[-94.366991,49.743957],[-94.354676,49.744372],[-94.343201,49.739486],[-94.342084,49.736747],[-94.343492,49.731414],[-94.342022,49.728949],[-94.33014,49.725767],[-94.308285,49.728813],[-94.303573,49.732626],[-94.300948,49.733087],[-94.282846,49.732327],[-94.248379,49.726515],[-94.22981,49.732974],[-94.221662,49.749467],[-94.217417,49.752363],[-94.203642,49.754468],[-94.194013,49.754144],[-94.184166,49.756818],[-94.172507,49.762711],[-94.162522,49.760959],[-94.154503,49.762982],[-94.150196,49.762863],[-94.147024,49.761428],[-94.142932,49.756899],[-94.137213,49.75575],[-94.127353,49.759822],[-94.122735,49.766083],[-94.119713,49.767524],[-94.110879,49.767447],[-94.104276,49.770209],[-94.092088,49.770441],[-94.086413,49.772518],[-94.080021,49.778622],[-94.066321,49.784155],[-94.059241,49.789464],[-94.043625,49.793977],[-94.031293,49.804728],[-94.012744,49.808427],[-93.985671,49.826127],[-93.962365,49.828077],[-93.945576,49.835573],[-93.937312,49.836108],[-93.927817,49.838442],[-93.921182,49.843317],[-93.917044,49.844658],[-93.903264,49.84405],[-93.887087,49.841711],[-93.875608,49.845279],[-93.863839,49.845178],[-93.853405,49.849024],[-93.849018,49.849506],[-93.844286,49.847769],[-93.839523,49.841795],[-93.834206,49.839936],[-93.823814,49.841377],[-93.811226,49.838831],[-93.78247,49.838814],[-93.752737,49.833915],[-93.720698,49.835822],[-93.707869,49.833559],[-93.669745,49.838261],[-93.663796,49.837363],[-93.642902,49.830582],[-93.631107,49.828636],[-93.595808,49.828949],[-93.579673,49.834212],[-93.568852,49.835146],[-93.561704,49.833648],[-93.55103,49.827398],[-93.541621,49.825007],[-93.527244,49.815443],[-93.521631,49.814334],[-93.507459,49.818127],[-93.501268,49.824387],[-93.484576,49.827785],[-93.47296,49.834201],[-93.460059,49.838984],[-93.440634,49.840877],[-93.42726,49.852503],[-93.419239,49.856354],[-93.403061,49.859947],[-93.392202,49.860811],[-93.368338,49.854935],[-93.339909,49.84395],[-93.32355,49.839356],[-93.293107,49.825523],[-93.245746,49.811367],[-93.202914,49.814994],[-92.8524,49.815088],[-92.84938,49.814292],[-92.847416,49.812042],[-92.847225,49.78832],[-92.844917,49.786796],[-92.703367,49.784896],[-92.700145,49.783092],[-92.6867,49.767877],[-92.673118,49.761747],[-92.656307,49.759127],[-92.647838,49.753496],[-92.619489,49.739434],[-92.610926,49.73173],[-92.60258,49.720288],[-92.596262,49.717356],[-92.584864,49.706939],[-92.568928,49.69838],[-92.55129,49.693945],[-92.532191,49.692657],[-92.522914,49.690301],[-92.51163,49.689808],[-92.501796,49.691231],[-92.495252,49.688561],[-92.492745,49.685195],[-92.492236,49.670471],[-92.482553,49.662238],[-92.474642,49.652155],[-92.467817,49.647927],[-92.455711,49.64759],[-92.445266,49.643994],[-92.441958,49.641579],[-92.439824,49.629908],[-92.44445,49.617306],[-92.442733,49.611871],[-92.429607,49.606384],[-92.410483,49.59422],[-92.398399,49.593036],[-92.342951,49.583024],[-92.334083,49.583925],[-92.307229,49.582985],[-92.287981,49.587954],[-92.270332,49.58806],[-92.264076,49.584387],[-92.259517,49.574283],[-92.245444,49.566997],[-92.227972,49.564922],[-92.219364,49.559251],[-92.204355,49.555485],[-92.187818,49.548976],[-92.182423,49.545407],[-92.162114,49.539585],[-92.152487,49.53422],[-92.14715,49.533813],[-92.129041,49.53619],[-92.123087,49.535521],[-92.091501,49.522988],[-92.081258,49.521701],[-92.054532,49.505497],[-92.028313,49.498382],[-92.005257,49.488628],[-91.983846,49.485361],[-91.975132,49.485935],[-91.961054,49.484894],[-91.935621,49.471982],[-91.909595,49.465637],[-91.898189,49.463692],[-91.889765,49.4636],[-91.874057,49.459881],[-91.860447,49.458964],[-91.837267,49.454908],[-91.825525,49.457329],[-91.807057,49.45779],[-91.779811,49.453539],[-91.764119,49.453872],[-91.756719,49.451039],[-91.743787,49.435508],[-91.738314,49.433176],[-91.733064,49.433509],[-91.72128,49.437324],[-91.689758,49.433722],[-91.684555,49.430514],[-91.675997,49.418379],[-91.657317,49.416387],[-91.657405,49.41004],[-91.654277,49.410084],[-91.653565,49.408688],[-91.652378,49.410073],[-91.646994,49.410043],[-91.645096,49.411435],[-91.63624,49.405961],[-91.616718,49.400962],[-91.604051,49.393346],[-91.599423,49.388673],[-91.573027,49.372857],[-91.560169,49.369529],[-91.520023,49.351194],[-91.494777,49.345403],[-91.48147,49.34405],[-91.472435,49.339024],[-91.444639,49.331062],[-91.404726,49.324283],[-91.396951,49.319464],[-91.359669,49.307702],[-91.327613,49.304307],[-91.308224,49.295673],[-91.295662,49.286876],[-91.275833,49.279524],[-91.267086,49.270046],[-91.254216,49.266313],[-91.221617,49.262628],[-91.210984,49.259847],[-91.18828,49.257973],[-91.149907,49.263912],[-91.123654,49.255368],[-91.107013,49.251654],[-91.08451,49.241418],[-91.077114,49.241779],[-91.062711,49.249397],[-91.035119,49.246142],[-90.968881,49.233152],[-90.965934,49.230977],[-90.963941,49.225328],[-90.956906,49.222247],[-90.915059,49.227758],[-90.901691,49.227075],[-90.89273,49.222444],[-90.88814,49.218524],[-90.870154,49.193205],[-90.861317,49.187169],[-90.852095,49.18379],[-90.842712,49.177252],[-90.842454,49.162189],[-90.84047,49.15901],[-90.817047,49.150667],[-90.745202,49.133452],[-90.729175,49.127195],[-90.711389,49.11432],[-90.706506,49.097542],[-90.70016,49.090525],[-90.688712,49.081355],[-90.67985,49.063442],[-90.663395,49.056214],[-90.649862,49.048162],[-90.619137,49.046071],[-90.606105,49.048762],[-90.581832,49.051603],[-90.572946,49.050799],[-90.4736,49.050728],[-90.469667,49.048217],[-90.469171,49.043522],[-90.463194,49.032895],[-90.436465,49.016904],[-90.411978,49.005346],[-90.383746,48.989217],[-90.365746,48.983654],[-90.318345,48.965574],[-90.301476,48.960697],[-90.205183,48.948317],[-90.132186,48.93595],[-90.026164,48.902219],[-89.981936,48.875522],[-89.942285,48.843314],[-89.934696,48.832383],[-89.923845,48.824147],[-89.918073,48.815772],[-89.898272,48.80325],[-89.876974,48.768802],[-89.881191,48.740764],[-89.892447,48.694308],[-89.893137,48.641027],[-89.897995,48.621763],[-89.896614,48.598468],[-89.89452,48.595445],[-89.879707,48.590924],[-89.850799,48.586836],[-89.841409,48.586657],[-89.835437,48.584222],[-89.817326,48.581442],[-89.804942,48.575114],[-89.7881,48.573018],[-89.763012,48.564949],[-89.742091,48.556079],[-89.731183,48.555518],[-89.723031,48.55212],[-89.701295,48.54824],[-89.69251,48.542716],[-89.685727,48.542814],[-89.678425,48.54552],[-89.673285,48.545623],[-89.662183,48.540522],[-89.652602,48.538251],[-89.649638,48.534127],[-89.641889,48.534592],[-89.630238,48.53198],[-89.614991,48.532102],[-89.599972,48.537238],[-89.582911,48.532647],[-89.559356,48.535945],[-89.535883,48.526018],[-89.518866,48.524759],[-89.507474,48.519362],[-89.500523,48.513809],[-89.481387,48.513782],[-89.465723,48.508577],[-89.449219,48.50524],[-89.432659,48.497035],[-89.407171,48.496537],[-89.395755,48.493572],[-89.389175,48.490101],[-89.379558,48.491398],[-89.336725,48.488056],[-89.319517,48.479641],[-89.314712,48.475455],[-89.301753,48.471972],[-89.287336,48.465494],[-89.269923,48.460017],[-89.262995,48.455115],[-89.251492,48.449956],[-89.263822,48.443449],[-89.281652,48.428074],[-89.287237,48.4067],[-89.30045,48.392389],[-89.300919,48.376367],[-89.306297,48.372605],[-89.306042,48.365088],[-89.289668,48.365108],[-89.289467,48.360087],[-89.285176,48.354954],[-89.2792,48.356507],[-89.263413,48.357019],[-89.229735,48.348831],[-89.225819,48.339505],[-89.2131,48.332696],[-89.211694,48.333145],[-89.2131,48.332696],[-89.225819,48.339505],[-89.229735,48.348831],[-89.263413,48.357019],[-89.2792,48.356507],[-89.284982,48.355006],[-89.289422,48.361117],[-89.289668,48.365108],[-89.306042,48.365088],[-89.306034,48.372382],[-89.30244,48.374152],[-89.300719,48.376711],[-89.300341,48.392344],[-89.287149,48.406419],[-89.281803,48.427604],[-89.262397,48.44418],[-89.238467,48.456585],[-89.220437,48.463932],[-89.190513,48.481873],[-89.183999,48.483427],[-89.164917,48.484458],[-89.120536,48.50471],[-89.113671,48.505371],[-89.092374,48.501442],[-89.077944,48.503134],[-89.052191,48.504109],[-89.020351,48.517142],[-88.978471,48.526003],[-88.919365,48.544962],[-88.897401,48.554211],[-88.856084,48.56638],[-88.834704,48.569404],[-88.800712,48.583126],[-88.763898,48.620484],[-88.736115,48.64199],[-88.728159,48.645137],[-88.682378,48.652822],[-88.661015,48.659945],[-88.653728,48.663525],[-88.648285,48.668052],[-88.634629,48.684569],[-88.627515,48.706189],[-88.620931,48.716647],[-88.614561,48.720263],[-88.599654,48.723089],[-88.588031,48.732167],[-88.581061,48.739805],[-88.571607,48.761796],[-88.540802,48.794605],[-88.539322,48.811212],[-88.521782,48.83989],[-88.521153,48.849572],[-88.518777,48.852992],[-88.476279,48.879423],[-88.455348,48.880409],[-88.42933,48.884445],[-88.420612,48.890149],[-88.409321,48.895181],[-88.375084,48.905472],[-88.36808,48.915334],[-88.366715,48.941819],[-88.362753,48.945586],[-88.347601,48.952357],[-88.339317,48.959105],[-88.336138,48.966086],[-88.334217,48.989012],[-88.327497,48.998015],[-88.323168,49.008087],[-88.302817,49.021064],[-88.297224,49.022362],[-88.281475,49.019978],[-88.268082,49.012752],[-88.264218,49.01301],[-88.262699,49.014592],[-88.263207,49.012509],[-88.258487,49.010797],[-88.255966,49.007386]]}},{"type":"Feature","properties":{"kind":"return","name":"Return · Brandon blast → Hope → ferry","mode":"driving","distanceMeters":3154960,"durationSeconds":145854,"waypoints":["nipigon","dryden","brandon","medicine_hat","calgary","canmore_return","revelstoke","kamloops_return","hope","horseshoe_bay"]},"geometry":{"type":"LineString","coordinates":[[-88.255966,49.007386],[-88.258487,49.010797],[-88.263207,49.012509],[-88.262925,49.014742],[-88.264218,49.01301],[-88.268082,49.012752],[-88.281475,49.019978],[-88.297224,49.022362],[-88.302399,49.021285],[-88.320819,49.01061],[-88.323727,49.00795],[-88.328533,48.997186],[-88.334751,48.988888],[-88.33656,48.966949],[-88.339074,48.960299],[-88.348339,48.95231],[-88.363116,48.945832],[-88.367108,48.942075],[-88.36808,48.915334],[-88.375084,48.905472],[-88.409468,48.895536],[-88.420934,48.890276],[-88.429246,48.884706],[-88.45468,48.880703],[-88.476396,48.87964],[-88.518777,48.852992],[-88.521153,48.849572],[-88.521782,48.83989],[-88.539322,48.811212],[-88.54102,48.794301],[-88.571861,48.762272],[-88.581731,48.739693],[-88.593085,48.727795],[-88.600364,48.722764],[-88.614561,48.720263],[-88.620931,48.716647],[-88.627515,48.706189],[-88.634629,48.684569],[-88.649336,48.66764],[-88.656759,48.662268],[-88.683294,48.652981],[-88.7282,48.645535],[-88.737384,48.641741],[-88.764792,48.620297],[-88.801204,48.583322],[-88.834246,48.569943],[-88.856586,48.566628],[-88.897102,48.554656],[-88.918519,48.545622],[-88.976613,48.526928],[-89.021008,48.517295],[-89.05115,48.505123],[-89.092094,48.501775],[-89.113441,48.505729],[-89.120506,48.505145],[-89.165097,48.484767],[-89.184097,48.483615],[-89.190586,48.482085],[-89.221534,48.463521],[-89.237699,48.457046],[-89.250904,48.450163],[-89.262995,48.455115],[-89.269923,48.460017],[-89.287336,48.465494],[-89.301753,48.471972],[-89.314712,48.475455],[-89.319517,48.479641],[-89.337988,48.488435],[-89.349953,48.488426],[-89.379558,48.491398],[-89.389175,48.490101],[-89.395755,48.493572],[-89.407171,48.496537],[-89.432659,48.497035],[-89.449219,48.50524],[-89.465723,48.508577],[-89.481387,48.513782],[-89.500523,48.513809],[-89.507474,48.519362],[-89.518866,48.524759],[-89.535883,48.526018],[-89.559356,48.535945],[-89.582911,48.532647],[-89.599972,48.537238],[-89.614991,48.532102],[-89.630238,48.53198],[-89.641889,48.534592],[-89.649194,48.53426],[-89.652602,48.538251],[-89.662183,48.540522],[-89.672619,48.545452],[-89.676837,48.545805],[-89.685358,48.542876],[-89.69251,48.542716],[-89.701295,48.54824],[-89.723031,48.55212],[-89.731183,48.555518],[-89.742091,48.556079],[-89.763012,48.564949],[-89.7881,48.573018],[-89.804942,48.575114],[-89.818149,48.581656],[-89.835437,48.584222],[-89.841409,48.586657],[-89.850799,48.586836],[-89.879707,48.590924],[-89.893824,48.595042],[-89.896614,48.598468],[-89.897995,48.621763],[-89.893137,48.641027],[-89.892447,48.694308],[-89.881191,48.740764],[-89.876974,48.768802],[-89.898916,48.803912],[-89.917105,48.814907],[-89.923845,48.824147],[-89.934696,48.832383],[-89.942285,48.843314],[-89.981936,48.875522],[-90.027534,48.902786],[-90.123134,48.933759],[-90.205183,48.948317],[-90.301476,48.960697],[-90.318345,48.965574],[-90.365746,48.983654],[-90.383746,48.989217],[-90.411978,49.005346],[-90.436465,49.016904],[-90.463194,49.032895],[-90.469171,49.043522],[-90.469667,49.048217],[-90.4736,49.050728],[-90.572946,49.050799],[-90.581832,49.051603],[-90.606105,49.048762],[-90.619137,49.046071],[-90.649862,49.048162],[-90.663395,49.056214],[-90.67985,49.063442],[-90.688712,49.081355],[-90.70016,49.090525],[-90.706506,49.097542],[-90.711389,49.11432],[-90.729175,49.127195],[-90.745202,49.133452],[-90.817047,49.150667],[-90.84047,49.15901],[-90.842454,49.162189],[-90.842712,49.177252],[-90.852095,49.18379],[-90.861317,49.187169],[-90.871369,49.194239],[-90.88814,49.218524],[-90.900556,49.226699],[-90.915059,49.227758],[-90.956906,49.222247],[-90.963941,49.225328],[-90.965934,49.230977],[-90.968881,49.233152],[-91.035119,49.246142],[-91.062711,49.249397],[-91.077114,49.241779],[-91.08451,49.241418],[-91.107013,49.251654],[-91.123654,49.255368],[-91.149907,49.263912],[-91.18828,49.257973],[-91.210984,49.259847],[-91.221617,49.262628],[-91.254216,49.266313],[-91.267086,49.270046],[-91.275833,49.279524],[-91.295662,49.286876],[-91.308224,49.295673],[-91.327613,49.304307],[-91.359669,49.307702],[-91.396951,49.319464],[-91.404726,49.324283],[-91.444639,49.331062],[-91.472435,49.339024],[-91.48147,49.34405],[-91.494777,49.345403],[-91.520023,49.351194],[-91.560169,49.369529],[-91.573027,49.372857],[-91.599423,49.388673],[-91.604051,49.393346],[-91.616718,49.400962],[-91.636762,49.406155],[-91.652455,49.415788],[-91.675997,49.418379],[-91.684555,49.430514],[-91.689758,49.433722],[-91.72128,49.437324],[-91.733064,49.433509],[-91.738314,49.433176],[-91.743787,49.435508],[-91.756719,49.451039],[-91.764119,49.453872],[-91.779811,49.453539],[-91.807057,49.45779],[-91.825525,49.457329],[-91.837267,49.454908],[-91.860447,49.458964],[-91.874057,49.459881],[-91.889765,49.4636],[-91.898189,49.463692],[-91.909595,49.465637],[-91.935621,49.471982],[-91.961054,49.484894],[-91.975132,49.485935],[-91.983846,49.485361],[-92.005257,49.488628],[-92.028313,49.498382],[-92.054532,49.505497],[-92.081258,49.521701],[-92.091501,49.522988],[-92.123087,49.535521],[-92.129041,49.53619],[-92.14715,49.533813],[-92.152487,49.53422],[-92.162114,49.539585],[-92.182423,49.545407],[-92.187818,49.548976],[-92.204355,49.555485],[-92.219364,49.559251],[-92.227972,49.564922],[-92.245444,49.566997],[-92.259517,49.574283],[-92.264076,49.584387],[-92.270332,49.58806],[-92.287981,49.587954],[-92.307229,49.582985],[-92.334083,49.583925],[-92.342951,49.583024],[-92.398399,49.593036],[-92.410483,49.59422],[-92.429607,49.606384],[-92.442733,49.611871],[-92.44445,49.617306],[-92.439824,49.629908],[-92.441958,49.641579],[-92.445266,49.643994],[-92.455711,49.64759],[-92.467817,49.647927],[-92.474642,49.652155],[-92.482553,49.662238],[-92.492236,49.670471],[-92.492745,49.685195],[-92.495252,49.688561],[-92.501796,49.691231],[-92.51163,49.689808],[-92.522914,49.690301],[-92.532191,49.692657],[-92.55129,49.693945],[-92.568928,49.69838],[-92.584864,49.706939],[-92.596262,49.717356],[-92.60258,49.720288],[-92.610926,49.73173],[-92.619489,49.739434],[-92.647838,49.753496],[-92.656307,49.759127],[-92.673118,49.761747],[-92.6867,49.767877],[-92.700145,49.783092],[-92.703367,49.784896],[-92.844917,49.786796],[-92.847225,49.78832],[-92.847416,49.812042],[-92.84938,49.814292],[-92.8524,49.815088],[-92.865134,49.815109],[-92.864347,49.81328],[-92.865134,49.815109],[-93.202914,49.814994],[-93.232974,49.811742],[-93.247546,49.811767],[-93.293107,49.825523],[-93.32355,49.839356],[-93.339909,49.84395],[-93.368338,49.854935],[-93.392202,49.860811],[-93.403061,49.859947],[-93.419239,49.856354],[-93.42726,49.852503],[-93.440634,49.840877],[-93.460059,49.838984],[-93.47296,49.834201],[-93.484576,49.827785],[-93.501268,49.824387],[-93.507459,49.818127],[-93.521631,49.814334],[-93.527244,49.815443],[-93.541621,49.825007],[-93.55103,49.827398],[-93.561704,49.833648],[-93.568852,49.835146],[-93.579673,49.834212],[-93.595808,49.828949],[-93.631107,49.828636],[-93.642902,49.830582],[-93.663796,49.837363],[-93.669745,49.838261],[-93.707869,49.833559],[-93.720698,49.835822],[-93.752737,49.833915],[-93.78247,49.838814],[-93.811226,49.838831],[-93.823814,49.841377],[-93.834206,49.839936],[-93.839523,49.841795],[-93.844286,49.847769],[-93.849018,49.849506],[-93.853405,49.849024],[-93.863839,49.845178],[-93.875608,49.845279],[-93.887087,49.841711],[-93.916418,49.844728],[-93.921182,49.843317],[-93.927817,49.838442],[-93.937312,49.836108],[-93.945576,49.835573],[-93.962365,49.828077],[-93.985671,49.826127],[-94.012744,49.808427],[-94.031293,49.804728],[-94.043625,49.793977],[-94.059241,49.789464],[-94.066321,49.784155],[-94.080021,49.778622],[-94.086413,49.772518],[-94.092088,49.770441],[-94.104276,49.770209],[-94.110879,49.767447],[-94.120431,49.767337],[-94.126286,49.760534],[-94.135154,49.756148],[-94.141879,49.756388],[-94.147024,49.761428],[-94.150935,49.763008],[-94.161995,49.760964],[-94.172507,49.762711],[-94.184166,49.756818],[-94.194013,49.754144],[-94.203642,49.754468],[-94.21812,49.75213],[-94.221662,49.749467],[-94.22981,49.732974],[-94.250637,49.726356],[-94.260074,49.729132],[-94.275873,49.73047],[-94.284517,49.732533],[-94.310964,49.733642],[-94.316741,49.73575],[-94.319788,49.739328],[-94.323851,49.7593],[-94.332947,49.773533],[-94.337753,49.787662],[-94.340717,49.791361],[-94.345544,49.794067],[-94.352167,49.795402],[-94.369831,49.795799],[-94.385692,49.801775],[-94.39725,49.800938],[-94.415982,49.80331],[-94.428675,49.801689],[-94.465288,49.805916],[-94.482038,49.801432],[-94.505026,49.797097],[-94.519981,49.792332],[-94.552787,49.789738],[-94.570261,49.781461],[-94.57574,49.781639],[-94.585399,49.785321],[-94.592835,49.785579],[-94.608234,49.780419],[-94.627812,49.777276],[-94.634411,49.774102],[-94.638462,49.770169],[-94.639767,49.766256],[-94.639159,49.754198],[-94.650882,49.741696],[-94.669939,49.733754],[-94.687212,49.729219],[-94.718123,49.717867],[-94.730239,49.71893],[-94.751249,49.71618],[-94.769613,49.715317],[-94.781782,49.716532],[-94.803388,49.713679],[-94.825507,49.717128],[-94.832379,49.71588],[-94.839375,49.711808],[-94.850207,49.711382],[-94.875653,49.717547],[-94.887818,49.72246],[-94.898384,49.720566],[-94.930577,49.721591],[-94.964878,49.72804],[-94.986124,49.727169],[-95.011458,49.73091],[-95.034278,49.729258],[-95.047879,49.730082],[-95.064515,49.732535],[-95.084053,49.738886],[-95.102814,49.743367],[-95.109782,49.743273],[-95.124827,49.740627],[-95.150881,49.740011],[-95.1789,49.737558],[-95.223855,49.736709],[-95.251166,49.728366],[-95.26539,49.708828],[-95.269894,49.70603],[-95.283213,49.703867],[-95.37064,49.679998],[-95.377829,49.676616],[-95.400846,49.66101],[-95.454473,49.644865],[-95.537743,49.635333],[-95.693852,49.635425],[-95.701007,49.637066],[-95.715696,49.646627],[-95.722518,49.648707],[-95.793312,49.648846],[-95.834358,49.650142],[-95.972721,49.649421],[-95.992163,49.653725],[-96.013472,49.656187],[-96.0291,49.659545],[-96.077991,49.66294],[-96.103156,49.667554],[-96.112388,49.666732],[-96.143603,49.65749],[-96.151957,49.656234],[-96.222783,49.658536],[-96.247152,49.656226],[-96.259402,49.656215],[-96.321346,49.663131],[-96.550528,49.663517],[-96.751948,49.74351],[-96.940617,49.822198],[-96.949992,49.829379],[-96.964019,49.834838],[-96.963347,49.836182],[-96.962722,49.834974],[-96.976036,49.823029],[-97.028389,49.821997],[-97.181388,49.768869],[-97.286944,49.767942],[-97.309391,49.770314],[-97.317076,49.773663],[-97.329314,49.789664],[-97.322691,49.854972],[-97.326202,49.871763],[-97.3253,49.881172],[-97.323909,49.881997],[-97.324439,49.88075],[-97.361852,49.876331],[-97.394607,49.87561],[-97.47552,49.882637],[-97.502376,49.887878],[-97.526879,49.886798],[-97.65174,49.887328],[-98.081971,49.966987],[-98.105767,49.972623],[-98.222805,49.975948],[-98.230264,49.973391],[-98.240462,49.96154],[-98.263701,49.958247],[-98.293534,49.946836],[-98.297807,49.94618],[-98.351181,49.96215],[-98.355251,49.964861],[-98.360958,49.972478],[-98.369849,49.975015],[-98.766646,49.975432],[-98.776036,49.974005],[-98.818749,49.961942],[-98.839277,49.960317],[-98.922358,49.96016],[-98.961655,49.950071],[-98.987832,49.94711],[-98.996014,49.943151],[-99.024656,49.919233],[-99.059059,49.903957],[-99.068539,49.901937],[-99.121942,49.901912],[-99.146733,49.903367],[-99.179563,49.901459],[-99.520241,49.90169],[-99.545481,49.903643],[-99.568099,49.901538],[-99.70685,49.901223],[-99.757864,49.887717],[-99.764797,49.886853],[-100.063358,49.886693],[-100.068517,49.885069],[-100.148718,49.843056],[-100.262886,49.84221],[-100.27826,49.837139],[-100.293628,49.836096],[-100.310916,49.830505],[-100.334059,49.829675],[-100.375279,49.813218],[-100.427771,49.784996],[-100.4351,49.783844],[-100.469321,49.783328],[-100.474982,49.781043],[-100.484129,49.773998],[-100.490939,49.771877],[-100.533744,49.769612],[-100.601872,49.769183],[-100.631398,49.774768],[-100.636827,49.774269],[-100.65279,49.76934],[-100.707915,49.769437],[-100.765409,49.782496],[-100.790463,49.792576],[-100.833613,49.800455],[-100.920725,49.856776],[-100.965665,49.871869],[-101.02311,49.89882],[-101.04363,49.905603],[-101.127913,49.939037],[-101.167973,49.946],[-101.182315,49.946334],[-101.18829,49.9476],[-101.213301,49.961279],[-101.233167,49.980652],[-101.238905,49.983983],[-101.260179,49.987183],[-101.279176,49.997197],[-101.304959,50.008355],[-101.325151,50.012781],[-101.344549,50.018862],[-101.35914,50.030277],[-101.383108,50.033998],[-101.428749,50.05245],[-101.457283,50.061823],[-101.516085,50.078196],[-101.542775,50.090282],[-101.575262,50.107928],[-101.63006,50.126013],[-101.653496,50.147133],[-101.665963,50.153293],[-101.685576,50.159232],[-101.72671,50.179848],[-101.773166,50.205866],[-101.79722,50.211195],[-101.924228,50.253402],[-101.945514,50.257573],[-101.971091,50.268656],[-101.99666,50.270776],[-102.08898,50.300945],[-102.113206,50.30566],[-102.126552,50.311347],[-102.17303,50.314471],[-102.228824,50.32522],[-102.251094,50.336427],[-102.288309,50.338818],[-102.340228,50.353959],[-102.395739,50.361611],[-102.416832,50.367935],[-102.445113,50.368387],[-102.478957,50.372582],[-102.566872,50.379533],[-102.59036,50.385191],[-102.59551,50.384781],[-102.611052,50.37937],[-102.61806,50.378251],[-102.633783,50.380482],[-102.684345,50.381803],[-102.859289,50.403918],[-102.931329,50.40409],[-102.959516,50.411995],[-103.272478,50.412219],[-103.279044,50.415049],[-103.288515,50.425762],[-103.293433,50.428535],[-103.453639,50.47729],[-103.506087,50.494329],[-103.569167,50.517765],[-103.64168,50.525716],[-103.69068,50.524787],[-103.712354,50.527841],[-103.93155,50.527447],[-103.955626,50.523518],[-104.040496,50.519812],[-104.063033,50.514482],[-104.111598,50.513288],[-104.134327,50.509064],[-104.251079,50.493046],[-104.343655,50.448021],[-104.565043,50.447229],[-104.562191,50.441274],[-104.563308,50.437571],[-104.581231,50.416195],[-104.599128,50.39886],[-104.60515,50.396838],[-105.135304,50.396887],[-105.152554,50.393225],[-105.169548,50.391477],[-105.173435,50.392437],[-105.17748,50.39618],[-105.181509,50.396904],[-105.439332,50.396875],[-105.464714,50.393169],[-105.492077,50.398737],[-105.513412,50.418535],[-105.545377,50.425743],[-105.723415,50.425987],[-105.732673,50.427158],[-105.820552,50.455258],[-105.860185,50.476597],[-105.89067,50.483827],[-106.024324,50.463234],[-106.140543,50.463287],[-106.17789,50.461651],[-106.331732,50.463851],[-106.43578,50.462855],[-106.452048,50.464894],[-106.460531,50.463736],[-106.491466,50.462884],[-106.512473,50.466044],[-106.570057,50.466857],[-106.628245,50.463394],[-106.651624,50.457265],[-106.672951,50.454073],[-106.741849,50.46703],[-106.790159,50.478597],[-106.802338,50.480468],[-106.843708,50.482024],[-106.847652,50.480929],[-106.867612,50.465309],[-106.882962,50.458023],[-106.900001,50.443291],[-106.952681,50.413979],[-106.95738,50.412557],[-107.019489,50.41242],[-107.04056,50.409393],[-107.073638,50.412105],[-107.110416,50.424431],[-107.137163,50.426707],[-107.190765,50.426755],[-107.203886,50.425825],[-107.219261,50.421779],[-107.243615,50.41806],[-107.298364,50.39053],[-107.43682,50.390242],[-107.472128,50.387123],[-107.502521,50.3769],[-107.580987,50.360857],[-107.595129,50.356363],[-107.613974,50.355132],[-107.645065,50.350235],[-107.68384,50.339182],[-107.710521,50.326665],[-107.725859,50.323136],[-107.805224,50.295066],[-107.817865,50.287459],[-107.872998,50.286672],[-107.900577,50.291958],[-107.929564,50.291465],[-107.939211,50.290113],[-107.960211,50.284263],[-108.007127,50.260078],[-108.166339,50.211755],[-108.21503,50.192854],[-108.257893,50.168435],[-108.284076,50.157393],[-108.345692,50.144496],[-108.409356,50.138968],[-108.427381,50.134319],[-108.462679,50.117557],[-108.482955,50.102206],[-108.544774,50.084861],[-108.55913,50.078279],[-108.582891,50.070683],[-108.787911,50.070237],[-108.816439,50.067537],[-108.857981,50.069576],[-108.864504,50.068247],[-108.886016,50.056717],[-108.916926,50.048506],[-108.968189,50.047385],[-109.028463,50.030702],[-109.048194,50.027242],[-109.076196,50.01633],[-109.125145,50.004682],[-109.212119,50.004112],[-109.345256,49.982312],[-109.496063,49.982656],[-109.542967,49.975385],[-109.664975,49.975475],[-109.714586,49.961383],[-109.822174,49.961286],[-109.858919,49.964762],[-109.897607,49.959503],[-109.989915,49.960726],[-109.996956,49.959172],[-110.012728,49.95191],[-110.056981,49.939337],[-110.122738,49.940862],[-110.162802,49.937632],[-110.229138,49.950378],[-110.296224,49.95769],[-110.339592,49.955952],[-110.385883,49.975041],[-110.421902,49.983044],[-110.445909,49.982865],[-110.518292,49.975012],[-110.560006,49.974824],[-110.594946,49.967362],[-110.601224,49.969455],[-110.609661,49.977045],[-110.638399,49.997632],[-110.654163,50.002897],[-110.665586,50.005091],[-110.686866,50.014351],[-110.707257,50.033002],[-110.711869,50.032473],[-110.712108,50.0339],[-110.717004,50.036758],[-110.722805,50.036674],[-110.721988,50.038107],[-110.722805,50.036674],[-110.717004,50.036758],[-110.712108,50.0339],[-110.711869,50.032473],[-110.707257,50.033002],[-110.720955,50.04565],[-110.741365,50.056548],[-110.74583,50.066482],[-110.798945,50.090386],[-110.956298,50.158233],[-110.986203,50.167508],[-111.071689,50.189984],[-111.164719,50.217516],[-111.193376,50.229307],[-111.617302,50.4753],[-111.703963,50.504923],[-111.784863,50.53079],[-111.979956,50.635118],[-112.087599,50.655844],[-112.190339,50.688689],[-112.304188,50.731671],[-112.31136,50.732637],[-112.341981,50.732679],[-112.350321,50.734658],[-112.39935,50.764324],[-112.402912,50.768151],[-112.407389,50.77793],[-112.410768,50.78086],[-112.416982,50.782717],[-112.434915,50.783361],[-112.443178,50.786974],[-112.450556,50.798318],[-112.452401,50.81898],[-112.471782,50.832457],[-112.481335,50.834129],[-112.809556,50.834586],[-112.814608,50.836125],[-112.851143,50.861533],[-112.857707,50.863686],[-113.016128,50.863862],[-113.02596,50.867049],[-113.073657,50.910117],[-113.074223,51.031005],[-113.077727,51.035385],[-113.089124,51.037794],[-113.797374,51.037919],[-113.805529,51.040508],[-113.810298,51.046497],[-113.812155,51.05023],[-113.812447,51.059636],[-113.814675,51.062993],[-113.81892,51.065591],[-113.825549,51.06696],[-113.865389,51.067022],[-113.864298,51.069531],[-113.865389,51.067022],[-114.118336,51.067049],[-114.129103,51.068597],[-114.139018,51.06668],[-114.151869,51.066017],[-114.15725,51.067419],[-114.168951,51.074984],[-114.193544,51.081548],[-114.205474,51.082408],[-114.232025,51.088569],[-114.437971,51.088708],[-114.45539,51.086678],[-114.532377,51.087804],[-114.549405,51.093291],[-114.567104,51.090831],[-114.578159,51.091706],[-114.646971,51.11255],[-114.733572,51.147073],[-114.754734,51.160307],[-114.763364,51.162324],[-114.778108,51.161346],[-114.78823,51.15929],[-114.816758,51.150353],[-114.863832,51.146121],[-114.887513,51.140762],[-114.958954,51.128265],[-115.049702,51.092399],[-115.053812,51.088888],[-115.056201,51.080249],[-115.058897,51.077197],[-115.086039,51.067096],[-115.092091,51.066673],[-115.118218,51.069938],[-115.136315,51.061506],[-115.143488,51.054952],[-115.162105,51.049982],[-115.182421,51.047706],[-115.188312,51.05018],[-115.192758,51.054227],[-115.199283,51.055212],[-115.216045,51.050793],[-115.238557,51.040827],[-115.271613,51.038955],[-115.281869,51.041762],[-115.306165,51.052301],[-115.311398,51.054894],[-115.312525,51.057032],[-115.317577,51.058095],[-115.317944,51.060974],[-115.320711,51.062343],[-115.317577,51.058095],[-115.312304,51.056496],[-115.318132,51.058025],[-115.342298,51.088693],[-115.387273,51.124983],[-115.403432,51.131611],[-115.409703,51.137771],[-115.43033,51.151288],[-115.442518,51.162989],[-115.453257,51.167409],[-115.466299,51.169887],[-115.471788,51.17536],[-115.484024,51.182525],[-115.499651,51.199055],[-115.517848,51.202564],[-115.529953,51.208752],[-115.534406,51.209155],[-115.538122,51.207996],[-115.550444,51.196425],[-115.571508,51.1917],[-115.610031,51.180218],[-115.636215,51.177214],[-115.645641,51.174986],[-115.682236,51.157462],[-115.700758,51.158495],[-115.719415,51.162502],[-115.79546,51.218723],[-115.826965,51.226556],[-115.843141,51.232758],[-115.858413,51.240813],[-115.882778,51.24761],[-115.893034,51.254727],[-115.946478,51.268494],[-115.976173,51.282977],[-115.995743,51.288214],[-116.037031,51.319493],[-116.052575,51.328767],[-116.057066,51.334094],[-116.07434,51.346106],[-116.08946,51.352926],[-116.099897,51.359921],[-116.108053,51.371887],[-116.137383,51.394787],[-116.155223,51.400684],[-116.169162,51.413605],[-116.175247,51.428383],[-116.19062,51.433442],[-116.19689,51.439537],[-116.203734,51.442361],[-116.225222,51.442261],[-116.237415,51.444563],[-116.248759,51.445153],[-116.259031,51.454291],[-116.267413,51.458301],[-116.271949,51.45788],[-116.282574,51.453648],[-116.309738,51.451823],[-116.330595,51.446984],[-116.339568,51.442981],[-116.35324,51.440789],[-116.360708,51.437115],[-116.384126,51.436465],[-116.393588,51.431915],[-116.413244,51.430582],[-116.428921,51.420924],[-116.445322,51.419363],[-116.480774,51.404407],[-116.494062,51.397288],[-116.503842,51.384326],[-116.511881,51.380031],[-116.513993,51.372405],[-116.520916,51.36804],[-116.532375,51.357232],[-116.55497,51.330499],[-116.558465,51.328596],[-116.570793,51.326012],[-116.574744,51.322855],[-116.580056,51.305753],[-116.579645,51.297792],[-116.582487,51.291415],[-116.582789,51.281942],[-116.596979,51.272441],[-116.598194,51.270238],[-116.590302,51.262675],[-116.586592,51.250978],[-116.579836,51.244648],[-116.58063,51.237012],[-116.573112,51.223445],[-116.575138,51.219811],[-116.57961,51.217363],[-116.583654,51.216951],[-116.596537,51.218762],[-116.609579,51.222919],[-116.619383,51.222571],[-116.641469,51.232275],[-116.665766,51.246446],[-116.677755,51.25],[-116.688039,51.25474],[-116.702628,51.258553],[-116.729163,51.261018],[-116.752769,51.271683],[-116.766762,51.274558],[-116.783919,51.281008],[-116.793481,51.28193],[-116.805929,51.278598],[-116.811633,51.279199],[-116.825166,51.287506],[-116.843088,51.2911],[-116.863827,51.299083],[-116.874809,51.305885],[-116.890513,51.304764],[-116.911882,51.29838],[-116.928788,51.29879],[-116.948439,51.302064],[-116.959589,51.30031],[-116.963046,51.300863],[-116.965009,51.30652],[-116.972339,51.312998],[-116.975494,51.322036],[-116.990291,51.332556],[-117.001261,51.34974],[-117.015763,51.36601],[-117.020566,51.373468],[-117.020737,51.377689],[-117.028996,51.394018],[-117.06109,51.427619],[-117.092856,51.445787],[-117.096183,51.449002],[-117.127683,51.468128],[-117.142373,51.475159],[-117.147877,51.479249],[-117.162618,51.48561],[-117.169909,51.486569],[-117.180864,51.484342],[-117.186379,51.484546],[-117.207297,51.492651],[-117.222467,51.496163],[-117.226035,51.494851],[-117.228244,51.490029],[-117.21797,51.479573],[-117.219084,51.476595],[-117.223183,51.474887],[-117.22781,51.475291],[-117.259906,51.486594],[-117.295606,51.493921],[-117.35316,51.480444],[-117.36213,51.480023],[-117.369016,51.481619],[-117.39687,51.49287],[-117.424714,51.508893],[-117.436161,51.512062],[-117.440293,51.512138],[-117.444991,51.510254],[-117.450237,51.505073],[-117.461576,51.501772],[-117.473878,51.488688],[-117.482433,51.474436],[-117.476969,51.440193],[-117.47921,51.432956],[-117.475289,51.426085],[-117.471131,51.409078],[-117.460225,51.396836],[-117.448299,51.38684],[-117.452847,51.378917],[-117.439232,51.361851],[-117.434362,51.345098],[-117.446473,51.329796],[-117.46618,51.324424],[-117.491801,51.319372],[-117.511314,51.314206],[-117.51473,51.312213],[-117.520022,51.305421],[-117.519842,51.299063],[-117.513489,51.286762],[-117.513459,51.282044],[-117.507846,51.273489],[-117.50389,51.271074],[-117.504227,51.269518],[-117.511855,51.268141],[-117.53955,51.259287],[-117.551857,51.262274],[-117.564247,51.261754],[-117.581122,51.258403],[-117.597721,51.251872],[-117.610207,51.250722],[-117.616064,51.248162],[-117.629253,51.245482],[-117.636147,51.245955],[-117.647805,51.240901],[-117.66251,51.237054],[-117.670007,51.229299],[-117.688495,51.216462],[-117.701136,51.212362],[-117.719139,51.20938],[-117.72621,51.206418],[-117.735184,51.205727],[-117.743728,51.202729],[-117.750522,51.187735],[-117.785309,51.168122],[-117.801485,51.1612],[-117.813203,51.158091],[-117.820064,51.15421],[-117.834797,51.151814],[-117.839479,51.144885],[-117.858479,51.138932],[-117.869777,51.139069],[-117.880249,51.137102],[-117.882338,51.134796],[-117.883276,51.128115],[-117.88649,51.125363],[-117.88739,51.119399],[-117.897436,51.11319],[-117.92779,51.080619],[-117.928566,51.077832],[-117.926476,51.073033],[-117.931336,51.068989],[-117.937035,51.052783],[-117.966985,51.04213],[-117.991505,51.040823],[-118.08186,51.016848],[-118.100994,51.009078],[-118.112689,51.00678],[-118.121992,51.000336],[-118.139144,50.992558],[-118.151809,50.992223],[-118.160605,50.995303],[-118.165115,50.99845],[-118.171895,50.999218],[-118.180531,50.995349],[-118.192058,50.993721],[-118.183807,50.988323],[-118.181952,50.985073],[-118.184853,50.979952],[-118.184613,50.971126],[-118.183109,50.970451],[-118.178017,50.971444],[-118.175453,50.970161],[-118.175399,50.968671],[-118.172162,50.968262],[-118.175399,50.968671],[-118.175453,50.970161],[-118.178017,50.971444],[-118.183109,50.970451],[-118.184613,50.971126],[-118.184853,50.979952],[-118.181952,50.985073],[-118.183807,50.988323],[-118.191983,50.993829],[-118.193252,50.998856],[-118.208393,51.007923],[-118.216066,51.009438],[-118.224155,51.003686],[-118.232263,51.002554],[-118.239406,50.999527],[-118.24597,50.993939],[-118.259483,50.991831],[-118.272749,50.991233],[-118.292723,50.985733],[-118.303997,50.979937],[-118.313365,50.979921],[-118.320657,50.978044],[-118.332214,50.97248],[-118.338637,50.971155],[-118.35458,50.970881],[-118.361333,50.966866],[-118.373597,50.962882],[-118.385186,50.962542],[-118.400341,50.957193],[-118.407106,50.95068],[-118.424479,50.943595],[-118.431364,50.937277],[-118.460331,50.928861],[-118.473052,50.927695],[-118.481671,50.931376],[-118.484477,50.935401],[-118.481015,50.946057],[-118.483529,50.950459],[-118.489569,50.952676],[-118.492032,50.955573],[-118.498386,50.9591],[-118.50702,50.967916],[-118.518998,50.971869],[-118.524317,50.976052],[-118.530232,50.977322],[-118.546775,50.974933],[-118.553142,50.97581],[-118.562822,50.97376],[-118.571937,50.969815],[-118.59018,50.971205],[-118.603614,50.97415],[-118.6161,50.981526],[-118.62656,50.984359],[-118.653025,51.001096],[-118.670508,51.003201],[-118.689467,50.997998],[-118.718521,50.983353],[-118.734864,50.964689],[-118.774929,50.946878],[-118.793759,50.930103],[-118.796003,50.923104],[-118.817473,50.901336],[-118.834022,50.890624],[-118.840772,50.888856],[-118.853869,50.888607],[-118.866945,50.891792],[-118.912349,50.882372],[-118.923294,50.874584],[-118.929016,50.864597],[-118.942741,50.856012],[-118.949097,50.848814],[-118.964868,50.838804],[-118.974762,50.837936],[-118.984735,50.839712],[-119.007947,50.831034],[-119.017406,50.830049],[-119.032595,50.822998],[-119.055978,50.80665],[-119.061595,50.805307],[-119.070649,50.797625],[-119.073342,50.793042],[-119.07955,50.789608],[-119.086052,50.788755],[-119.114742,50.790801],[-119.126101,50.794893],[-119.129444,50.794105],[-119.133601,50.790031],[-119.144334,50.789377],[-119.165161,50.784428],[-119.182085,50.773121],[-119.202068,50.764846],[-119.213456,50.755021],[-119.22634,50.747049],[-119.227408,50.713552],[-119.231501,50.709042],[-119.236881,50.707257],[-119.264394,50.706974],[-119.270388,50.702547],[-119.278398,50.702249],[-119.285132,50.699874],[-119.292841,50.699456],[-119.309798,50.692794],[-119.326026,50.693037],[-119.329614,50.694847],[-119.331252,50.697887],[-119.330106,50.702812],[-119.318607,50.714549],[-119.315639,50.730079],[-119.322554,50.740838],[-119.323116,50.746851],[-119.32545,50.750488],[-119.32537,50.757359],[-119.337476,50.766225],[-119.340553,50.773952],[-119.339391,50.778259],[-119.329261,50.787504],[-119.325188,50.802588],[-119.31988,50.809666],[-119.320095,50.827365],[-119.329694,50.8433],[-119.345234,50.850031],[-119.367352,50.856261],[-119.372936,50.862207],[-119.38439,50.87014],[-119.386964,50.873866],[-119.394802,50.878763],[-119.407024,50.879498],[-119.43418,50.877027],[-119.471375,50.876916],[-119.502118,50.883511],[-119.511588,50.889806],[-119.519692,50.892727],[-119.532162,50.892109],[-119.534775,50.888288],[-119.542501,50.884693],[-119.55855,50.880518],[-119.566547,50.877181],[-119.571458,50.872855],[-119.576644,50.872075],[-119.596295,50.863282],[-119.605185,50.853548],[-119.647912,50.831285],[-119.670486,50.826558],[-119.699051,50.805988],[-119.702913,50.791445],[-119.710452,50.786381],[-119.716071,50.778436],[-119.727702,50.768809],[-119.74186,50.762944],[-119.750402,50.753558],[-119.757835,50.740608],[-119.762811,50.736826],[-119.767427,50.725348],[-119.788761,50.711838],[-119.795727,50.701992],[-119.810925,50.693038],[-119.817832,50.684792],[-119.835146,50.674505],[-119.854428,50.668919],[-119.880202,50.653499],[-119.90669,50.64539],[-119.91818,50.644506],[-119.962379,50.650719],[-119.98584,50.64749],[-119.997628,50.647333],[-120.008,50.650348],[-120.027256,50.653198],[-120.057164,50.6543],[-120.066078,50.653514],[-120.106174,50.659616],[-120.120379,50.659543],[-120.129169,50.662681],[-120.153486,50.667629],[-120.177041,50.669761],[-120.200493,50.66932],[-120.213301,50.67194],[-120.221778,50.671069],[-120.268277,50.680546],[-120.286797,50.677889],[-120.302169,50.671497],[-120.298609,50.679259],[-120.299547,50.682925],[-120.321515,50.693624],[-120.32201,50.690543],[-120.327737,50.69055],[-120.327857,50.689465],[-120.322842,50.690166],[-120.322989,50.689216],[-120.322842,50.690166],[-120.327469,50.689418],[-120.327829,50.690409],[-120.32201,50.690543],[-120.321257,50.693289],[-120.30163,50.684422],[-120.298642,50.680323],[-120.304491,50.670254],[-120.319924,50.662431],[-120.354544,50.661684],[-120.360812,50.659094],[-120.364534,50.65478],[-120.375795,50.652643],[-120.389074,50.656128],[-120.395147,50.660034],[-120.420609,50.665969],[-120.450983,50.666642],[-120.464829,50.661795],[-120.483465,50.652579],[-120.486011,50.649448],[-120.486376,50.642819],[-120.483514,50.633988],[-120.474256,50.624504],[-120.472093,50.620115],[-120.477675,50.59589],[-120.477212,50.591751],[-120.463878,50.578809],[-120.45972,50.572198],[-120.451343,50.566013],[-120.449157,50.55835],[-120.450327,50.553309],[-120.460199,50.54218],[-120.478485,50.532121],[-120.489533,50.508481],[-120.501022,50.494737],[-120.516409,50.489948],[-120.55911,50.484125],[-120.587739,50.464844],[-120.591331,50.459592],[-120.593382,50.445451],[-120.616611,50.424128],[-120.621828,50.414962],[-120.627745,50.366632],[-120.626852,50.350288],[-120.641839,50.307752],[-120.636231,50.29747],[-120.633141,50.278698],[-120.626058,50.268992],[-120.631167,50.258597],[-120.629545,50.251541],[-120.630933,50.243155],[-120.630132,50.231657],[-120.633393,50.228345],[-120.644005,50.222457],[-120.648083,50.211039],[-120.654093,50.204455],[-120.663852,50.198124],[-120.67684,50.193637],[-120.681773,50.183992],[-120.691209,50.178966],[-120.698059,50.171371],[-120.704818,50.168277],[-120.723966,50.146291],[-120.739254,50.136192],[-120.743274,50.12923],[-120.759748,50.121157],[-120.760732,50.115041],[-120.749208,50.100711],[-120.749887,50.087375],[-120.754385,50.083434],[-120.783845,50.072389],[-120.788537,50.069461],[-120.797193,50.053104],[-120.806965,50.044318],[-120.808583,50.038656],[-120.818356,50.030904],[-120.821487,50.01889],[-120.826464,50.017112],[-120.843636,50.017822],[-120.857682,50.015731],[-120.867513,50.012474],[-120.871778,50.006879],[-120.891501,49.992239],[-120.895595,49.985392],[-120.903288,49.980805],[-120.913982,49.969972],[-120.915247,49.963063],[-120.907676,49.952751],[-120.905158,49.946021],[-120.905953,49.93803],[-120.911482,49.924692],[-120.911168,49.917566],[-120.90353,49.910774],[-120.902961,49.895264],[-120.899547,49.88669],[-120.901371,49.883227],[-120.912723,49.87674],[-120.916401,49.872999],[-120.919254,49.864866],[-120.916424,49.857794],[-120.916853,49.854168],[-120.928656,49.845278],[-120.933331,49.837241],[-120.933909,49.831743],[-120.93837,49.827206],[-120.939533,49.821164],[-120.950731,49.8074],[-120.956578,49.802486],[-120.968505,49.795709],[-120.973415,49.786787],[-120.990665,49.774922],[-120.995119,49.767432],[-121.003057,49.759647],[-121.009455,49.756],[-121.011723,49.752666],[-121.01378,49.721115],[-121.012423,49.715128],[-121.016733,49.708159],[-121.011224,49.696573],[-121.013511,49.691999],[-121.015286,49.674432],[-121.012958,49.66253],[-121.004987,49.653217],[-121.002198,49.644006],[-121.003314,49.640722],[-121.010748,49.633535],[-121.019181,49.629287],[-121.037023,49.622961],[-121.053852,49.609654],[-121.08661,49.592906],[-121.094939,49.59202],[-121.108846,49.595487],[-121.124187,49.595652],[-121.13675,49.599352],[-121.157682,49.596967],[-121.162229,49.594839],[-121.165677,49.587312],[-121.182014,49.573942],[-121.183464,49.566157],[-121.190311,49.556957],[-121.196988,49.542372],[-121.204619,49.532186],[-121.207124,49.520871],[-121.198988,49.508155],[-121.202038,49.500069],[-121.205719,49.496506],[-121.21077,49.494582],[-121.226454,49.495685],[-121.244277,49.493494],[-121.248901,49.489278],[-121.253186,49.47983],[-121.254721,49.462995],[-121.261006,49.453724],[-121.280696,49.442066],[-121.300524,49.439358],[-121.307895,49.435171],[-121.312018,49.42306],[-121.317416,49.415899],[-121.317697,49.409089],[-121.315749,49.402303],[-121.319765,49.395056],[-121.318868,49.382606],[-121.32033,49.379878],[-121.323743,49.378812],[-121.338641,49.379082],[-121.346468,49.377521],[-121.355795,49.379587],[-121.362858,49.377788],[-121.36516,49.375566],[-121.365041,49.372852],[-121.357288,49.368466],[-121.355755,49.366174],[-121.356809,49.363359],[-121.361028,49.361792],[-121.396266,49.366901],[-121.413531,49.372178],[-121.426328,49.371452],[-121.436919,49.374114],[-121.441705,49.37947],[-121.444145,49.378558],[-121.447129,49.381969],[-121.441627,49.373947],[-121.456506,49.366205],[-121.487159,49.364754],[-121.51336,49.361523],[-121.525034,49.365074],[-121.546302,49.364309],[-121.566874,49.361302],[-121.578829,49.355539],[-121.608111,49.333731],[-121.630299,49.316104],[-121.635933,49.309394],[-121.645382,49.301909],[-121.652298,49.299352],[-121.658568,49.294097],[-121.668342,49.289625],[-121.671982,49.276044],[-121.67612,49.270718],[-121.676248,49.26082],[-121.681189,49.25384],[-121.678497,49.240991],[-121.693155,49.21692],[-121.703905,49.213239],[-121.710559,49.207405],[-121.719627,49.203868],[-121.742224,49.189591],[-121.772608,49.176481],[-121.798092,49.160816],[-121.801355,49.160001],[-121.809514,49.160536],[-121.819942,49.155919],[-121.826443,49.154817],[-121.919421,49.155254],[-121.966942,49.143827],[-122.018824,49.144589],[-122.071492,49.136658],[-122.086227,49.126652],[-122.100778,49.120976],[-122.126238,49.088843],[-122.173237,49.060181],[-122.230189,49.035087],[-122.242707,49.033631],[-122.276618,49.033521],[-122.335874,49.037171],[-122.377205,49.056282],[-122.614719,49.149635],[-122.790052,49.195747],[-122.809591,49.212141],[-122.814791,49.22351],[-122.820359,49.227166],[-122.877991,49.234504],[-122.895969,49.244266],[-122.903338,49.24621],[-122.910075,49.24535],[-122.927383,49.236854],[-122.945532,49.237442],[-122.966614,49.24321],[-122.978261,49.25545],[-122.982047,49.257395],[-123.005582,49.258087],[-123.00391,49.259068],[-123.007712,49.258081],[-123.019859,49.258806],[-123.02519,49.262569],[-123.031416,49.276378],[-123.031738,49.285821],[-123.026114,49.291773],[-123.028017,49.311289],[-123.037744,49.3158],[-123.045158,49.324871],[-123.05161,49.32739],[-123.057472,49.331613],[-123.119919,49.332621],[-123.129118,49.337371],[-123.146221,49.33871],[-123.156256,49.343181],[-123.184465,49.344706],[-123.191612,49.347301],[-123.21371,49.346206],[-123.231012,49.348923],[-123.241255,49.349142],[-123.253081,49.3524],[-123.253638,49.358224],[-123.256274,49.360383],[-123.262924,49.362041],[-123.274612,49.361468],[-123.275899,49.368558]]}},{"type":"Feature","properties":{"kind":"ferry-return","name":"BC Ferries · Horseshoe Bay → Departure Bay","mode":"ferry"},"geometry":{"type":"LineString","coordinates":[[-123.2758982,49.3685581],[-123.9537888,49.1912971]]}}]}